country_code,postal_code,latitude,longitude,region_id
ZAF,0002,-25.7069,28.2294,Pretoria
ZAF,0003,-25.7069,28.2294,Pretoria
ZAF,0004,-25.7069,28.2294,Pretoria
ZAF,0005,-25.7069,28.2294,Pretoria
ZAF,0006,-25.7069,28.2294,Pretoria
ZAF,0007,-25.7069,28.2294,Pretoria
ZAF,0008,-25.7398,28.1486,Atteridgeville||Pretoria
ZAF,0009,-25.7069,28.2294,Pretoria
ZAF,0010,-25.7069,28.2294,Glenstantia||Pretoria
ZAF,0011,-25.7069,28.2294,Pretoria
ZAF,0012,-25.7069,28.2294,Pretoria
ZAF,0014,-25.7069,28.2294,Centurion||Pretoria
ZAF,0016,-25.7069,28.2294,Pretoria
ZAF,0017,-25.6701,28.248,Doornpoort||Pretoria
ZAF,0018,-25.7069,28.2294,Pretoria
ZAF,0019,-25.7069,28.2294,Pretoria
ZAF,0020,-25.7069,28.2294,Pretoria
ZAF,0021,-25.7069,28.2294,Pretoria
ZAF,0022,-25.7152,28.2744,Eersterus||Pretoria
ZAF,0023,-25.7069,28.2294,Pretoria
ZAF,0024,-25.7069,28.2294,Pretoria
ZAF,0025,-25.7069,28.2294,Pretoria
ZAF,0026,-25.7069,28.2294,Pretoria
ZAF,0027,-25.7069,28.2294,Pretoria
ZAF,0028,-25.7069,28.2294,Pretoria
ZAF,0029,-25.7069,28.2294,Philip Nel Park||Pretoria
ZAF,0030,-25.7069,28.2294,Pretoria
ZAF,0031,-25.7069,28.2294,Pretoria
ZAF,0032,-25.7069,28.2294,Pretoria
ZAF,0033,-25.7069,28.2294,Pretoria
ZAF,0035,-25.7069,28.2294,Derdepoortpark||Pretoria
ZAF,0036,-25.7069,28.2294,Pretoria
ZAF,0037,-25.7451,28.1647,Laudium||Pretoria
ZAF,0039,-25.7069,28.2294,Pretoria
ZAF,0040,-25.7711,28.3078,Menlo Park
ZAF,0041,-25.7069,28.2294,Pretoria
ZAF,0042,-25.786,28.3017,Menlo Park||Garsfontein
ZAF,0043,-28.2784,29.2814,Faerie Glen||Pretoria
ZAF,0044,-25.7069,28.2294,Moreletapark||Pretoria
ZAF,0045,-25.7069,28.2294,Pretoria
ZAF,0046,-25.8744,28.1706,Centurion
ZAF,0047,-25.7069,28.2294,Pretoria
ZAF,0048,-25.7069,28.2294,Pretoria
ZAF,0049,-25.7069,28.2294,Pretoria
ZAF,0050,-25.7069,28.2294,Wapadrand||Pretoria
ZAF,0051,-25.8538,28.1936,Lyttelton||Centurion
ZAF,0052,-25.7069,28.2294,Pretoria
ZAF,0053,-25.7069,28.2294,Pretoria
ZAF,0054,-25.7069,28.2294,Pretoria
ZAF,0055,-25.7069,28.2294,Pretoria
ZAF,0056,-25.7069,28.2294,Pretoria
ZAF,0057,-25.7069,28.2294,Pretoria
ZAF,0058,-25.7069,28.2294,Pretoria
ZAF,0059,-25.7069,28.2294,Pretoria
ZAF,0060,-25.7711,28.3078,Menlo Park
ZAF,0061,-25.7069,28.2294,Pretoria
ZAF,0062,-25.7069,28.2294,Pretoria
ZAF,0063,-25.7069,28.2294,Pretoria
ZAF,0065,-25.7069,28.2294,Pretoria
ZAF,0066,-25.6622,28.1653,Pretoria North
ZAF,0068,-25.7167,28.1833,Hercules
ZAF,0070,-25.75,28.1667,Pretoria West
ZAF,0071,-25.7069,28.2294,Pretoria
ZAF,0072,-25.651,28.2387,Moreletapark
ZAF,0073,-25.7069,28.2294,Pretoria
ZAF,0074,-25.7069,28.2294,Pretoria
ZAF,0076,-25.4833,28.2667,Kromdraai
ZAF,0078,-25.7069,28.2294,Pretoria
ZAF,0079,-25.7069,28.2294,Pretoria
ZAF,0080,-25.7069,28.2294,Pretoria
ZAF,0081,-25.7069,28.2294,Garsfontein||Pretoria||Moreletapark||Menlo Park||Kromdraai||Wapadrand||Faerie Glen
ZAF,0082,-25.7118,28.2064,Hercules||Pretoria
ZAF,0083,-25.7484,28.2282,Hatfield||Pretoria
ZAF,0084,-25.7069,28.2294,Moot||Pretoria
ZAF,0101,-25.7069,28.2294,Pretoria
ZAF,0103,-25.7069,28.2294,Pretoria
ZAF,0105,-25.7069,28.2294,Pretoria
ZAF,0109,-25.7069,28.2294,Wierdapark
ZAF,0110,-25.7069,28.2294,Pretoria
ZAF,0112,-25.7071,28.2883,Mamelodi||Pretoria
ZAF,0116,-25.7069,28.2294,Pretoria
ZAF,0117,-25.7069,28.2294,Pretoria
ZAF,0118,-25.7069,28.2294,Karenpark||Pretoria
ZAF,0120,-25.6442,28.2306,Pyramid||Pretoria
ZAF,0121,-25.7069,28.2294,Pretoria
ZAF,0122,-25.7069,28.2294,Mamelodi||Pretoria
ZAF,0125,-25.7069,28.2294,Pretoria
ZAF,0126,-25.7069,28.2294,Pretoria
ZAF,0127,-25.7069,28.2294,Pretoria
ZAF,0128,-25.7069,28.2294,Pretoria
ZAF,0129,-25.7069,28.2294,Pretoria
ZAF,0132,-25.7069,28.2294,Pretoria
ZAF,0134,-25.7069,28.2294,Pretoria
ZAF,0135,-25.7069,28.2294,Pretoria
ZAF,0137,-25.7069,28.2294,Pretoria
ZAF,0139,-25.7069,28.2294,Pretoria
ZAF,0142,-25.7069,28.2294,Pretoria
ZAF,0143,-25.7069,28.2294,Pretoria
ZAF,0145,-25.7069,28.2294,Waterkloof||Pretoria
ZAF,0146,-25.7069,28.2294,Pretoria
ZAF,0148,-25.7069,28.2294,Pretoria
ZAF,0149,-25.7069,28.2294,Wierdapark||Centurion||Pretoria
ZAF,0150,-25.7069,28.2294,Magalieskruin||Pretoria
ZAF,0151,-25.7069,28.2294,Pretoria
ZAF,0152,-25.7069,28.2294,Soshanguve||Pretoria
ZAF,0153,-25.7701,28.2397,Wingate Park||Pretoria
ZAF,0154,-25.8034,28.1647,Rooihuiskraal||Pretoria
ZAF,0155,-25.7069,28.2294,Theresapark||Pretoria
ZAF,0156,-25.7069,28.2294,Ninapark||Pretoria
ZAF,0157,-25.8049,28.2056,Centurion||Rooihuiskraal||Lyttelton||Highveld||Pretoria||Wierdapark||The Reeds
ZAF,0158,-25.7069,28.2294,Pretoria||The Reeds
ZAF,0159,-25.7069,28.2294,Pretoria||Montanapark
ZAF,0160,-25.7125,28.2818,Denneboom||Pretoria
ZAF,0161,-25.7069,28.2294,Pretoria
ZAF,0162,-25.7069,28.2294,Pretoria
ZAF,0163,-25.7069,28.2294,Centurion||Pretoria||Lyttelton
ZAF,0164,-25.5147,28.1081,Soshanguve
ZAF,0165,-25.7069,28.2294,Pretoria
ZAF,0166,-25.7069,28.2294,Pretoria
ZAF,0167,-25.7069,28.2294,Pretoria
ZAF,0168,-25.7069,28.2294,Pretoria
ZAF,0169,-25.7069,28.2294,Highveld||Pretoria
ZAF,0170,-25.7317,28.3347,Silverton
ZAF,0171,-25.8744,28.1706,Centurion
ZAF,0172,-25.8744,28.1706,Centurion
ZAF,0173,-25.771,28.2449,Wierdapark
ZAF,0174,-25.7069,28.2294,Pretoria
ZAF,0177,-25.7072,28.3472,Mamelodi
ZAF,0179,-25.7069,28.2294,Pretoria
ZAF,0181,-25.7425,28.2326,Waterkloof||Pretoria||Wingate Park||Glenstantia||Moreletapark
ZAF,0182,-25.6771,28.1867,Pretoria-Noord||Pretoria||Karenpark||Pretoria North||Theresapark||Rosslyn||Boordfontein||Ninapark||Boordfontein-Wes||Montanapark||Boordfontein West||Magalieskruin
ZAF,0183,-25.7356,28.1876,Pretoria||Pretoria-Wes||Philip Nel Park||Pretoria West
ZAF,0184,-25.7069,28.2294,Pretoria||Silverton
ZAF,0185,-25.7593,28.1898,Valhalla||Pretoria
ZAF,0186,-25.7069,28.2294,Lynn East||Pretoria||Doornpoort
ZAF,0187,-25.7534,28.173,Voortrekkerhoogte||Pretoria
ZAF,0188,-25.7069,28.2294,Pretoria
ZAF,0189,-25.6333,27.7833,Brits
ZAF,0190,-25.563,28.0652,Mabopane||Medunsa
ZAF,0191,-25.5072,28.1075,Mabopane
ZAF,0192,-25.5072,28.1075,Mabopane
ZAF,0193,-25.5072,28.1075,Mabopane
ZAF,0194,-25.5072,28.1075,Mabopane
ZAF,0195,-25.2667,27.2333,Mogwase
ZAF,0197,-25.5072,28.1075,Mabopane
ZAF,0198,-25.5072,28.1075,Mabopane
ZAF,0199,-25.5072,28.1075,Mabopane
ZAF,0200,-25.6242,28.0942,Pretoria||Rosslyn
ZAF,0201,-25.7069,28.2294,Boordfontein||Pretoria||Karenpark||Boordfontein-Wes||Boordfontein West
ZAF,0202,-25.6667,27.25,Rustenburg
ZAF,0204,-25.6189,28.0228,Medunsa||Pretoria
ZAF,0207,-25.5072,28.1075,Mabopane
ZAF,0208,-25.5883,28.0078,Ga-Rankuwa
ZAF,0210,-25.6333,27.7833,Brits
ZAF,0211,-25.5072,28.1075,Mabopane
ZAF,0212,-25.5072,28.1075,Mabopane
ZAF,0213,-25.5072,28.1075,Mabopane
ZAF,0214,-25.5072,28.1075,Mabopane
ZAF,0215,-25.5072,28.1075,Mabopane
ZAF,0216,-25.7333,27.85,Hartbeespoort
ZAF,0217,-25.6333,27.7833,Brits
ZAF,0218,-25.5072,28.1075,Mabopane
ZAF,0219,-25.5072,28.1075,Mabopane
ZAF,0220,-25.6333,27.7833,Brits
ZAF,0232,-25.6333,27.7833,Brits
ZAF,0240,-25.6333,27.7833,Brits
ZAF,0250,-25.6333,27.7833,Brits
ZAF,0251,-25.6333,27.7833,Brits
ZAF,0252,-25.6333,27.7833,Brits
ZAF,0253,-25.6333,27.7833,Brits
ZAF,0255,-25.6333,27.7833,Brits
ZAF,0257,-25.6333,27.7833,Brits
ZAF,0258,-25.6333,27.7833,Brits
ZAF,0259,-25.6333,27.7833,Brits
ZAF,0260,-25.6333,27.7833,Brits
ZAF,0261,-25.6333,27.7833,Brits
ZAF,0264,-25.6333,27.7833,Brits||Letlhabile
ZAF,0265,-25.6333,27.7833,Brits
ZAF,0267,-25.6333,27.7833,Brits
ZAF,0268,-25.6333,27.7833,Brits
ZAF,0269,-25.6333,27.7833,Brits
ZAF,0270,-25.6333,27.7833,Brits
ZAF,0271,-25.6333,27.7833,Brits
ZAF,0273,-25.6333,27.7833,Brits
ZAF,0274,-25.6333,27.7833,Brits
ZAF,0275,-25.6333,27.7833,Brits
ZAF,0276,-25.6333,27.7833,Brits
ZAF,0277,-25.6333,27.7833,Brits
ZAF,0284,-25.613,27.8843,Marikana
ZAF,0285,-25.613,27.8843,Marikana
ZAF,0286,-25.613,27.8843,Marikana
ZAF,0287,-25.6667,27.25,Rustenburg
ZAF,0292,-25.6667,27.25,Rustenburg
ZAF,0299,-25.6399,27.5672,Rustenberg||Rustenburg
ZAF,0301,-25.6667,27.25,Rustenburg
ZAF,0302,-25.6667,27.25,Rustenburg
ZAF,0303,-25.6667,27.25,Rustenburg
ZAF,0305,-25.6666,27.25,Rustenburg
ZAF,0306,-25.6667,27.25,Rustenburg
ZAF,0307,-25.6667,27.25,Rustenburg
ZAF,0308,-25.6667,27.25,Boitekong||Rustenburg
ZAF,0309,-24.9333,27.15,Rustenburg
ZAF,0310,-25.6667,27.25,Rustenburg
ZAF,0311,-25.6667,27.25,Rustenburg
ZAF,0312,-25.6667,27.25,Rustenburg
ZAF,0313,-25.6667,27.25,Rustenburg
ZAF,0314,-25.6667,27.25,Rustenburg
ZAF,0315,-25.6667,27.25,Rustenburg
ZAF,0316,-25.6667,27.25,Rustenburg
ZAF,0317,-25.575,27.2375,Marikana
ZAF,0318,-24.9333,27.15,Rustenburg||Saulspoort
ZAF,0319,-24.6,27.4,Thabazimbi
ZAF,0320,-25.6667,27.25,Rustenburg
ZAF,0322,-25.6667,27.25,Rustenburg
ZAF,0324,-24.9333,27.15,Rustenburg
ZAF,0328,-25.6667,27.25,Rustenburg
ZAF,0330,-25.6667,27.25,Rustenburg
ZAF,0331,-25.6667,27.25,Rustenburg
ZAF,0332,-25.6667,27.25,Rustenburg
ZAF,0333,-25.6667,27.25,Rustenburg
ZAF,0334,-25.6667,27.25,Rustenburg
ZAF,0335,-25.6667,27.25,Rustenburg
ZAF,0336,-25.6667,27.25,Rustenburg
ZAF,0337,-25.6667,27.25,Rustenburg
ZAF,0338,-24.9333,27.15,Rustenburg
ZAF,0340,-25.6667,27.25,Rustenburg
ZAF,0341,-25.6667,27.25,Rustenburg
ZAF,0342,-25.6667,27.25,Rustenburg
ZAF,0344,-25.6667,27.25,Rustenburg
ZAF,0345,-25.6667,27.25,Rustenburg
ZAF,0346,-25.6667,27.25,Rustenburg
ZAF,0347,-25.6667,27.25,Rustenburg
ZAF,0348,-25.8667,26.9,Koster
ZAF,0349,-25.6667,27.25,Rustenburg
ZAF,0350,-25.6667,27.25,Rustenburg
ZAF,0351,-24.9333,27.15,Swartklip
ZAF,0353,-25.6667,27.25,Rustenburg
ZAF,0354,-25.6667,27.25,Rustenburg
ZAF,0355,-25.6667,27.25,Rustenburg
ZAF,0356,-25.6667,27.25,Rustenburg
ZAF,0357,-25.8667,25.65,Mafikeng
ZAF,0358,-24.9333,27.15,Rustenburg
ZAF,0361,-24.6,27.4,Thabazimbi
ZAF,0362,-24.6,27.4,Thabazimbi||Chromite
ZAF,0363,-24.6,27.4,Thabazimbi
ZAF,0364,-25.6667,27.25,Rustenburg
ZAF,0365,-24.9333,27.15,Rustenburg
ZAF,0366,-24.9333,27.15,Rustenburg
ZAF,0367,-24.9333,27.15,Rustenburg
ZAF,0369,-25.8667,26.9,Koster
ZAF,0371,-25.2667,27.2333,Mogwase
ZAF,0372,-25.1833,27.2667,Mogwase
ZAF,0374,-25.1667,27.1667,Saulspoort
ZAF,0375,-24.9333,27.15,Swartklip
ZAF,0378,-25.6667,27.25,Rustenburg
ZAF,0379,-25.2667,27.2333,Mogwase
ZAF,0380,-24.6,27.4,Thabazimbi
ZAF,0381,-24.6,27.4,Thabazimbi
ZAF,0382,-24.6,27.4,Thabazimbi
ZAF,0383,-24.6,27.4,Thabazimbi
ZAF,0384,-24.6,27.4,Thabazimbi
ZAF,0385,-24.6,27.4,Thabazimbi
ZAF,0386,-24.6,27.4,Thabazimbi||Podiphatshwa
ZAF,0387,-24.6,27.4,Thabazimbi||Regorogile
ZAF,0388,-25.2667,27.2333,Mogwase
ZAF,0390,-24.9333,27.15,Rustenburg
ZAF,0393,-25.2,27.2167,Rustenberg
ZAF,0394,-25.2667,27.2333,Mogwase
ZAF,0396,-25.2667,27.2333,Mogwase
ZAF,0397,-25.2667,27.2333,Mogwase
ZAF,0398,-25.2667,27.2333,Mogwase
ZAF,0399,-25.1667,27.1667,Saulspoort
ZAF,0400,-25.4075,28.2856,Hammanskraal
ZAF,0402,-25.4075,28.2856,Hammanskraal
ZAF,0404,-25.4075,28.2856,Hammanskraal
ZAF,0405,-25.1986,28.6092,Rust De Winter
ZAF,0406,-24.8833,28.2833,Warmbaths
ZAF,0407,-25.3862,28.2522,Hammanskraal||Temba
ZAF,0408,-25.365,28.2189,Temba
ZAF,0409,-25.365,28.2189,Temba
ZAF,0410,-25.365,28.2189,Temba
ZAF,0411,-25.365,28.2189,Temba
ZAF,0412,-25.343,28.2204,Mphe-Batho
ZAF,0413,-25.3752,28.253,Hammanskraal||Mutlestad
ZAF,0414,-25.4075,28.2856,Hammanskraal
ZAF,0415,-25.365,28.2189,Temba||Rantebeng
ZAF,0416,-25.365,28.2189,Temba
ZAF,0417,-25.4075,28.2856,Hammanskraal
ZAF,0418,-25.3189,28.1936,Swartbooistad||Temba
ZAF,0419,-25.2908,28.2178,Thulwe||Temba
ZAF,0420,-24.8833,28.2833,Warmbaths
ZAF,0426,-25.4075,28.2856,Hammanskraal
ZAF,0427,-25.4075,28.2856,Hammanskraal
ZAF,0428,-25.365,28.2189,Temba
ZAF,0429,-25.4075,28.2856,Hammanskraal
ZAF,0430,-24.95,28.5333,Warmbaths||Settlers
ZAF,0431,-25.2121,28.5428,Hammanskraal||Skilpadfontein
ZAF,0432,-25.2557,28.4038,Bamokgoko||Hammanskraal
ZAF,0433,-24.7,28.4,Nylstroom
ZAF,0434,-25.4075,28.2856,Hammanskraal
ZAF,0435,-25.4075,28.2856,Hammanskraal
ZAF,0436,-24.7,28.4,Nylstroom
ZAF,0437,-24.7,28.4,Nylstroom
ZAF,0438,-25.365,28.2189,Temba
ZAF,0439,-25.365,28.2189,Temba
ZAF,0440,-25.365,28.2189,Temba
ZAF,0441,-25.365,28.2189,Temba
ZAF,0442,-25.365,28.2189,Temba
ZAF,0443,-25.365,28.2189,Temba
ZAF,0444,-25.365,28.2189,Temba
ZAF,0445,-25.365,28.2189,Temba
ZAF,0447,-25.365,28.2189,Temba
ZAF,0448,-25.365,28.2189,Temba
ZAF,0449,-25.1658,28.7594,Mbibane||Marble Hall
ZAF,0450,-24.9667,29.3,Marble Hall
ZAF,0451,-24.9667,29.3,Marble Hall
ZAF,0452,-24.9667,29.3,Xipame||Marble Hall
ZAF,0453,-24.9667,29.3,Marble Hall
ZAF,0454,-24.9667,29.3,Marble Hall
ZAF,0455,-24.9667,29.3,Marble Hall
ZAF,0456,-24.9667,29.3,Marble Hall
ZAF,0457,-24.9667,29.3,Dibasabophelo||Marble Hall
ZAF,0458,-25.1417,30.2,Empumalanga||Marble Hall
ZAF,0459,-24.9667,29.3,Marble Hall
ZAF,0460,-24.9667,29.3,Marble Hall
ZAF,0462,-25.1167,29.05,Siyabuswa
ZAF,0464,-24.9667,29.3,Marble Hall
ZAF,0465,-24.9667,29.3,Marble Hall
ZAF,0466,-24.9667,29.3,Marble Hall
ZAF,0467,-24.9667,29.3,Marble Hall
ZAF,0468,-24.9667,29.3,Marble Hall
ZAF,0469,-25.1167,29.05,Siyabuswa
ZAF,0470,-25.15,29.3833,Groblersdal
ZAF,0472,-24.9667,29.3,Marble Hall||Siyabuswa
ZAF,0473,-25.15,29.3833,Groblersdal
ZAF,0474,-25.15,29.3833,Groblersdal||Boleu
ZAF,0475,-25.1167,29.05,Siyabuswa
ZAF,0477,-25.1167,29.05,Siyabuswa||Groblersdal
ZAF,0478,-24.9667,29.3,Marble Hall
ZAF,0479,-24.9667,29.3,Marble Hall
ZAF,0480,-24.8833,28.2833,Warmbad||Northern Provice||Warmbaths
ZAF,0482,-24.8833,28.2833,Warmbad
ZAF,0483,-24.8833,28.2833,Warmbaths
ZAF,0484,-24.9667,29.3,Marble Hall
ZAF,0485,-25.15,29.3833,Groblersdal
ZAF,0486,-24.75,27.5584,Leeupoort||Thabazimbi
ZAF,0487,-24.6,27.4,Thabazimbi
ZAF,0490,-25.15,29.3833,Groblersdal
ZAF,0491,-25.15,29.3833,Groblersdal
ZAF,0492,-24.8833,28.2833,Warmbaths
ZAF,0493,-25.1167,29.05,Siyabuswa
ZAF,0494,-25.1167,29.05,Siyabuswa
ZAF,0495,-25.1167,29.05,Siyabuswa
ZAF,0498,-25.365,28.2189,Temba
ZAF,0499,-25.365,28.2189,Temba
ZAF,0500,-24.6,27.4,Thabazimbi
ZAF,0501,-25.365,28.2189,Temba
ZAF,0502,-25.365,28.2189,Temba
ZAF,0503,-25.365,28.2189,Temba
ZAF,0504,-25.365,28.2189,Temba
ZAF,0505,-25.365,28.2189,Temba
ZAF,0506,-25.365,28.2189,Temba
ZAF,0507,-25.365,28.2189,Temba
ZAF,0508,-25.365,28.2189,Temba
ZAF,0510,-24.7,28.4,Nylstroom
ZAF,0512,-24.7,28.4,Nylstroom
ZAF,0513,-24.7,28.4,Nylstroom
ZAF,0514,-24.7,28.4,Nylstroom
ZAF,0515,-24.7,28.4,Nylstroom
ZAF,0516,-24.7,28.4,Nylstroom
ZAF,0517,-24.7,28.4,Nylstroom
ZAF,0531,-23.6667,27.7333,Ellisras
ZAF,0532,-23.6667,27.7333,Ellisras
ZAF,0533,-23.6667,27.7333,Ellisras
ZAF,0534,-23.6667,27.7333,Ellisras
ZAF,0536,-23.6667,27.7333,Ellisras
ZAF,0537,-24.1667,28.1,Vaalwater
ZAF,0539,-24.7,28.4,Nylstroom
ZAF,0541,-24.1833,29.0167,Potgietersrus
ZAF,0555,-23.6667,27.7333,Ellisras
ZAF,0556,-23.6667,27.7333,Ellisras
ZAF,0557,-23.6667,27.7333,Ellisras
ZAF,0560,-24.5167,28.7167,Naboomspruit
ZAF,0561,-24.5167,28.7167,Naboomspruit
ZAF,0562,-24.5167,28.7167,Naboomspruit
ZAF,0564,-24.5167,28.7167,Naboomspruit
ZAF,0580,-24.5472,28.4594,Roedtan||Naboomspruit
ZAF,0601,-24.1833,29.0167,Potgietersrus
ZAF,0602,-24.1833,29.0167,Potgietersrus
ZAF,0603,-24.1833,29.0167,Potgietersrus
ZAF,0604,-24.1833,29.0167,Potgietersrus
ZAF,0605,-24.1833,29.0167,Potgietersrus
ZAF,0606,-24.1833,29.0167,Potgietersrus
ZAF,0607,-24.1833,29.0167,Potgietersrus
ZAF,0608,-24.1833,29.0167,Potgietersrus
ZAF,0609,-24.1833,29.0167,Potgietersrus
ZAF,0610,-24.1833,29.0167,Potgietersrus
ZAF,0611,-24.1833,29.0167,Potgietersrus
ZAF,0612,-24.1833,29.0167,Potgietersrus
ZAF,0613,-24.1833,29.0167,Potgietersrus
ZAF,0615,-24.1833,29.0167,Potgietersrus
ZAF,0616,-23.7916,28.8834,Nkwe||Potgietersrus
ZAF,0617,-24.1833,29.0167,Rebone||Potgietersrus
ZAF,0618,-24.1833,29.0167,Potgietersrus
ZAF,0619,-24.1833,29.0167,Potgietersrus
ZAF,0620,-24.1833,29.0167,Potgietersrus
ZAF,0621,-24.1833,29.0167,Potgietersrus
ZAF,0622,-24.1833,29.0167,Potgietersrus
ZAF,0623,-24.1833,29.0167,Potgietersrus
ZAF,0624,-24.1833,29.0167,Potgietersrus
ZAF,0626,-24.1667,29.0,Bochum||Mahwelereng||Potgietersrus
ZAF,0629,-24.1833,29.0167,Potgietersrus
ZAF,0630,-24.1833,29.0167,Potgietersrus
ZAF,0632,-24.1833,29.0167,Pietersburg
ZAF,0633,-24.1833,29.0167,Mokamole||Potgietersrus
ZAF,0634,-24.1833,29.0167,Potgietersrus
ZAF,0635,-24.1833,29.0167,Potgietersrus
ZAF,0636,-24.1833,29.0167,Potgietersrus
ZAF,0637,-24.1833,29.0167,Potgietersrus
ZAF,0638,-24.1833,29.0167,Potgietersrus
ZAF,0639,-24.1833,29.0167,Rebone
ZAF,0642,-24.1833,29.0167,Rebone
ZAF,0643,-24.1833,29.0167,Potgieterus
ZAF,0644,-24.1833,29.0167,Potgieterus
ZAF,0645,-24.1833,29.0167,Potgietersrus
ZAF,0646,-24.1833,29.0167,Potgieterus
ZAF,0647,-24.1833,29.0167,Potgieterus
ZAF,0648,-24.1833,29.0167,Potgietersrus
ZAF,0649,-24.1833,29.0167,Potgietersrus
ZAF,0650,-24.1833,29.0167,Potgieterus
ZAF,0651,-24.1833,29.0167,Potgieterus
ZAF,0652,-24.1833,29.0167,Potgietersrus
ZAF,0654,-24.1833,29.0167,Potgietersrus
ZAF,0656,-24.1833,29.0167,Potgietersrus
ZAF,0657,-24.1833,29.0167,Potgietersrus
ZAF,0658,-24.1833,29.0167,Potgietersrus
ZAF,0659,-24.1833,29.0167,Potgietersrus
ZAF,0690,-24.1833,29.0167,Potgietersrus
ZAF,0699,-24.0059,29.196,Pietersburg||Seshego
ZAF,0700,-23.7167,29.3167,Pietersburg
ZAF,0701,-23.7167,29.3167,Pietersburg
ZAF,0702,-23.7167,29.3167,Pietersburg
ZAF,0703,-23.7167,29.3167,Pietersburg
ZAF,0704,-23.7167,29.3167,Pietersburg
ZAF,0705,-23.7167,29.3167,Ga-Maraba||Pietersburg
ZAF,0706,-23.7167,29.3167,Pietersburg
ZAF,0707,-23.7167,29.3167,Pietersburg
ZAF,0708,-23.7167,29.3167,Pietersburg
ZAF,0709,-23.7167,29.3167,Koloti||Pietersburg
ZAF,0710,-23.6,29.1667,Pietersburg||Lonsdale
ZAF,0711,-23.3,29.0792,Pietersburg
ZAF,0712,-23.3,29.0792,Pietersburg
ZAF,0713,-23.3,29.0792,Pietersburg
ZAF,0714,-23.4833,29.1833,Pietersburg||Neandertal
ZAF,0716,-23.3,29.0792,Pietersburg
ZAF,0717,-23.3,29.0792,Pietersburg
ZAF,0718,-23.0583,28.9833,Bochum||Pietersburg||Raditshaba
ZAF,0719,-23.3,29.0792,Pietersburg
ZAF,0720,-23.8667,29.8056,Pietersburg
ZAF,0721,-23.7333,29.7833,Dikgale||Pietersburg
ZAF,0722,-23.8667,29.8056,Pietersburg
ZAF,0723,-23.8667,29.8056,Pietersburg
ZAF,0724,-23.8667,29.8056,Pietersburg
ZAF,0725,-23.8667,29.8056,Pietersburg
ZAF,0726,-23.8667,29.8056,Pietersburg
ZAF,0727,-23.9333,29.8167,Boyne||Sovenga||Pietersburg
ZAF,0728,-23.9333,29.8167,Boyne||Pietersburg
ZAF,0729,-23.6,29.1667,Lonsdale
ZAF,0730,-23.9667,29.7,Pietersburg
ZAF,0731,-23.9667,29.7,Pietersburg
ZAF,0732,-23.9667,29.7,Mphogodiba||Pietersburg
ZAF,0733,-23.9667,29.7,Pietersburg
ZAF,0734,-23.9667,29.7,Tholongwe||Pietersburg
ZAF,0735,-23.9667,29.7,Pietersburg
ZAF,0736,-23.9667,29.7,Mphahlele||Pietersburg
ZAF,0737,-23.9667,29.7,Pietersburg
ZAF,0738,-23.9667,29.7,Pietersburg
ZAF,0739,-23.9667,29.7,Pietersburg
ZAF,0740,-23.95,29.1333,Pietersburg
ZAF,0741,-23.95,29.1333,Pietersburg
ZAF,0742,-23.95,29.1333,Pietersburg
ZAF,0743,-23.95,29.1333,Pietersburg||Mashashane
ZAF,0744,-23.95,29.1333,Pietersburg
ZAF,0745,-23.95,29.1333,Chuenespoort||Pietersburg
ZAF,0746,-23.95,29.1333,Bakone||Pietersburg
ZAF,0747,-23.95,29.1333,Pietersburg
ZAF,0748,-23.95,29.1333,Juno||Pietersburg
ZAF,0749,-23.95,29.1333,Atok||Pietersburg
ZAF,0750,-23.6774,29.4869,Pietersburg
ZAF,0751,-23.7637,29.4351,Pietersburg||Seshego
ZAF,0752,-23.6774,29.4869,Pietersburg
ZAF,0753,-23.6774,29.4869,Manyama||Pietersburg
ZAF,0754,-23.6774,29.4869,Pietersburg
ZAF,0755,-23.6774,29.4869,Pietersburg
ZAF,0756,-23.6774,29.4869,Pietersburg
ZAF,0757,-23.6774,29.4869,Bakone
ZAF,0758,-23.6774,29.4869,Juno
ZAF,0759,-23.6774,29.4869,Pietersburg
ZAF,0760,-23.9333,29.8167,Pietersburg
ZAF,0761,-23.9333,29.8167,Mphahlele
ZAF,0762,-23.9333,29.8167,Mphahlele
ZAF,0763,-23.9333,29.8167,Sovenga
ZAF,0764,-23.9333,29.8167,Boyne
ZAF,0765,-23.9333,29.8167,Pietersburg
ZAF,0766,-23.9333,29.8167,Boyne
ZAF,0767,-23.6,29.1667,Lonsdale
ZAF,0768,-23.9333,29.8167,Pietersburg
ZAF,0769,-23.9333,29.8167,Pietersburg
ZAF,0770,-23.8833,30.4,Pietersburg
ZAF,0771,-23.8833,30.4,Letsitele
ZAF,0772,-23.8833,30.4,Letsitele
ZAF,0773,-23.8833,30.4,Pietersburg
ZAF,0774,-23.8833,30.4,Pietersburg
ZAF,0775,-23.8833,30.4,Pietersburg
ZAF,0776,-23.8833,30.4,Pietersburg
ZAF,0778,-23.8833,30.4,Superbia
ZAF,0779,-23.8833,30.4,Superbia
ZAF,0780,-23.6167,29.3583,Pietersburg
ZAF,0781,-23.6167,29.3583,Pietersburg
ZAF,0782,-23.6167,29.3583,Pietersburg
ZAF,0783,-23.6167,29.3583,Pietersburg
ZAF,0784,-23.85,29.3833,Seshego
ZAF,0785,-23.6167,29.3583,Mphahlele
ZAF,0786,-23.3833,29.3333,Dendron
ZAF,0787,-23.6167,29.3583,Pietersburg
ZAF,0788,-23.6167,29.3583,Superbia
ZAF,0789,-23.6167,29.3583,Pietersburg
ZAF,0790,-23.2833,29.1167,Bochum
ZAF,0791,-23.6774,29.4869,Pietersburg
ZAF,0792,-23.6774,29.4869,Pietersburg
ZAF,0793,-23.6774,29.4869,Pietersburg
ZAF,0794,-23.6774,29.4869,Pietersburg
ZAF,0795,-23.85,29.3833,Seshego
ZAF,0796,-23.6774,29.4869,Pietersburg
ZAF,0797,-23.6774,29.4869,Pietersburg
ZAF,0798,-23.6774,29.4869,Pietersburg
ZAF,0799,-23.6774,29.4869,Pietersburg
ZAF,0800,-23.6861,30.3367,Pietersburg
ZAF,0801,-23.6861,30.3367,Pietersburg
ZAF,0802,-23.6861,30.3367,Pietersburg
ZAF,0805,-23.6861,30.3367,Pietersburg
ZAF,0806,-23.6861,30.3367,Pietersburg
ZAF,0807,-23.2833,29.1167,Bochum
ZAF,0808,-23.6861,30.3367,Pietersburg
ZAF,0809,-23.6861,30.3367,Pietersburg
ZAF,0810,-23.4833,29.9333,Soekmekaar
ZAF,0811,-23.5444,29.9389,Pietersburg
ZAF,0812,-23.45,29.75,Dwars River||Pietersburg
ZAF,0813,-23.5444,29.9389,Pietersburg
ZAF,0814,-23.5444,29.9389,Pietersburg
ZAF,0815,-23.7,30.1333,Duiwelskloof
ZAF,0816,-23.5444,29.9389,Malamulele
ZAF,0818,-23.5444,29.9389,Pietersburg
ZAF,0819,-23.5444,29.9389,Pietersburg
ZAF,0820,-23.3167,30.7167,Pietersburg
ZAF,0821,-23.3167,30.7167,Pietersburg
ZAF,0822,-23.3167,30.7167,Pietersburg
ZAF,0823,-23.3167,30.7167,Pietersburg
ZAF,0824,-23.3167,30.7167,Pietersburg
ZAF,0825,-23.3167,30.7167,Pietersburg
ZAF,0826,-23.3167,30.7167,Giyani
ZAF,0827,-23.3167,30.7167,Giyani||Molototsi
ZAF,0828,-23.2833,29.1167,Bochum
ZAF,0829,-23.3167,30.7167,Giyani
ZAF,0831,-23.3167,30.7167,Malamulele
ZAF,0832,-23.3167,30.7167,Giyani
ZAF,0833,-23.3167,30.7167,Malamulele
ZAF,0834,-23.3167,30.7167,Giyani
ZAF,0836,-23.3167,30.7167,Juno
ZAF,0838,-23.3167,30.7167,Gakgapane
ZAF,0839,-23.3167,30.7167,Giyani
ZAF,0840,-23.3167,30.7167,Giyani
ZAF,0841,-23.3167,30.7167,Giyani
ZAF,0842,-23.3167,30.7167,Giyani
ZAF,0843,-23.3167,30.7167,Giyani
ZAF,0844,-23.3167,30.7167,Giyani
ZAF,0845,-23.3167,30.7167,Juno
ZAF,0846,-23.3167,30.7167,Giyani
ZAF,0847,-23.3167,30.7167,Gakgapane
ZAF,0848,-23.3167,30.7167,Pietersburg
ZAF,0849,-23.2833,29.1167,Bochum
ZAF,0850,-23.8333,30.1667,Tzaneen
ZAF,0852,-23.8333,30.1667,Tzaneen
ZAF,0854,-23.8333,30.1667,Tzaneen
ZAF,0855,-23.8333,30.1667,Pietersburg
ZAF,0857,-23.8333,30.1667,Tzaneen
ZAF,0858,-23.3167,30.7167,Giyani
ZAF,0859,-23.8333,30.1667,Tzaneen
ZAF,0860,-23.8333,30.1667,Tzaneen
ZAF,0861,-23.8333,30.1667,Tzaneen
ZAF,0862,-23.8333,30.1667,Gakgapane
ZAF,0863,-23.8333,30.1667,Tzaneen
ZAF,0864,-23.8333,30.1667,Pietersburg
ZAF,0865,-23.8333,30.1667,Pietersburg
ZAF,0866,-23.8333,30.1667,Pietersburg
ZAF,0867,-23.8333,30.1667,Pietersburg
ZAF,0868,-23.8333,30.1667,Tzaneen
ZAF,0870,-23.9,30.0667,Letaba
ZAF,0871,-23.8333,30.1667,Tzaneen
ZAF,0872,-23.8333,30.1667,Tzaneen
ZAF,0873,-23.9333,30.2167,Shiluvane||Tzaneen
ZAF,0875,-23.8333,30.1667,Tzaneen
ZAF,0876,-23.8333,30.1667,Tzaneen
ZAF,0877,-23.9,30.0667,Letaba
ZAF,0878,-23.9,30.0667,Letaba
ZAF,0881,-23.8833,30.4,Pietersburg
ZAF,0883,-23.8833,30.4,Pietersburg
ZAF,0884,-23.8833,30.4,Pietersburg
ZAF,0885,-23.8833,30.4,Letsitele
ZAF,0886,-23.8833,30.4,Letsitele
ZAF,0889,-23.8833,30.4,Pietersburg
ZAF,0890,-23.8833,30.4,Letsitele
ZAF,0891,-24.1667,30.4,Trichardtsdal
ZAF,0893,-24.1667,30.4,Trichardtsdal
ZAF,0894,-24.0722,30.4,Pietersburg
ZAF,0896,-24.1667,30.4,Trichardtsdal
ZAF,0897,-24.0722,30.4,Gakgapane
ZAF,0898,-24.0722,30.4,Pietersburg
ZAF,0899,-24.0722,30.4,Pietersburg
ZAF,0900,-22.35,30.05,Messina
ZAF,0901,-23.05,29.9,Louis Trichardt
ZAF,0903,-22.7833,30.1389,Pietersburg
ZAF,0905,-23.05,29.9,Louis Trichardt
ZAF,0906,-22.95,30.4667,Sibasa
ZAF,0907,-22.95,30.4667,Sibasa
ZAF,0909,-23.05,29.9,Louis Trichardt
ZAF,0910,-23.0221,30.336,Pietersburg
ZAF,0912,-23.0221,30.336,Pietersburg
ZAF,0913,-23.0221,30.336,Pietersburg
ZAF,0914,-23.0221,30.336,Pietersburg
ZAF,0915,-23.3167,30.7167,Giyani
ZAF,0916,-23.0221,30.336,Juno
ZAF,0917,-23.05,29.9,Louis Trichardt
ZAF,0920,-23.05,29.9,Louis Trichardt
ZAF,0921,-23.05,29.9,Louis Trichardt
ZAF,0922,-23.05,29.9,Louis Trichardt
ZAF,0923,-23.05,29.9,Louis Trichardt
ZAF,0924,-23.05,29.9,Louis Trichardt
ZAF,0925,-23.05,29.9,Louis Trichardt
ZAF,0926,-22.95,30.4667,Sibasa
ZAF,0927,-23.05,29.9,Malamulele
ZAF,0928,-23.05,29.9,Malamulele
ZAF,0929,-22.95,30.4833,Thohoyandou
ZAF,0930,-23.3167,30.7167,Giyani
ZAF,0931,-23.3167,30.7167,Giyani
ZAF,0932,-23.3167,30.7167,Giyani
ZAF,0933,-23.3167,30.7167,Giyani
ZAF,0934,-23.05,29.9,Louis Trichardt
ZAF,0935,-23.05,29.9,Louis Trichardt
ZAF,0937,-23.05,29.9,Louis Trichardt
ZAF,0939,-23.05,29.9,Louis Trichardt
ZAF,0940,-23.05,29.9,Louis Trichardt
ZAF,0941,-23.3167,30.7167,Giyani
ZAF,0942,-23.05,29.9,Louis Trichardt
ZAF,0943,-23.05,29.9,Louis Trichardt
ZAF,0944,-23.3167,30.7167,Giyani
ZAF,0948,-23.05,29.9,Munzhedzi||Louis Trichardt
ZAF,0949,-23.05,29.9,Louis Trichardt
ZAF,0950,-22.8167,30.5083,Pietersburg
ZAF,0952,-22.95,30.4833,Thohoyandou
ZAF,0953,-22.8167,30.5083,Malamulele
ZAF,0954,-23.05,29.9,Louis Trichardt
ZAF,0955,-22.9166,30.3167,Dzanani||Sibasa
ZAF,0956,-22.4833,30.9167,Mutale
ZAF,0957,-23.05,29.9,Louis Trichardt
ZAF,0959,-22.95,30.4833,Thohoyandou
ZAF,0960,-23.05,29.9,Louis Trichardt
ZAF,0964,-22.95,30.4667,Pietersburg
ZAF,0968,-22.95,30.4667,Sibasa
ZAF,0969,-22.95,30.4667,Sibasa
ZAF,0970,-22.95,30.4667,Sibasa
ZAF,0971,-22.95,30.4667,Sibasa
ZAF,0972,-22.95,30.4667,Sibasa
ZAF,0973,-22.95,30.4667,Sibasa
ZAF,0974,-22.95,30.4667,Sibasa
ZAF,0975,-22.95,30.4667,Sibasa
ZAF,0976,-22.95,30.4667,Muthathi||Sibasa
ZAF,0977,-22.95,30.4667,Sibasa
ZAF,0979,-22.95,30.4667,Sibasa
ZAF,0980,-22.95,30.4667,Sibasa
ZAF,0981,-23.2119,30.6452,Malamulele
ZAF,0983,-23.3167,30.7167,Giyani
ZAF,0984,-23.3167,30.7167,Giyani
ZAF,0985,-23.3167,30.7167,Giyani
ZAF,0986,-23.3167,30.7167,Giyani
ZAF,0987,-23.3167,30.7167,Giyani
ZAF,0988,-22.95,30.4667,Sibasa
ZAF,0989,-22.95,30.4667,Sibasa
ZAF,0990,-22.95,30.4667,Sibasa
ZAF,0992,-22.95,30.4667,Mungomani
ZAF,0993,-22.95,30.4667,Sibasa
ZAF,0994,-22.95,30.4667,Sibasa
ZAF,0995,-22.95,30.4667,Sibasa
ZAF,0996,-22.95,30.4667,Sibasa
ZAF,0997,-22.95,30.4667,Malamulele
ZAF,0998,-22.95,30.4667,Malamulele
ZAF,0999,-22.95,30.4667,Malamulele
ZAF,1002,-25.6756,28.5222,Cullinan
ZAF,1003,-25.6756,28.5222,Cullinan
ZAF,1004,-25.6756,28.5222,Cullinan
ZAF,1005,-25.6756,28.5222,Cullinan
ZAF,1007,-25.6756,28.5222,Malamulele
ZAF,1008,-25.6756,28.5222,Malamulele
ZAF,1020,-25.8083,28.7406,Bronkhorstspruit
ZAF,1021,-25.7514,28.7444,Ekangala||Bronkhorstspruit
ZAF,1022,-25.6183,28.7244,Kwamhlanga||Bronkhorstspruit
ZAF,1023,-25.4283,28.7083,Kwamhlanga
ZAF,1024,-25.8083,28.7406,Bronkhorstspruit
ZAF,1025,-25.8083,28.7406,Bronkhorstspruit
ZAF,1026,-25.8083,28.7406,Bronkhorstspruit
ZAF,1027,-25.8083,28.7406,Bronkhorstspruit
ZAF,1028,-25.8083,28.7406,Bronkhorstspruit
ZAF,1030,-25.1334,29.2166,Groblersdal||Siyabuswa
ZAF,1032,-25.8667,29.2333,Witbank
ZAF,1033,-25.95,29.2,Witbank||Coalville
ZAF,1034,-25.8667,29.2333,Witbank
ZAF,1035,-25.8667,29.2333,Witbank
ZAF,1036,-25.8667,29.2333,Witbank
ZAF,1037,-25.8667,29.2333,Witbank
ZAF,1038,-25.8667,29.2333,Witbank
ZAF,1039,-25.8667,29.2333,Witbank
ZAF,1040,-25.8667,29.2333,Witbank
ZAF,1042,-25.8667,29.2333,Witbank
ZAF,1043,-25.8667,29.2333,Witbank
ZAF,1044,-25.8667,29.2333,Witbank
ZAF,1045,-25.8667,29.2333,Witbank
ZAF,1046,-25.8667,29.2333,Witbank
ZAF,1047,-25.8667,29.2333,Witbank
ZAF,1048,-25.8667,29.2333,Witbank
ZAF,1049,-25.8667,29.2333,Witbank
ZAF,1050,-30.05,26.6167,Middelburg||Middleburg||Mpumalanga
ZAF,1051,-26.2333,28.8,Middelburg
ZAF,1052,-26.2333,28.8,Middelburg||Nasaret
ZAF,1053,-26.2333,28.8,Middelburg
ZAF,1054,-26.2333,28.8,Middelburg
ZAF,1055,-26.2333,28.8,Mpumalanga||Middelburg
ZAF,1056,-26.2333,28.8,Middelburg
ZAF,1057,-24.9,29.7667,Nebo
ZAF,1058,-26.3611,28.7722,Sekhukhune
ZAF,1059,-24.9,29.7667,Witbank||Nebo
ZAF,1060,-25.15,29.3833,Groblersdal
ZAF,1061,-25.15,29.3833,Groblersdal
ZAF,1062,-24.9667,29.3,Marble Hall
ZAF,1063,-25.625,29.4458,Sekhukhune
ZAF,1064,-25.3875,29.4146,Groblersdal||Sekhukhune
ZAF,1065,-25.7833,29.4667,Middelburg
ZAF,1066,-25.7833,29.4667,Middelburg
ZAF,1068,-25.7833,29.4667,Middelburg
ZAF,1069,-25.7833,29.4667,Middelburg
ZAF,1070,-25.7833,29.4667,Middelburg
ZAF,1071,-25.7833,29.4667,Middelburg
ZAF,1072,-25.8667,29.2333,Witbank
ZAF,1073,-25.8667,29.2333,Witbank||Kwaguqa
ZAF,1074,-25.8667,29.2333,Witbank
ZAF,1075,-25.8667,29.2333,Witbank
ZAF,1076,-25.8667,29.2333,Witbank
ZAF,1077,-25.8667,29.2333,Witbank
ZAF,1078,-25.0167,29.7333,Mpudulle
ZAF,1079,-25.7833,29.4667,Middelburg
ZAF,1080,-25.8667,29.2333,Witbank
ZAF,1081,-25.8667,29.2333,Witbank
ZAF,1082,-25.8667,29.2333,Witbank
ZAF,1085,-24.6667,30.3333,Burgersfort
ZAF,1090,-25.8667,29.2333,Witbank
ZAF,1097,-25.8667,29.2333,Witbank
ZAF,1098,-26.15,29.7167,Hendrina||Kwazamokuhle
ZAF,1100,-25.6833,30.0333,Belfast
ZAF,1101,-25.6833,30.0333,Belfast
ZAF,1102,-25.6833,30.0333,Belfast
ZAF,1111,-25.7833,29.4667,Middelburg
ZAF,1112,-25.8667,29.2333,Witbank
ZAF,1120,-25.1,30.45,Lydenburg
ZAF,1121,-25.6833,30.0333,Belfast
ZAF,1122,-25.1,30.45,Lydenburg
ZAF,1123,-25.1,30.45,Lydenburg
ZAF,1126,-25.1,30.45,Lydenburg
ZAF,1127,-25.1133,30.31,Sekhukhune
ZAF,1128,-24.5833,30.1667,Driekop
ZAF,1130,-25.6833,30.0333,Belfast
ZAF,1131,-24.5833,30.1667,Driekop
ZAF,1132,-25.4667,30.9667,Nelspruit
ZAF,1151,-25.6833,30.0333,Belfast
ZAF,1152,-25.6833,30.0333,Belfast
ZAF,1153,-24.9333,31.3667,Belfast
ZAF,1154,-24.3667,30.3,Penge
ZAF,1160,-24.6667,30.3333,Burgersfort
ZAF,1185,-26.0693,30.1149,Carolina
ZAF,1192,-25.6833,30.0333,Belfast
ZAF,1193,-25.6833,30.0333,Belfast
ZAF,1194,-25.6833,30.0333,Belfast
ZAF,1200,-25.4667,30.9667,Nelspruit
ZAF,1201,-25.4667,30.9667,Nelspruit
ZAF,1202,-25.4667,30.9667,Nelspruit
ZAF,1203,-25.4667,30.9667,Nelspruit
ZAF,1204,-25.4667,30.9667,Nelspruit
ZAF,1205,-25.4667,30.9667,Nelspruit
ZAF,1206,-25.4667,30.9667,Nelspruit
ZAF,1207,-25.4667,30.9667,Nelspruit
ZAF,1208,-25.4667,30.9667,Nelspruit
ZAF,1209,-25.4667,30.9667,Nelspruit
ZAF,1211,-25.4667,30.9667,Nelspruit
ZAF,1212,-25.4667,30.9667,Nelspruit
ZAF,1213,-25.4667,30.9667,Nelspruit
ZAF,1214,-25.4333,31.2,Kanyamazane
ZAF,1215,-25.4333,31.2,Kanyamazane
ZAF,1216,-25.4333,31.2,Kanyamazane
ZAF,1217,-25.4333,31.2,Kanyamazane
ZAF,1218,-25.4667,30.9667,Nelspruit
ZAF,1220,-25.4667,30.9667,Nelspruit
ZAF,1222,-25.4667,30.9667,Nelspruit
ZAF,1223,-25.4667,30.9667,Nelspruit
ZAF,1224,-25.4667,30.9667,Nelspruit
ZAF,1227,-24.5833,31.0833,Acornhoek
ZAF,1240,-25.3167,31.0167,White River||Hazyview||Witrivier
ZAF,1241,-25.4667,30.9667,Nelspruit
ZAF,1245,-25.3167,31.0167,White River
ZAF,1246,-25.2125,31.0542,Hazyview||Mkhuhlu
ZAF,1247,-25.3917,30.9917,Kabokweni
ZAF,1248,-25.4667,30.9667,Nelspruit
ZAF,1249,-25.4667,30.9667,Nelspruit
ZAF,1250,-24.9333,31.0917,Kabokweni
ZAF,1251,-24.9333,31.0917,Kabokweni
ZAF,1252,-24.9333,31.0917,Kabokweni
ZAF,1253,-25.0333,31.1167,Hazyview
ZAF,1254,-24.9333,31.0917,Whiteriver
ZAF,1255,-24.8333,31.0667,Bushbuckridge
ZAF,1256,-25.3167,31.0167,White River
ZAF,1260,-25.1,30.7833,Sabie
ZAF,1270,-24.9333,30.8333,Graskop
ZAF,1271,-24.9333,30.8333,Graskop
ZAF,1273,-24.9333,30.8333,Graskop
ZAF,1274,-24.9333,30.8333,Graskop
ZAF,1281,-25.15,31.0167,Ximhungwe||Nelspruit
ZAF,1282,-24.8333,31.0667,Bushbuckridge
ZAF,1283,-24.8333,31.0667,Bushbuckridge
ZAF,1284,-24.8333,31.0667,Bushbuckridge
ZAF,1285,-24.8333,31.0667,Bushbuckridge
ZAF,1286,-24.8333,31.0667,Bosbokrand
ZAF,1287,-24.8333,31.0667,Ximhungwe
ZAF,1288,-25.4667,30.9667,Nelspruit
ZAF,1290,-25.1,30.7833,Sabie
ZAF,1295,-25.4667,30.9667,Nelspruit
ZAF,1300,-25.7833,31.05,Barberton
ZAF,1301,-25.6833,30.0333,Belfast
ZAF,1302,-25.4667,30.9667,Nelspruit
ZAF,1303,-25.7833,31.05,Barberton
ZAF,1304,-25.4667,30.9667,Nelspruit
ZAF,1307,-25.7833,31.05,Barberton
ZAF,1309,-25.7833,31.05,Barberton
ZAF,1331,-25.475,31.7084,Shongwe Mission||Malelane
ZAF,1332,-25.4667,31.9,Shongwe Mission
ZAF,1334,-25.4667,30.9667,Nelspruit
ZAF,1335,-25.4667,31.9,Shongwe Mission
ZAF,1336,-25.4667,31.9,Shongwe Mission
ZAF,1337,-25.4667,31.9,Shongwe Mission
ZAF,1341,-25.4333,31.9333,Komatipoort
ZAF,1342,-25.4333,31.9333,Komatipoort
ZAF,1343,-25.4333,31.9333,Komatipoort
ZAF,1344,-25.4333,31.9333,Komatipoort
ZAF,1345,-25.4333,31.9333,Komatipoort
ZAF,1347,-25.7333,31.8167,Kwalugedlane
ZAF,1348,-25.7333,31.8167,Kwalugedlane
ZAF,1349,-25.4667,30.9667,Nelspruit
ZAF,1350,-25.4667,30.9667,Nelspruit
ZAF,1351,-24.9833,31.6,Skukuza
ZAF,1352,-25.7333,31.8167,Kwalugedlane
ZAF,1353,-24.9833,31.6,Skukuza
ZAF,1354,-24.9833,31.6,Skukuza
ZAF,1355,-25.4667,30.9667,Nelspruit
ZAF,1356,-24.9833,31.6,Skukuza
ZAF,1360,-24.5833,31.0833,Acornhoek||Nelspruit
ZAF,1361,-24.5833,31.0833,Acornhoek
ZAF,1362,-24.65,31.3333,Hluvukani
ZAF,1363,-24.65,31.3333,Hluvukani
ZAF,1364,-24.65,31.3333,Hluvukani
ZAF,1365,-24.6,31.1458,Thulamahashe||Acornhoek
ZAF,1366,-24.6167,31.2083,Thulamahashe
ZAF,1367,-24.5833,31.0833,Acornhoek
ZAF,1368,-24.6167,31.2083,Ximhungwe
ZAF,1369,-24.6167,31.2083,Thulamahashe
ZAF,1370,-24.5833,31.0833,Acornhoek
ZAF,1371,-24.35,30.9667,Hoedspruit
ZAF,1377,-25.7333,31.8167,Kwalugedlane
ZAF,1378,-24.5833,31.0833,Acornhoek
ZAF,1382,-24.35,30.9667,Hoedspruit
ZAF,1384,-24.35,30.9667,Hoedspruit
ZAF,1390,-23.95,31.1167,Phalaborwa
ZAF,1391,-23.95,31.1167,Phalaborwa
ZAF,1392,-23.95,31.1167,Phalaborwa
ZAF,1393,-23.95,31.1167,Phalaborwa
ZAF,1394,-23.95,31.1167,Phalaborwa
ZAF,1395,-23.95,31.1167,Phalaborwa
ZAF,1396,-23.95,31.1167,Phalaborwa
ZAF,1397,-23.95,31.0333,Namakgale
ZAF,1401,-26.2,28.175,Germiston||Primrose||Delmore
ZAF,1402,-26.2167,28.1833,Germiston
ZAF,1403,-26.2167,28.1833,Germiston
ZAF,1404,-26.2167,28.1833,Delmore||Germiston
ZAF,1405,-26.2167,28.1833,Germiston
ZAF,1407,-26.2167,28.1833,Germiston
ZAF,1408,-26.2167,28.1833,Germiston
ZAF,1409,-26.2333,28.2,Elsburg
ZAF,1410,-26.2167,28.1833,Germiston
ZAF,1411,-26.2167,28.1833,Germiston
ZAF,1412,-26.2167,28.1833,Germiston
ZAF,1413,-26.2167,28.1833,Germiston
ZAF,1414,-26.2167,28.1833,Germiston
ZAF,1415,-26.2167,28.1833,Germiston
ZAF,1416,-26.2167,28.1833,Germiston
ZAF,1417,-26.2167,28.1833,Germiston
ZAF,1418,-26.2167,28.1833,Germiston
ZAF,1419,-26.2167,28.1833,Germiston
ZAF,1420,-26.2167,28.1833,Germiston
ZAF,1421,-26.3333,28.15,Katlehong
ZAF,1422,-26.2167,28.1833,Germiston
ZAF,1423,-26.2167,28.1833,Germiston
ZAF,1424,-26.2167,28.1833,Germiston
ZAF,1425,-26.3333,28.15,Katlehong
ZAF,1426,-26.35,28.1083,Katlehong||Tokoza||Tokoza Ext
ZAF,1427,-26.3667,28.0667,Tokoza||Tokoza Ext
ZAF,1428,-26.3,28.1333,Alrode||Elsburg||Germiston
ZAF,1429,-26.3,28.025,Germiston||Elandsfontein
ZAF,1430,-26.2167,28.1833,Germiston
ZAF,1431,-26.3458,28.2084,Katlehong||Katlehong Ext
ZAF,1434,-26.3166,28.2167,Germiston||Kwenzekile||Katlehong||Katlehong Ext
ZAF,1435,-26.3583,28.2667,Katlehong Ext
ZAF,1436,-26.3583,28.2667,Katlehong Ext
ZAF,1437,-26.3333,28.15,Katlehong
ZAF,1438,-26.3583,28.2667,Gauteng
ZAF,1439,-26.5,28.35,Heidelberg
ZAF,1440,-26.5,28.35,Heidelberg
ZAF,1441,-26.5,28.35,Gauteng||Heidelberg
ZAF,1442,-26.5,28.35,Heidelberg
ZAF,1443,-26.5,28.35,Heidelberg
ZAF,1444,-26.5,28.35,Heidelberg
ZAF,1445,-26.3333,28.15,Katlehong
ZAF,1446,-26.2167,28.25,Boksburg
ZAF,1447,-26.2333,28.1333,Alberton
ZAF,1448,-26.2333,28.1333,Alberton
ZAF,1449,-26.2333,28.1333,Alberton
ZAF,1451,-26.2333,28.1333,Alrode||Alberton
ZAF,1452,-26.2333,28.1333,Alberton
ZAF,1453,-26.2333,28.1333,Alberton
ZAF,1454,-26.2333,28.1333,Alberton
ZAF,1455,-26.2333,28.1333,Alberton
ZAF,1456,-26.2333,28.1333,Alberton
ZAF,1457,-26.2333,28.1333,Alberton
ZAF,1458,-26.2333,28.1333,Alberton
ZAF,1459,-26.2167,28.25,Boksburg
ZAF,1460,-26.2167,28.25,Boksburg
ZAF,1461,-26.2167,28.25,Boksburg
ZAF,1462,-26.1786,28.2459,Boksburg
ZAF,1463,-26.2167,28.25,Boksburg
ZAF,1464,-26.2167,28.25,Boksburg
ZAF,1465,-26.2167,28.25,Boksburg
ZAF,1466,-26.2167,28.25,Boksburg
ZAF,1467,-26.2167,28.25,Boksburg
ZAF,1469,-26.2167,28.25,Boksburg
ZAF,1470,-26.1749,28.2494,Boksburg
ZAF,1471,-26.2167,28.25,Boksburg
ZAF,1472,-26.2167,28.25,Boksburg
ZAF,1473,-26.2167,28.25,Rusloo
ZAF,1474,-26.2167,28.25,Boksburg
ZAF,1475,-26.2167,28.25,Rusloo
ZAF,1477,-26.2167,28.25,Boksburg
ZAF,1478,-26.2167,28.25,Boksburg
ZAF,1479,-26.2167,28.25,Boksburg
ZAF,1481,-26.2333,28.1333,Alberton
ZAF,1482,-26.2167,28.25,Boksburg
ZAF,1484,-26.3,28.1333,Alrode
ZAF,1485,-26.2167,28.25,Boksburg
ZAF,1486,-26.2753,28.2279,Rusloo
ZAF,1490,-26.4167,28.4667,Nigel
ZAF,1491,-26.4167,28.4667,Nigel
ZAF,1492,-26.4167,28.4667,Nigel
ZAF,1494,-26.3917,28.4417,Duduza||Nigel
ZAF,1495,-26.4167,28.4667,Nigel
ZAF,1496,-26.3778,28.4334,Dunnottar||Duduza||Nigel
ZAF,1497,-26.2167,28.1833,Germiston
ZAF,1501,-26.1416,28.35,Petit||Benoni
ZAF,1502,-26.1833,28.3167,Benoni
ZAF,1503,-26.1833,28.3167,Benoni
ZAF,1504,-26.1833,28.3167,Benoni
ZAF,1505,-26.1833,28.3167,Benoni
ZAF,1506,-26.1833,28.3167,Benoni
ZAF,1507,-26.1833,28.3167,Benoni
ZAF,1508,-26.1833,28.3167,Benoni
ZAF,1509,-26.1833,28.3167,Benoni
ZAF,1511,-26.1833,28.3167,Benoni
ZAF,1512,-26.1,28.3833,Petit
ZAF,1513,-26.1167,28.4,Putfontein
ZAF,1514,-26.1833,28.3167,Benoni
ZAF,1515,-26.1833,28.3167,Benoni
ZAF,1516,-26.1833,28.3167,Benoni
ZAF,1517,-26.1833,28.3167,Benoni
ZAF,1518,-26.1833,28.3167,Benoni
ZAF,1519,-26.15,28.4167,Ethwathwa West Uit 2||Daveyton
ZAF,1520,-26.1666,28.3667,Daveyton||Benoni
ZAF,1521,-26.15,28.4167,Daveyton
ZAF,1522,-26.1833,28.3167,Benoni
ZAF,1524,-26.1833,28.3167,Benoni
ZAF,1525,-26.1833,28.3167,Benoni
ZAF,1526,-26.1833,28.3167,Benoni
ZAF,1527,-26.1833,28.3167,Benoni
ZAF,1540,-26.2333,28.3667,Brakpan
ZAF,1541,-26.2333,28.3667,Minnebron||Brakpan||Dalpark||Brakpan North
ZAF,1542,-26.2333,28.3667,Brakpan
ZAF,1543,-26.2333,28.3667,Brakpan
ZAF,1544,-26.2333,28.3667,Brakpan
ZAF,1545,-26.2333,28.3667,Brakpan North||Brakpan
ZAF,1546,-26.2333,28.3667,Brakpan
ZAF,1547,-26.2333,28.3667,Brakpan
ZAF,1548,-26.2333,28.3667,Brakpan
ZAF,1549,-26.2333,28.3667,Minnebron||Brakpan
ZAF,1550,-26.2916,28.375,Tsakane||Brakpan
ZAF,1551,-26.35,28.3833,Tsakane
ZAF,1552,-26.2333,28.3667,Dalpark||Brakpan
ZAF,1553,-26.2333,28.3667,Brakpan
ZAF,1554,-26.2333,28.3667,Brakpan
ZAF,1558,-26.25,28.4,Springs
ZAF,1559,-26.25,28.4,Springs
ZAF,1562,-26.25,28.4,Springs
ZAF,1563,-26.25,28.4,Springs
ZAF,1564,-26.25,28.4,Springs
ZAF,1565,-26.25,28.4,Springs
ZAF,1566,-26.25,28.4,Springs
ZAF,1567,-26.25,28.4,Springs
ZAF,1568,-26.25,28.4,Springs
ZAF,1569,-26.25,28.4,Springs
ZAF,1570,-26.25,28.4,Springs
ZAF,1571,-26.25,28.4,Springs
ZAF,1572,-26.25,28.4,Springs
ZAF,1574,-26.25,28.4,Springs
ZAF,1575,-26.275,28.4,Kwathema||Springs
ZAF,1576,-26.3,28.4,Kwathema
ZAF,1577,-26.25,28.4,Springs
ZAF,1578,-26.25,28.4,Springs
ZAF,1590,-26.4167,28.4667,Nigel
ZAF,1609,-26.1083,28.175,Gauteng||Modderfontein||Edenvale
ZAF,1610,-26.1222,28.2056,Gauteng
ZAF,1611,-26.1333,28.1833,Edenvale
ZAF,1612,-26.1333,28.1833,Edenvale
ZAF,1613,-26.1333,28.1833,Edenvale
ZAF,1614,-26.1333,28.1833,Edenvale
ZAF,1618,-26.1,28.25,Kempton Park
ZAF,1619,-26.1,28.25,Kempton Park
ZAF,1621,-26.1,28.25,Kempton Park
ZAF,1622,-26.1,28.25,Kempton Park
ZAF,1623,-26.1,28.25,Kempton Park
ZAF,1624,-26.1,28.25,Kempton Park
ZAF,1625,-26.1,28.25,Kempton Park
ZAF,1626,-26.1,28.25,Kempton Park
ZAF,1627,-26.1,28.25,Kempton Park
ZAF,1628,-26.1,28.25,Kempton Park
ZAF,1629,-26.1,28.25,Kempton Park
ZAF,1630,-26.1,28.25,Kempton Park
ZAF,1631,-26.1,28.25,Kempton Park
ZAF,1632,-26.1,28.25,Kempton Park||Tembisa||Tembisa Ext||Rabie Ridge
ZAF,1634,-26.1,28.25,Kempton Park
ZAF,1635,-26.0376,28.236,Tembisa Ext||Tembisa
ZAF,1636,-26.0167,28.2333,Tembisa
ZAF,1637,-26.0167,28.2333,Tembisa
ZAF,1638,-26.1,28.25,Kempton Park
ZAF,1639,-26.1,28.25,Kempton Park
ZAF,1640,-25.9989,28.2269,Tembisa
ZAF,1645,-26.1333,28.1833,Edenvale
ZAF,1666,-25.9639,28.2394,Olifantsfontein
ZAF,1667,-25.9639,28.2394,Olifantsfontein
ZAF,1684,-25.9833,28.1167,Halfway House
ZAF,1685,-25.9833,28.1167,Halfway House
ZAF,1686,-25.9833,28.1167,Halfway House
ZAF,1687,-25.9833,28.1167,Noordwyk||Halfway House
ZAF,1688,-25.9989,28.2269,Rabie Ridge||Tembisa
ZAF,1689,-25.9911,28.1718,Ivory Park||Halfway House||Tembisa
ZAF,1690,-25.9989,28.2269,Tembisa
ZAF,1691,-25.9989,28.2269,Tembisa
ZAF,1692,-25.9833,28.1167,Halfway House
ZAF,1693,-25.9911,28.1718,Halfway House||Ivory Park||Tembisa
ZAF,1700,-26.1667,27.9167,Florida
ZAF,1701,-29.9333,26.15,Florida
ZAF,1708,-26.1667,27.9167,Florida
ZAF,1709,-30.8,27.0916,Allen'S Nek||Florida
ZAF,1711,-26.1667,27.9167,Florida
ZAF,1712,-26.1667,27.9167,Florida
ZAF,1714,-26.1667,27.8667,Roodepoort
ZAF,1715,-26.1667,27.9167,Florida
ZAF,1716,-26.1667,27.9167,Florida
ZAF,1717,-26.1667,27.8667,Roodepoort
ZAF,1718,-26.1,27.7667,Krugersdorp
ZAF,1723,-26.2167,27.8667,Dobsonville
ZAF,1724,-26.1727,27.8767,Roodepoort||Florida||Strubensvallei||Strubens Valley||Rooderpoort
ZAF,1725,-26.1667,27.8667,Roodepoort
ZAF,1726,-26.1667,27.8667,Roodepoort
ZAF,1728,-26.1667,27.8667,Roodepoort
ZAF,1729,-26.1667,27.8667,Roodepoort
ZAF,1730,-26.1667,27.8667,Roodepoort
ZAF,1731,-26.1667,27.8667,Roodepoort
ZAF,1732,-26.1667,27.8667,Roodepoort
ZAF,1733,-26.1667,27.8667,Roodepoort
ZAF,1734,-26.1667,27.8667,Roodepoort
ZAF,1735,-26.1667,27.8667,Strubens Valley||Roodepoort||Strubensvallei
ZAF,1736,-26.1667,27.8667,Roodepoort
ZAF,1737,-31.6667,28.0333,Allen'S Nek
ZAF,1739,-26.1,27.7667,Krugersdorp||Kagiso||Muldersdrif
ZAF,1741,-26.1,27.7667,Krugersdorp
ZAF,1742,-26.1,27.7667,Krugersdorp
ZAF,1743,-26.1,27.7667,Krugersdorp
ZAF,1744,-26.1,27.7667,Kagiso||Krugersdorp
ZAF,1745,-26.1,27.7667,Krugersdorp
ZAF,1746,-26.1,27.7667,Krugersdorp
ZAF,1747,-26.0333,27.85,Muldersdrif||Krugersdorp
ZAF,1748,-26.1,27.7667,Krugersdorp
ZAF,1749,-26.1,27.7667,Krugersdorp
ZAF,1751,-26.1,27.7667,Krugersdorp
ZAF,1752,-26.1,27.7667,Krugersdorp
ZAF,1753,-26.1333,27.7833,Kagiso
ZAF,1754,-26.1166,27.775,Krugersdorp||Kagiso
ZAF,1756,-26.1,27.7667,Krugersdorp
ZAF,1759,-26.1704,27.7241,Randfontein||Kocksvlei||Mohlakeng
ZAF,1760,-26.1667,27.7,Randfontein
ZAF,1763,-26.1667,27.7,Randfontein
ZAF,1764,-26.1667,27.7,Kocksvlei||Randfontein
ZAF,1765,-26.1667,27.7,Randfontein
ZAF,1766,-26.2,27.7,Mohlakeng||Randfontein
ZAF,1767,-26.1667,27.7,Randfontein
ZAF,1771,-26.1667,27.7,Randfontein
ZAF,1772,-26.3167,27.65,Westonaria
ZAF,1773,-26.3,27.6833,Rooderpoort
ZAF,1774,-26.1667,27.8667,Roodepoort
ZAF,1775,-26.1,27.7667,Krugersdorp
ZAF,1779,-26.2833,27.7167,Bekkersdal||Westonaria
ZAF,1780,-26.3167,27.65,Westonaria
ZAF,1781,-26.3167,27.65,Westonaria
ZAF,1782,-26.3167,27.65,Bekkersdal||Westonaria
ZAF,1784,-26.3167,27.65,Westonaria
ZAF,1785,-26.3167,27.65,Westonaria
ZAF,1786,-26.3167,27.65,Westonaria
ZAF,1787,-26.3167,27.65,Westonaria
ZAF,1788,-26.3167,27.65,Westonaria
ZAF,1789,-26.3167,27.65,Westonaria
ZAF,1791,-26.1,27.7667,Krugersdorp
ZAF,1794,-26.1667,27.8667,Roodepoort
ZAF,1801,-26.225,27.9,Dube||Meadowlands
ZAF,1803,-26.2334,27.875,Soweto||Meadowlands
ZAF,1804,-26.25,27.9056,Diepkloof||Orlando||Soweto
ZAF,1805,-26.2474,27.8987,Orange Farm
ZAF,1806,-26.25,27.9167,Orlando
ZAF,1807,-26.25,27.9167,Orlando
ZAF,1808,-26.2583,27.9083,Soweto||Pimville||Orlando
ZAF,1809,-26.2667,27.8833,Pimville||Lenasia||Soweto
ZAF,1811,-26.2834,27.9,Eldoradopark||Pimville
ZAF,1812,-26.3,27.9,Eldoradopark
ZAF,1813,-26.3,27.9,Eldoradopark
ZAF,1814,-26.2917,27.9,Tshiawelo
ZAF,1815,-26.2917,27.9,Tshiawelo
ZAF,1816,-26.2917,27.9,Tshiawelo
ZAF,1818,-26.2917,27.9,Tshiawelo||Protea Glen
ZAF,1819,-26.2917,27.9,Protea Glen||Tshiawelo
ZAF,1820,-26.3567,27.8333,Gauteng
ZAF,1821,-26.3084,27.8666,Lenasia||Eldoradopark
ZAF,1823,-26.3167,27.8333,Lenasia
ZAF,1824,-26.4167,27.8333,Ennerdale
ZAF,1825,-26.4167,27.8333,Ennerdale
ZAF,1827,-26.3367,27.8333,Lenasia||Gauteng
ZAF,1828,-26.3167,27.8333,Lenasia
ZAF,1829,-26.3167,27.8333,Lenasia
ZAF,1830,-26.3167,27.8333,Ennerdale||Odin Park||Lenasia
ZAF,1831,-26.3167,27.8333,Odin Park
ZAF,1832,-26.3,27.9,Eldoradopark
ZAF,1833,-26.3167,27.8333,Lenasia
ZAF,1834,-26.3167,27.8333,Protea Glen
ZAF,1835,-26.3167,27.8333,Lenasia
ZAF,1837,-26.2667,27.9,Pimville
ZAF,1838,-26.3167,27.8333,Lenasia
ZAF,1841,-26.2328,27.9265,Orange Farm
ZAF,1852,-26.2,27.8833,Meadowlands
ZAF,1853,-26.2,27.8833,Meadowlands
ZAF,1860,-25.4333,28.2889,Tshiawelo
ZAF,1861,-23.8333,29.0833,Naledi
ZAF,1862,-26.4667,28.2333,Diepkloof
ZAF,1863,-26.2334,27.8917,Orlando||Dobsonville
ZAF,1865,-26.2334,27.8917,Dobsonville||Orlando
ZAF,1866,-25.4333,28.2889,Kwaxuma
ZAF,1868,-25.4333,28.2889,Kwaxuma
ZAF,1870,-26.25,27.9167,Orlando
ZAF,1871,-26.5667,28.0167,Meyerton
ZAF,1872,-26.5667,28.0167,Meyerton
ZAF,1873,-26.5667,28.0167,Meyerton||Randvaal
ZAF,1874,-26.2167,27.8667,Dobsonville
ZAF,1875,-26.2167,27.8667,Dobsonville
ZAF,1876,-26.4167,27.9667,Walkerville||Meyerton
ZAF,1884,-26.5333,27.9333,De Deur
ZAF,1900,-26.7,27.8167,Vanderbijlpark
ZAF,1901,-26.7,27.8167,Vanderbijlpark
ZAF,1902,-26.7,27.8167,Vanderbijlpark
ZAF,1903,-26.7,27.8167,Vanderbijlpark
ZAF,1904,-26.6667,27.9333,Vereeniging
ZAF,1905,-26.7,27.8167,Vanderbijlpark
ZAF,1906,-26.7,27.8167,Vanderbijlpark
ZAF,1907,-26.5833,27.8333,Sebokeng||Mafatsana
ZAF,1908,-26.7,27.8167,Vanderbijlpark||Masoheng
ZAF,1910,-26.7,27.8167,Vanderbijlpark
ZAF,1911,-26.7,27.8167,Vanderbijlpark
ZAF,1912,-26.7,27.8167,Vanderbijlpark
ZAF,1913,-26.6833,27.8833,Sharpeville
ZAF,1914,-26.6402,27.8306,Sebokeng||Palm Springs
ZAF,1915,-26.7,27.8167,Vanderbijlpark
ZAF,1916,-26.7,27.8167,Vanderbijlpark
ZAF,1918,-26.5667,28.0167,Meyerton
ZAF,1928,-26.4833,27.8611,Sharpeville||Vereeniging||Krugersdorp
ZAF,1929,-26.6667,27.9333,Vereeniging
ZAF,1932,-26.8833,28.1,Deneysville
ZAF,1933,-26.3834,27.85,Vereeniging||Krugersdorp
ZAF,1934,-26.6667,27.9333,Vereeniging
ZAF,1935,-26.6667,27.9333,Vereeniging
ZAF,1936,-26.6167,27.9333,Roshnee||Vereeniging
ZAF,1937,-26.6667,27.9333,Vereeniging
ZAF,1938,-26.5667,28.0167,Meyerton
ZAF,1939,-26.6667,27.9333,Vereeniging
ZAF,1940,-26.6917,27.9083,Bedworth Park||Vereeniging
ZAF,1941,-26.6667,27.9333,Vereeniging
ZAF,1942,-26.6667,27.9333,Vereeniging
ZAF,1943,-26.6667,27.9333,Vereeniging
ZAF,1944,-26.6667,27.9333,Vereeniging
ZAF,1946,-26.8584,27.85,Kragbron||Sasolburg
ZAF,1947,-26.8167,27.8167,Sasolburg
ZAF,1948,-26.8167,27.8167,Sasolburg
ZAF,1949,-26.825,27.8334,Zamdela||Sasolburg
ZAF,1961,-26.5667,28.0167,Meyerton
ZAF,1962,-26.5667,28.0167,Meyerton
ZAF,1963,-26.5667,28.0167,Meyerton
ZAF,1980,-26.5833,27.8333,Residensia||Sebokeng||Mafatsana
ZAF,1981,-26.5833,27.8333,Sebokeng||Mafatsana
ZAF,1983,-26.5833,27.8333,Sebokeng
ZAF,1984,-26.5833,27.8333,Mafatsana||Palm Springs||Residensia||Sebokeng
ZAF,1995,-26.9833,28.2,Oranjeville
ZAF,2000,-26.2,28.0833,Johannesburg
ZAF,2001,-26.2,28.0833,Johannesburg
ZAF,2003,-26.2,28.0833,Johannesburg
ZAF,2004,-26.2,28.0833,Johannesburg
ZAF,2005,-26.2,28.0833,Johannesburg
ZAF,2006,-26.2,28.0833,Johannesburg
ZAF,2007,-26.1833,28.1166,Bedfordview||Johannesburg
ZAF,2008,-26.2,28.0833,Johannesburg
ZAF,2009,-26.2,28.0833,Johannesburg
ZAF,2010,-26.2,28.0833,Johannesburg
ZAF,2011,-26.2,28.0833,Johannesburg
ZAF,2012,-26.2,28.0833,Johannesburg
ZAF,2013,-26.2,28.0833,Johannesburg
ZAF,2014,-26.2,28.0833,Johannesburg
ZAF,2015,-26.2,28.0833,Johannesburg
ZAF,2016,-26.2,28.0833,Johannesburg
ZAF,2017,-26.2,28.0833,Johannesburg
ZAF,2018,-26.2,28.0833,Johannesburg
ZAF,2019,-26.2,28.0833,Johannesburg
ZAF,2020,-26.2,28.0833,Johannesburg
ZAF,2021,-26.2,28.0833,Bryanston||Johannesburg
ZAF,2022,-26.2,28.0833,Johannesburg
ZAF,2023,-26.2,28.0833,Johannesburg
ZAF,2024,-26.2,28.0833,Johannesburg
ZAF,2026,-26.1805,28.1034,Johannesburg
ZAF,2028,-26.2,28.0833,Johannesburg
ZAF,2030,-26.2,28.0833,Johannesburg
ZAF,2031,-26.2,28.0833,Strathavon||Johannesburg||Bryanston
ZAF,2032,-26.1,27.9833,Randburg
ZAF,2033,-26.2,28.0833,Johannesburg
ZAF,2034,-26.2,28.0833,Johannesburg
ZAF,2035,-26.2,28.0833,Johannesburg
ZAF,2036,-26.2,28.0833,Johannesburg
ZAF,2037,-26.2,28.0833,Johannesburg
ZAF,2038,-26.2,28.0833,Johannesburg
ZAF,2040,-26.2,28.0833,Johannesburg
ZAF,2041,-26.1928,28.0711,Johannesburg
ZAF,2042,-26.2,28.0833,Johannesburg
ZAF,2043,-26.2,28.0833,Johannesburg
ZAF,2044,-26.2,28.0833,Johannesburg
ZAF,2047,-26.2,28.0833,Johannesburg
ZAF,2048,-26.2,28.0833,Johannesburg
ZAF,2049,-26.2,28.0833,Johannesburg
ZAF,2050,-26.2,28.0833,Johannesburg
ZAF,2051,-26.2,28.0833,Johannesburg
ZAF,2052,-26.05,28.0333,Bryanston
ZAF,2053,-26.2,28.0833,Johannesburg
ZAF,2054,-26.2,28.0833,Bramley||Johannesburg
ZAF,2055,-26.1167,28.0333,Four Ways||Bryanston||Johannesburg
ZAF,2056,-26.05,28.0333,Bryanston||Paulshof
ZAF,2057,-26.05,28.0333,Bryanston
ZAF,2058,-26.2,28.0833,Johannesburg
ZAF,2059,-26.2,28.0833,Johannesburg
ZAF,2060,-26.2,28.0833,Bryanston||Johannesburg
ZAF,2061,-26.2,28.0833,Johannesburg
ZAF,2062,-26.2,28.0833,Johannesburg
ZAF,2063,-26.2,28.0833,Marlboro||Johannesburg
ZAF,2064,-26.2,28.0833,Johannesburg
ZAF,2065,-26.2,28.0833,Johannesburg
ZAF,2066,-26.2,28.0833,Bramley
ZAF,2067,-26.2,28.0833,Magalies View||Magaliessig
ZAF,2068,-26.2,28.0833,Witkoppen
ZAF,2069,-26.05,28.0333,Bryanston
ZAF,2070,-26.2,28.0833,Johannesburg||Hurlingham View
ZAF,2072,-26.05,28.0333,Bryanston
ZAF,2073,-26.2,28.0833,Bramley
ZAF,2074,-26.2,28.0833,Johannesburg
ZAF,2076,-26.141,28.06,Johannesburg
ZAF,2077,-26.05,28.0333,Bryanston
ZAF,2078,-26.2,28.0833,Johannesburg
ZAF,2081,-26.2,28.0833,Johannesburg
ZAF,2082,-26.2,28.0833,Johannesburg
ZAF,2090,-26.2,28.0833,Bramley||Marlboro||Johannesburg
ZAF,2091,-26.2,28.0833,Johannesburg
ZAF,2092,-26.2,28.0833,Johannesburg
ZAF,2093,-26.2,28.0833,Johannesburg
ZAF,2094,-26.2,28.0833,Jeppestown||Johannesburg
ZAF,2095,-26.2,28.0833,Johannesburg
ZAF,2100,-26.2,28.0833,Johannesburg
ZAF,2101,-26.2,28.0833,Johannesburg
ZAF,2102,-26.2,28.0833,Johannesburg
ZAF,2103,-26.2,28.0833,Johannesburg
ZAF,2104,-26.2,28.0833,Johannesburg
ZAF,2105,-26.2,28.0833,Johannesburg
ZAF,2106,-26.2,28.0833,Johannesburg
ZAF,2107,-26.2,28.0833,Johannesburg
ZAF,2108,-26.2,28.0833,Johannesburg
ZAF,2109,-26.2,28.0833,Johannesburg
ZAF,2110,-26.2,28.0833,Johannesburg
ZAF,2111,-26.2,28.0833,Marshalltown
ZAF,2112,-26.2,28.0833,Johannesburg
ZAF,2113,-26.2,28.0833,Johannesburg
ZAF,2114,-26.2,28.0833,Florida||Johannesburg
ZAF,2115,-26.2,28.0833,Johannesburg
ZAF,2116,-26.13,28.0686,Johannesburg
ZAF,2117,-26.2,28.0833,Johannesburg
ZAF,2118,-26.2,28.0833,Johannesburg
ZAF,2119,-26.2,28.0833,Johannesburg
ZAF,2120,-26.2,28.0833,Johannesburg
ZAF,2121,-26.2,28.0833,Johannesburg
ZAF,2122,-26.2,28.0833,Johannesburg
ZAF,2123,-26.2,28.0833,Johannesburg
ZAF,2124,-26.2,28.0833,Johannesburg
ZAF,2128,-26.1,28.0555,Rivonia||Bryanston||Johannesburg
ZAF,2129,-26.2,28.0833,Johannesburg
ZAF,2130,-26.2,28.0833,Johannesburg
ZAF,2131,-26.2,28.0833,Johannesburg
ZAF,2132,-26.2,28.0833,Johannesburg
ZAF,2134,-26.2,28.0833,Johannesburg
ZAF,2135,-26.2,28.0833,Johannesburg
ZAF,2136,-26.2,28.0833,Johannesburg
ZAF,2137,-26.2,28.0833,Johannesburg
ZAF,2139,-26.2,28.0833,Johannesburg
ZAF,2140,-26.2,28.0833,Johannesburg
ZAF,2141,-26.2,28.0833,Johannesburg
ZAF,2142,-26.2,28.0833,Johannesburg
ZAF,2143,-26.2,28.0833,Johannesburg
ZAF,2144,-26.2,28.0833,Bramley
ZAF,2145,-26.2,28.0833,Johannesburg
ZAF,2147,-26.2,28.0833,Johannesburg
ZAF,2148,-26.2,28.0833,Bramley||Johannesburg
ZAF,2149,-26.2,28.0833,Johannesburg
ZAF,2151,-26.2,28.0833,Johannesburg
ZAF,2152,-26.2,28.0833,Bryanston||Johannesburg
ZAF,2153,-26.2,28.0833,Jukskeipark||Johannesburg
ZAF,2154,-26.2,28.0833,Bromhof||Johannesburg
ZAF,2155,-26.2,28.0833,Northwold||Johannesburg
ZAF,2156,-26.2,28.0833,Randpark Ridge||Johannesburg
ZAF,2157,-26.2,28.0833,Johannesburg
ZAF,2158,-26.2,28.0833,Johannesburg
ZAF,2159,-26.2,28.0833,Johannesburg
ZAF,2160,-26.2,28.0833,Johannesburg
ZAF,2161,-26.2,28.0833,Johannesburg
ZAF,2162,-26.2,28.0833,North Riding
ZAF,2163,-26.2,28.0833,Johannesburg
ZAF,2164,-26.2,28.0833,Johannesburg
ZAF,2165,-26.05,28.0333,Bryanston
ZAF,2167,-26.1,27.9833,Randburg
ZAF,2169,-26.2,28.0833,North Riding||Randpark Ridge||Johannesburg
ZAF,2170,-26.2,28.0833,Randburg||Johannesburg
ZAF,2171,-26.2,28.0833,Johannesburg
ZAF,2172,-26.05,27.9667,Sandton
ZAF,2188,-26.1921,28.0792,Johannesburg||Jukskeipark||Northwold||Bromhof
ZAF,2189,-26.05,28.0333,Bryanston
ZAF,2190,-26.225,28.0666,Johannesburg||Rosettenville
ZAF,2191,-26.1,28.0556,Rivonia||Paulshof||Johannesburg||Bryanston||Witkoppen||Four Ways
ZAF,2192,-26.1833,28.0833,Orange Grove||Johannesburg
ZAF,2193,-26.1673,28.0336,Johannesburg
ZAF,2194,-26.15,28.0333,Randburg||Johannesburg
ZAF,2195,-26.175,28.0333,Roosevelt Park||Johannesburg
ZAF,2196,-26.1163,28.0603,Sandton||Strathavon||Hurlingham View||Johannesburg||Bryanston
ZAF,2197,-26.2,28.0833,Johannesburg
ZAF,2198,-26.1295,28.0503,Johannesburg
ZAF,2200,-26.0489,29.1344,Witbank||Sundra
ZAF,2210,-26.15,28.6833,Delmas||Witbank
ZAF,2211,-26.15,28.6833,Sundra||Delmas
ZAF,2213,-26.15,28.6833,Delmas
ZAF,2225,-25.8667,29.2333,Witbank
ZAF,2226,-25.8667,29.2333,Witbank
ZAF,2230,-25.8667,29.2333,Witbank
ZAF,2231,-26.2667,29.2333,Kriel
ZAF,2232,-26.05,29.0667,Ogies
ZAF,2233,-26.05,29.0667,Ogies
ZAF,2245,-26.2311,29.0356,Van Dyksdrif
ZAF,2250,-26.1,29.4333,Blinkpan||Witbank
ZAF,2260,-26.35,28.7667,Evander||Devon
ZAF,2265,-26.3667,28.9167,Leslie
ZAF,2266,-26.45,29.1167,Evander
ZAF,2270,-26.45,29.1167,Evander
ZAF,2271,-26.2667,29.2333,Kriel
ZAF,2272,-26.2667,29.2333,Kriel
ZAF,2275,-26.2667,29.2333,Kriel
ZAF,2276,-26.2667,29.2333,Kriel
ZAF,2284,-26.45,29.1167,Evander
ZAF,2285,-26.4916,29.0917,Embalenhle||Evander
ZAF,2300,-26.55,29.1667,Secunda
ZAF,2301,-26.55,29.1667,Secunda
ZAF,2302,-26.55,29.1666,Secunda
ZAF,2309,-26.45,29.4667,Bethal
ZAF,2311,-26.45,29.4667,Bethal
ZAF,2312,-26.45,29.4667,Bethal
ZAF,2320,-26.45,29.4667,Bethal
ZAF,2330,-26.4166,29.9833,Breyten||Ermelo
ZAF,2332,-26.5333,29.9833,Ermelo
ZAF,2333,-26.5333,29.9833,Ermelo
ZAF,2334,-26.5333,29.9833,Ermelo
ZAF,2336,-26.5333,29.9833,Dundonald||Ermelo
ZAF,2337,-26.5333,29.9833,Ermelo
ZAF,2339,-26.5333,29.9833,Ermelo
ZAF,2340,-26.5333,29.9833,Ermelo
ZAF,2341,-26.5333,29.9833,Ermelo
ZAF,2351,-26.5333,29.9833,Ermelo
ZAF,2352,-26.5333,29.9833,Ermelo
ZAF,2353,-26.5333,29.9833,Ermelo
ZAF,2355,-26.5333,29.9833,Nucam||Ermelo
ZAF,2356,-26.5333,29.9833,Ermelo
ZAF,2357,-26.5333,29.9833,Ermelo
ZAF,2370,-26.5333,29.9833,Ermelo
ZAF,2375,-27.25,31.1,Amsterdam||Mpumalanga
ZAF,2380,-27.0,30.8,Piet Retief
ZAF,2382,-27.0,30.8,Piet Retief
ZAF,2383,-27.0,30.8,Piet Retief
ZAF,2384,-27.0,30.8,Piet Retief
ZAF,2385,-27.0,30.8,Piet Retief
ZAF,2386,-27.0,30.8,Piet Retief
ZAF,2387,-27.0,30.8,Piet Retief
ZAF,2388,-27.0,30.8,Piet Retief
ZAF,2389,-27.0,30.8,Piet Retief
ZAF,2410,-26.65,28.5833,Balfour||Mpumalanga
ZAF,2425,-26.95,29.25,Standerton
ZAF,2429,-26.95,29.25,Standerton
ZAF,2430,-26.95,29.25,Standerton
ZAF,2431,-26.9584,29.225,Sakhile||Standerton
ZAF,2432,-26.95,29.25,Standerton
ZAF,2433,-26.95,29.25,Standerton
ZAF,2434,-26.95,29.25,Standerton
ZAF,2435,-26.95,29.25,Standerton
ZAF,2436,-26.95,29.25,Standerton
ZAF,2465,-27.3667,29.8833,Volksrust
ZAF,2470,-27.3667,29.8833,Volksrust
ZAF,2471,-27.3667,29.8833,Volksrust
ZAF,2480,-27.35,30.1333,Wakkerstroom
ZAF,2490,-26.9833,28.85,Amersfoort
ZAF,2491,-27.3667,29.8833,Volksrust
ZAF,2495,-26.3667,27.4,Carletonville
ZAF,2496,-26.3667,27.4,Carletonville
ZAF,2499,-26.3667,27.4,Carletonville
ZAF,2500,-26.3667,27.4,Carletonville
ZAF,2501,-26.3667,27.4,Carletonville
ZAF,2502,-26.3667,27.4,Carletonville
ZAF,2503,-26.3667,27.4,Carletonville
ZAF,2504,-26.3667,27.4,Carletonville
ZAF,2507,-26.3667,27.4,Carletonville
ZAF,2508,-26.3667,27.4,Carletonville
ZAF,2509,-26.3667,27.4,Carletonville
ZAF,2511,-26.3667,27.4,Carletonville
ZAF,2513,-26.3667,27.4,Carletonville
ZAF,2515,-26.4916,27.4834,Fochville||Kokosi
ZAF,2516,-26.3667,27.4,Carletonville
ZAF,2517,-26.3667,27.4,Carletonville
ZAF,2519,-26.3667,27.4,Carletonville
ZAF,2520,-26.7167,27.1,Potchefstroom
ZAF,2521,-26.7167,27.1,Potchefstroom
ZAF,2522,-26.7167,27.1,Potchefstroom
ZAF,2523,-26.7167,27.1,Potchefstroom
ZAF,2524,-26.7167,27.1,Potchefstroom
ZAF,2525,-26.7167,27.1,Potchefstroom
ZAF,2526,-26.7167,27.1,Potchefstroom
ZAF,2527,-26.7167,27.1,Potchefstroom
ZAF,2528,-28.1084,26.65,Boskop||Potchefstroom
ZAF,2529,-26.7167,27.1,Potchefstroom
ZAF,2530,-26.7167,27.1,Potchefstroom
ZAF,2531,-26.7167,27.1,Potchefstroom
ZAF,2532,-26.7167,27.1,Potchefstroom
ZAF,2533,-26.7167,27.1,Potchefstroom
ZAF,2534,-26.7167,27.1,Carltonville
ZAF,2535,-26.7167,27.1,Potchefstroom
ZAF,2538,-26.7167,27.1,Potchefstroom
ZAF,2551,-26.85,26.7833,Stilfontein
ZAF,2552,-26.85,26.7833,Stilfontein
ZAF,2553,-26.85,26.7833,Stilfontein
ZAF,2554,-26.85,26.7833,Stilfontein
ZAF,2556,-26.85,26.7833,Stilfontein
ZAF,2560,-26.85,26.7833,Stilfontein
ZAF,2562,-26.85,26.7833,Stilfontein
ZAF,2571,-26.8667,26.6667,Klerksdorp
ZAF,2572,-26.8666,26.6666,Klerksdorp
ZAF,2573,-26.8667,26.6667,Klerksdorp
ZAF,2574,-26.8833,26.6333,Jouberton||Klerkskdorp||Klerksdorp
ZAF,2575,-26.8667,26.6667,Klerksdorp
ZAF,2576,-26.8667,26.6667,Klerksdorp
ZAF,2577,-26.8667,26.6667,Klerksdorp
ZAF,2578,-26.8667,26.6667,Klerksdorp
ZAF,2600,-26.7667,26.4167,Hartbeesfontein||Klerksdorp
ZAF,2610,-26.8167,26.0167,Ottosdal
ZAF,2619,-26.9833,26.6667,Orkney
ZAF,2620,-26.9833,26.6667,Orkney
ZAF,2621,-26.9833,26.6667,Orkney
ZAF,2622,-26.9833,26.6667,Orkney
ZAF,2624,-26.9833,26.6667,Orkney
ZAF,2625,-26.9833,26.6667,Orkney
ZAF,2626,-26.9833,26.6667,Orkney
ZAF,2627,-26.9833,26.6667,Orkney
ZAF,2630,-27.2,25.9667,Wolmaransstad
ZAF,2640,-27.2333,26.2333,Leeudoringstad
ZAF,2650,-27.3167,25.9833,Makwassie
ZAF,2660,-27.65,25.6,Bloemhof
ZAF,2661,-27.65,25.6,Bloemhof
ZAF,2662,-27.65,25.6,Bloemhof
ZAF,2680,-28.2333,21.25,Christiana
ZAF,2710,-26.3167,26.8167,Ventersdorp
ZAF,2712,-26.3167,26.8167,Ventersdorp
ZAF,2717,-26.0667,25.8833,Itsoseng
ZAF,2718,-26.6833,25.4667,Delareyville
ZAF,2725,-26.3333,26.3167,Coligny
ZAF,2726,-26.3333,26.3167,Coligny
ZAF,2727,-26.3333,26.3167,Coligny
ZAF,2730,-26.15,26.1667,Lichtenburg
ZAF,2736,-25.35,26.5333,Madikwe
ZAF,2738,-26.0239,25.742,Radithuso||Mafikeng
ZAF,2739,-26.1811,25.8339,Radithuso
ZAF,2740,-26.15,26.1667,Lichtenburg
ZAF,2741,-26.15,26.1667,Lichtenburg
ZAF,2742,-26.15,26.1667,Lichtenburg
ZAF,2743,-26.15,26.1667,Lichtenburg
ZAF,2744,-26.0667,25.8833,Itsoseng||Mafikeng
ZAF,2745,-25.8666,25.6499,Mafikeng
ZAF,2746,-25.8667,25.65,Mafikeng
ZAF,2747,-26.6833,25.4667,Delareyville
ZAF,2748,-26.6833,25.4667,Delareyville
ZAF,2749,-25.8667,25.65,Mafikeng
ZAF,2750,-25.8667,25.65,Mafikeng
ZAF,2751,-25.8667,25.65,Mafikeng
ZAF,2752,-25.8667,25.65,Mafikeng
ZAF,2753,-25.8667,25.65,Mafikeng
ZAF,2754,-26.15,26.1667,Lichtenburg
ZAF,2755,-26.15,26.1667,Lichtenburg
ZAF,2760,-26.5333,25.8,Sannieshof
ZAF,2762,-26.15,26.1667,Lichtenburg
ZAF,2763,-25.8667,25.65,Mafikeng
ZAF,2766,-25.8667,25.65,Mafikeng
ZAF,2767,-25.8667,25.65,Mafikeng
ZAF,2768,-25.8667,25.65,Mafikeng
ZAF,2769,-25.8667,25.65,Mafikeng
ZAF,2771,-26.6833,25.4667,Delareyville
ZAF,2772,-26.6833,25.4667,Delareyville
ZAF,2773,-26.4167,25.2,Madibogo
ZAF,2774,-26.4167,25.2,Madibogo
ZAF,2775,-27.1833,25.3333,Schweizer-Reneke
ZAF,2776,-26.6833,25.4667,Delareyville
ZAF,2777,-25.85,25.6333,Mmabatho
ZAF,2778,-26.5389,25.3833,Vyrburg
ZAF,2779,-26.5389,25.3833,Vyrburg
ZAF,2780,-27.1833,25.3333,Schweizer-Reneke
ZAF,2781,-25.8667,25.65,Vyrburg
ZAF,2782,-25.8667,25.65,Mafikeng
ZAF,2783,-25.8667,25.65,Mafikeng
ZAF,2784,-25.8667,25.65,Mafikeng
ZAF,2786,-27.1833,25.3333,Schweizer-Reneke
ZAF,2835,-25.65,26.7,Swartruggens
ZAF,2836,-25.35,26.5333,Madikwe
ZAF,2838,-25.35,26.5333,Madikwe
ZAF,2839,-25.35,26.5333,Madikwe
ZAF,2841,-25.35,26.5333,Madikwe
ZAF,2842,-25.35,26.5333,Madikwe
ZAF,2843,-25.35,26.5333,Madikwe
ZAF,2844,-25.35,26.5333,Madikwe
ZAF,2845,-25.35,26.5333,Madikwe
ZAF,2846,-25.35,26.5333,Madikwe
ZAF,2847,-25.35,26.5333,Madikwe
ZAF,2848,-25.35,26.5333,Madikwe
ZAF,2849,-25.35,26.5333,Madikwe
ZAF,2851,-25.5333,26.0833,Zeerust
ZAF,2852,-25.35,26.5333,Madikwe
ZAF,2854,-25.35,26.5333,Madikwe
ZAF,2855,-25.8667,25.65,Mafikeng
ZAF,2857,-25.8667,25.65,Mafikeng
ZAF,2858,-25.8667,25.65,Mafikeng
ZAF,2865,-25.5333,26.0833,Zeerust
ZAF,2866,-25.8667,25.65,Mafikeng
ZAF,2867,-25.5333,26.0833,Zeerust
ZAF,2868,-25.45,25.8667,Lerato||Dinokana
ZAF,2870,-25.5333,26.0833,Lerato
ZAF,2873,-25.5333,26.0833,Lerato
ZAF,2874,-25.5333,26.0833,Zeerust
ZAF,2876,-25.5333,26.0833,Zeerust
ZAF,2880,-25.5333,26.0833,Lerato
ZAF,2881,-25.5333,26.0833,Zeerust
ZAF,2882,-25.5333,26.0833,Zeerust
ZAF,2883,-25.5333,26.0833,Zeerust
ZAF,2884,-25.5333,26.0833,Zeerust
ZAF,2885,-25.5333,26.0833,Zeerust
ZAF,2886,-25.5333,26.0833,Zeerust
ZAF,2887,-25.5333,26.0833,Zeerust
ZAF,2888,-25.5333,26.0833,Zeerust
ZAF,2889,-25.5333,26.0833,Zeerust
ZAF,2890,-25.5333,26.0833,Zeerust
ZAF,2891,-25.5333,26.0833,Zeerust
ZAF,2895,-25.5333,26.0833,Zeerust
ZAF,2900,-28.55,29.7833,Ladysmith
ZAF,2920,-29.7167,26.3833,Wasbank
ZAF,2930,-28.1833,30.15,Glencoe
ZAF,2940,-27.75,29.9333,Newcastle
ZAF,2941,-27.75,29.9333,Newcastle
ZAF,2942,-27.75,29.9333,Newcastle
ZAF,2944,-27.75,29.9333,Newcastle
ZAF,2945,-27.75,29.9333,Newcastle
ZAF,2950,-27.75,29.9333,Newcastle
ZAF,2951,-27.75,30.0333,Madadeni
ZAF,2952,-27.7833,30.15,Osizweni
ZAF,2953,-27.75,29.9333,Newcastle
ZAF,2954,-27.75,29.9333,Newcastle
ZAF,2956,-27.75,29.9333,Newcastle
ZAF,2957,-25.8167,31.7833,Madadeni
ZAF,2958,-27.75,29.9333,Newcastle
ZAF,2980,-27.65,30.3333,Utrecht
ZAF,3000,-28.1667,30.2333,Dundee
ZAF,3002,-27.7667,30.8,Vryheid
ZAF,3003,-28.1667,30.2333,Dundee
ZAF,3004,-28.1667,30.2333,Dundee
ZAF,3005,-28.2,30.6667,Nqutu
ZAF,3006,-28.1667,30.2333,Dundee
ZAF,3007,-28.2,30.6667,Nqutu
ZAF,3010,-28.7333,30.45,Tugela Ferry
ZAF,3011,-28.55,30.4167,Pomeroy
ZAF,3016,-28.1667,30.2333,Dundee
ZAF,3017,-28.1667,30.2333,Dundee
ZAF,3020,-28.55,30.4167,Pomeroy
ZAF,3024,-28.1909,30.2879,Blood River
ZAF,3080,-28.0,30.05,Dannhause||Dannhauser
ZAF,3081,-28.1667,30.2333,Dundee
ZAF,3082,-27.75,29.9333,Newcastle
ZAF,3100,-27.7667,30.8,Vryheid
ZAF,3101,-28.2533,29.9933,Emondlo
ZAF,3102,-27.7667,30.8,Vryheid
ZAF,3103,-27.7667,30.8,Vryheid
ZAF,3105,-27.7667,30.8,Vryheid
ZAF,3106,-27.7667,30.8,Vryheid
ZAF,3107,-30.2,26.7667,Vryheid
ZAF,3111,-27.7667,30.8,Vryheid
ZAF,3114,-27.7667,30.8,Vryheid
ZAF,3115,-27.7667,30.8,Vryheid
ZAF,3116,-30.2,26.7667,Vryheid
ZAF,3120,-27.7667,30.8,Vryheid
ZAF,3135,-28.2,30.6667,Nqutu
ZAF,3137,-28.2,30.6667,Nqutu
ZAF,3145,-27.7417,30.9,Hlobane||Vryheid
ZAF,3150,-27.7667,30.8,Vryheid
ZAF,3160,-27.3833,31.6167,Pongola
ZAF,3170,-27.3833,31.6167,Pongola
ZAF,3171,-27.3833,31.6167,Pongola
ZAF,3180,-27.4167,30.8167,Paulpietersburg
ZAF,3183,-27.7667,30.8,Vryheid
ZAF,3184,-27.7667,30.8,Vryheid
ZAF,3185,-27.4167,30.8167,Paulpietersburg
ZAF,3200,-29.6167,30.3833,Pietermaritzburg
ZAF,3201,-29.6334,30.3333,Edendale||Pietermaritzburg
ZAF,3202,-29.6167,30.3833,Pietermaritzburg
ZAF,3203,-29.6167,30.3833,Pietermaritzburg
ZAF,3204,-29.6167,30.3833,Scottsville||Pietermaritzburg||Edendale
ZAF,3205,-29.6167,30.3833,Pietermaritzburg
ZAF,3206,-29.6167,30.3833,Pietermaritzburg
ZAF,3207,-29.6167,30.3833,Pietermaritzburg
ZAF,3208,-29.6167,30.3833,Pietermaritzburg
ZAF,3209,-29.6167,30.3833,Pietermaritzburg
ZAF,3210,-29.6167,30.3833,Pietermaritzburg
ZAF,3211,-29.6167,30.3833,Pietermaritzburg
ZAF,3213,-29.6167,30.3833,Pietermaritzburg
ZAF,3214,-29.6167,30.3833,Pietermaritzburg
ZAF,3215,-29.6167,30.3833,Pietermaritzburg
ZAF,3216,-29.6167,30.3833,Pietermaritzburg
ZAF,3217,-29.6167,30.3833,Edendale||Pietermaritzburg
ZAF,3218,-29.65,30.2833,Edendale
ZAF,3219,-29.6167,30.3833,Pietermaritzburg
ZAF,3220,-29.6167,30.3833,Pietermaritzburg
ZAF,3221,-29.6167,30.3833,Pietermaritzburg
ZAF,3224,-29.4667,30.2333,Howick
ZAF,3225,-29.6167,30.3833,Pietermaritzburg
ZAF,3226,-29.4667,30.0416,Elandskop||Pietermaritzburg
ZAF,3227,-29.6,29.8667,Impendle
ZAF,3228,-29.6,29.8667,Howick||Impendle
ZAF,3230,-29.3333,30.6333,Dalton
ZAF,3231,-29.6167,30.3833,Pietermaritzburg
ZAF,3233,-29.4333,30.5833,Greytown||Wartburg
ZAF,3234,-29.4333,30.5833,Wartburg
ZAF,3235,-29.6167,30.3833,Pietermaritzburg
ZAF,3236,-29.2,30.6083,Dalton||Greytown
ZAF,3237,-30.2416,29.6417,Kokstad||Donnybrook
ZAF,3238,-29.3333,30.6333,Dalton
ZAF,3239,-30.2667,29.9333,Umzimkulu
ZAF,3241,-29.9333,29.8667,Donnybrook
ZAF,3242,-29.4,30.85,Dalton||Ozwatini
ZAF,3244,-29.6334,29.9916,Howick||Bulwer
ZAF,3245,-29.6167,30.3833,Pietermaritzburg
ZAF,3246,-29.4667,30.2333,Howick
ZAF,3247,-29.4667,30.2333,Howick
ZAF,3248,-29.4667,30.2333,Howick
ZAF,3249,-29.0667,30.5833,Greytown
ZAF,3250,-29.0667,30.5833,Greytown||Kwazulu/Natal
ZAF,3251,-29.0667,30.5833,Greytown
ZAF,3252,-29.0667,30.5833,Scottsville
ZAF,3254,-29.6167,30.3833,Pietermaritzburg
ZAF,3255,-29.4667,30.2333,Howick
ZAF,3258,-29.0667,30.5833,Greytown
ZAF,3259,-29.3333,30.6333,Dalton
ZAF,3260,-29.4667,30.2333,Howick
ZAF,3261,-29.4,30.85,Ozwatini
ZAF,3262,-29.0667,30.5833,Greytown
ZAF,3263,-30.0333,29.8333,Creighton||Umzinto
ZAF,3265,-29.4667,30.2333,Howick
ZAF,3266,-30.3167,30.6667,Umzinto
ZAF,3267,-29.4667,30.2333,Howick
ZAF,3268,-29.8167,28.7416,Greytown||Kranskop
ZAF,3269,-28.9667,30.8667,Kranskop
ZAF,3270,-29.4667,30.2333,Howick
ZAF,3271,-30.5667,26.9,Kranskop
ZAF,3272,-30.5667,26.9,Kranskop
ZAF,3273,-30.5667,26.9,Kranskop
ZAF,3274,-30.5667,26.9,Kranskop
ZAF,3275,-29.4667,30.2333,Howick
ZAF,3276,-29.6167,30.3833,Pietermaritzburg
ZAF,3277,-30.5667,26.9,Kranskop
ZAF,3279,-30.05,30.8833,Amanzimtoti
ZAF,3280,-29.0,29.8833,Estcourt
ZAF,3282,-30.5667,26.9,Kranskop
ZAF,3286,-30.5667,26.9,Kranskop
ZAF,3287,-30.5667,26.9,Kranskop
ZAF,3290,-29.5167,30.2333,Merrivale||Howick
ZAF,3291,-29.4917,30.2333,Howick||Merrivale
ZAF,3292,-29.6167,30.3833,Pietermaritzburg
ZAF,3293,-29.6167,30.3833,Pietermaritzburg
ZAF,3294,-29.6167,30.3833,Pietermaritzburg
ZAF,3295,-29.6167,30.3833,Pietermaritzburg
ZAF,3296,-29.6167,30.3833,Pietermaritzburg
ZAF,3298,-30.2667,29.9333,Umzimkulu
ZAF,3299,-29.4667,30.2333,Howick
ZAF,3300,-29.2,29.9833,Mooi River||Estcourt
ZAF,3301,-29.0,29.8833,Estcourt
ZAF,3302,-29.4667,30.2333,Howick
ZAF,3303,-29.4667,30.2333,Howick
ZAF,3304,-30.2667,29.9333,Umzimkulu
ZAF,3305,-30.2667,30.2,Highflats
ZAF,3306,-30.2667,30.2,Highflats
ZAF,3307,-30.2667,29.9333,Umzimkulu
ZAF,3308,-29.5167,30.2333,Merrivale
ZAF,3310,-29.0,29.8833,Estcourt
ZAF,3312,-29.0,29.8833,Estcourt
ZAF,3313,-29.0,29.8833,Estcourt
ZAF,3325,-29.0,29.8833,Estcourt
ZAF,3330,-29.0,29.8833,Estcourt
ZAF,3331,-28.8,29.5333,Winterton
ZAF,3340,-28.8,29.5333,Winterton
ZAF,3341,-28.8,29.5333,Winterton
ZAF,3342,-28.8,29.5333,Winterton
ZAF,3350,-28.7333,29.3667,Bergville
ZAF,3351,-28.7333,29.3667,Bergville
ZAF,3352,-28.7333,29.3667,Bergville
ZAF,3354,-28.7333,29.3667,Bergville
ZAF,3360,-28.6416,29.8,Ladysmith||Colenso
ZAF,3370,-28.55,29.7833,Ladysmith
ZAF,3371,-28.55,29.7833,Ladysmith
ZAF,3372,-28.2833,29.1333,Harrismith
ZAF,3373,-28.55,29.7833,Ladysmith||Steadville
ZAF,3374,-28.55,29.7833,Ladysmith
ZAF,3375,-28.55,29.7833,Ladysmith
ZAF,3377,-28.55,29.7833,Ladysmith
ZAF,3378,-28.55,29.7833,Ladysmith
ZAF,3380,-28.55,29.7833,Ladysmith
ZAF,3381,-28.55,29.7833,Ezakheni
ZAF,3382,-28.55,29.7833,Ladysmith
ZAF,3384,-28.55,29.7833,Ladysmith
ZAF,3500,-29.0667,30.5833,Greytown
ZAF,3600,-29.8167,30.85,Pinetown
ZAF,3602,-29.8167,30.85,Pinetown
ZAF,3603,-29.8167,30.85,Pinetown
ZAF,3604,-29.8167,30.85,Chatsworth||Nagina||Pinetown
ZAF,3605,-29.8167,30.85,Pinetown
ZAF,3607,-29.8167,30.85,Pinetown
ZAF,3608,-29.8167,30.85,Pinetown
ZAF,3609,-29.8167,30.85,St Wendolins||Pinetown
ZAF,3610,-29.8139,30.8389,Kloof||New Germany||Gillitts||Clernaville||Pinetown||Hillcrest||Link Hills||Chatsworth
ZAF,3611,-29.85,31.0167,Durban
ZAF,3612,-29.8,30.8833,New Germany
ZAF,3613,-29.8167,30.85,Pinetown
ZAF,3614,-29.8133,30.8467,Nagina
ZAF,3615,-29.8167,30.85,Pinetown
ZAF,3616,-29.8167,30.85,Pinetown
ZAF,3617,-29.8167,30.85,Pinetown
ZAF,3620,-29.8167,30.85,Pinetown
ZAF,3621,-29.8167,30.85,Pinetown
ZAF,3624,-30.85,28.825,Hillcrest||Pinetown
ZAF,3625,-29.8167,30.85,Pinetown
ZAF,3626,-29.7917,30.8084,Hillcrest||Pinetown
ZAF,3629,-29.8416,30.975,Westville||Durban
ZAF,3630,-29.85,31.0167,Durban
ZAF,3631,-29.8333,30.9333,Westville
ZAF,3634,-29.8333,30.9333,Westville
ZAF,3635,-29.8333,30.9333,Westville
ZAF,3640,-29.7833,30.8333,Kloof
ZAF,3650,-30.85,28.825,Pinetown||Hillcrest
ZAF,3651,-29.8167,30.85,Pinetown
ZAF,3652,-29.8167,30.85,Pinetown
ZAF,3655,-29.8167,30.85,Link Hills
ZAF,3660,-29.7167,30.7333,Botha'S Hill||Hillcrest
ZAF,3670,-29.8,30.65,Hammarsdale
ZAF,3680,-29.7666,30.6166,Hammarsdale||Cato Ridge
ZAF,3690,-29.8,30.65,Hammarsdale
ZAF,3699,-29.8,30.65,Hammarsdale
ZAF,3700,-29.8,30.65,Hammarsdale
ZAF,3701,-29.8,30.65,Hammarsdale
ZAF,3705,-29.8,30.65,Hammarsdale
ZAF,3710,-29.8,30.65,Hammarsdale
ZAF,3720,-29.8,30.65,Hammarsdale
ZAF,3730,-29.8,30.65,Hammarsdale
ZAF,3750,-29.9667,30.5167,Mid Illovo
ZAF,3760,-29.3333,30.0472,Scottsville
ZAF,3770,-29.3333,30.0472,Scottsville
ZAF,3780,-29.8667,30.2667,Richmond
ZAF,3781,-29.8667,30.2667,Richmond
ZAF,3782,-26.7,27.9333,Richmond
ZAF,3800,-29.0167,31.5833,Gingindlovu
ZAF,3802,-29.0167,31.5833,Mandeni
ZAF,3803,-29.0167,31.5833,Gingindlovu
ZAF,3804,-29.0167,31.5833,Gingindlovu
ZAF,3806,-29.0167,31.5833,Gingindlovu
ZAF,3814,-28.8833,31.4667,Eshowe
ZAF,3815,-28.8833,31.4667,Stanger||Eshowe
ZAF,3816,-28.8833,31.4667,Eshowe
ZAF,3817,-28.8833,31.4667,Eshowe
ZAF,3818,-29.0167,31.5833,Gingindlovu
ZAF,3820,-28.8833,31.4667,Eshowe
ZAF,3830,-28.8833,31.4667,Eshowe
ZAF,3835,-28.5833,31.3833,Melmoth
ZAF,3836,-27.9,31.65,Nongoma
ZAF,3837,-28.5833,31.3833,Melmoth
ZAF,3838,-28.3333,31.4167,Ulundi
ZAF,3850,-28.5833,31.3833,Eshowe||Melmoth
ZAF,3855,-28.6167,31.0833,Nkandla
ZAF,3856,-28.4334,31.2583,Mahlabatini||Nkandla
ZAF,3857,-28.5833,31.3833,Melmoth
ZAF,3858,-28.6167,31.0833,Nkandla
ZAF,3859,-28.6167,31.0833,Nkandla
ZAF,3865,-28.25,31.4333,Mahlabatini
ZAF,3866,-27.9,31.65,Nongoma
ZAF,3867,-28.95,31.75,Mtunzini
ZAF,3871,-27.9833,31.3833,Ceza
ZAF,3875,-28.75,31.9,Empangeni
ZAF,3879,-28.75,31.9,Empangeni
ZAF,3880,-28.75,31.8999,Empangeni
ZAF,3881,-28.75,31.9,Empangeni
ZAF,3882,-28.75,31.9,Empangeni
ZAF,3884,-28.75,31.9,Empangeni
ZAF,3886,-28.7767,31.9,Kwadlangezwa
ZAF,3887,-28.8833,31.9,Esikhawini
ZAF,3900,-28.7901,32.0971,Richardsbaai||Empangeni||Richards Bay
ZAF,3902,-28.8,32.1,Richards Bay
ZAF,3903,-28.8,32.1,Richards Bay
ZAF,3904,-28.8,32.1,Richards Bay
ZAF,3910,-28.75,31.9,Empangeni
ZAF,3915,-28.6,32.0833,Kwambonambi
ZAF,3920,-28.75,31.9,Empangeni
ZAF,3925,-28.4167,32.1833,Mtubatuba
ZAF,3930,-28.4167,32.1833,Mtubatuba
ZAF,3934,-27.9833,32.0,Nongoma
ZAF,3935,-28.4167,32.1833,Mtubatuba
ZAF,3936,-28.4167,32.1833,St Lucia Estuary||Mtubatuba
ZAF,3937,-28.1333,31.8667,Hlabisa
ZAF,3938,-27.9,31.65,Nongoma
ZAF,3940,-28.4167,32.1833,Mtubatuba
ZAF,3950,-28.0333,32.2833,Hluhluwe||Nongoma
ZAF,3960,-28.0333,32.2833,Hluhluwe
ZAF,3964,-27.1333,31.9833,Ingwavuma
ZAF,3965,-28.1834,31.9666,Mkuze||Empangeni
ZAF,3966,-27.6167,32.0333,Mkuze
ZAF,3967,-27.6167,32.0333,Mkuze
ZAF,3968,-27.1333,31.9833,Ingwavuma
ZAF,3970,-27.5667,32.0833,Ubombo||Empangeni
ZAF,3972,-27.6167,32.0333,Mkuze
ZAF,3974,-27.6167,32.0333,Mbazwana||Mkuze
ZAF,3975,-27.6167,32.0333,Mkuze
ZAF,3976,-27.6167,32.0333,Mkuze
ZAF,3977,-27.1333,31.9833,Ingwavuma
ZAF,3978,-27.5278,32.0333,Kwangkwanase
ZAF,3979,-27.6167,32.0333,Mkuze
ZAF,3980,-27.6167,32.0333,Mkuze
ZAF,3982,-27.4333,32.0667,Jozini
ZAF,3983,-27.4333,32.0667,Jozini
ZAF,3984,-27.4333,32.0667,Jozini
ZAF,3985,-27.4333,32.0667,Jozini
ZAF,3986,-27.4333,32.0667,Jozini
ZAF,3987,-27.4333,32.0667,Jozini
ZAF,3988,-27.4833,32.5833,Mbazwana
ZAF,3989,-27.4333,32.0667,Jozini
ZAF,4000,-29.85,31.0167,Durban
ZAF,4001,-29.8561,31.0352,Durban
ZAF,4004,-29.85,31.0167,Yellowwood Park||Durban
ZAF,4005,-29.85,31.0167,Durban
ZAF,4006,-29.85,31.0167,Durban
ZAF,4007,-29.85,31.0167,Durban
ZAF,4008,-29.85,31.0167,Durban
ZAF,4011,-29.85,31.0167,Durban
ZAF,4013,-29.85,31.0167,Durban
ZAF,4014,-29.85,31.0167,Durban
ZAF,4015,-29.85,31.0167,Durban
ZAF,4016,-29.85,31.0167,Durban
ZAF,4017,-29.85,31.0167,Durban
ZAF,4018,-29.85,31.0167,Durban
ZAF,4019,-29.8,31.0333,Durban North
ZAF,4021,-29.7167,31.0667,Umhlanga Rocks
ZAF,4022,-29.85,31.0167,Durban
ZAF,4023,-29.85,31.0167,Durban
ZAF,4024,-29.85,31.0167,Durban
ZAF,4025,-29.85,31.0167,Durban
ZAF,4026,-29.85,31.0167,Durban
ZAF,4027,-29.9,30.975,Lamontville||Durban
ZAF,4028,-29.85,31.0167,Durban
ZAF,4029,-29.85,31.0167,Durban
ZAF,4030,-33.55,18.5833,Chatsworth
ZAF,4031,-29.9667,30.8833,Umlazi
ZAF,4032,-28.6056,30.0278,Kwa-Mashu||Kwazimele||Inanda
ZAF,4034,-29.85,31.0167,Durban
ZAF,4035,-29.85,31.0167,Durban||Marble Ray
ZAF,4036,-29.85,31.0167,Durban
ZAF,4037,-29.85,31.0167,Marble Ray||Durban
ZAF,4038,-29.85,31.0167,Durban
ZAF,4039,-29.85,31.0167,Marble Ray
ZAF,4050,-29.95,30.95,Mobeni
ZAF,4051,-29.8,31.0333,Durban North||Durban-Noord||Durban
ZAF,4052,-29.85,31.0167,Bluff||Durban
ZAF,4053,-29.85,31.0167,Durban
ZAF,4054,-33.55,18.5833,Chatsworth
ZAF,4056,-29.85,31.0167,Durban
ZAF,4057,-29.85,31.0167,Durban
ZAF,4058,-29.85,31.0167,Durban
ZAF,4059,-29.85,31.0167,Durban
ZAF,4060,-29.85,31.0167,Durban
ZAF,4061,-29.85,31.0167,Durban
ZAF,4062,-29.85,31.0167,Durban
ZAF,4063,-29.85,31.0167,Durban
ZAF,4064,-29.85,31.0167,Durban
ZAF,4065,-29.85,31.0167,Durban
ZAF,4066,-29.9667,30.8833,Isipingo||Umlazi||Ntokozweni
ZAF,4067,-29.85,31.0167,Durban
ZAF,4068,-29.775,31.025,Mount Edgecombe||Phoenix||Durban
ZAF,4069,-29.85,31.0167,Durban
ZAF,4070,-29.85,31.0167,Durban
ZAF,4071,-29.85,31.0167,Durban
ZAF,4072,-29.9,30.9667,Rossburgh
ZAF,4074,-29.85,31.0167,Durban
ZAF,4075,-29.85,31.0167,Durban
ZAF,4078,-29.85,31.0167,Durban
ZAF,4079,-29.8667,30.9333,Queensburgh
ZAF,4080,-29.85,31.0167,Phoenix||Durban
ZAF,4082,-29.85,30.9833,Mayville
ZAF,4083,-29.85,31.0167,Durban
ZAF,4084,-33.55,18.5833,Chatsworth
ZAF,4085,-29.85,31.0167,Durban
ZAF,4087,-33.55,18.5833,Chatsworth
ZAF,4088,-29.95,30.95,Mobeni
ZAF,4089,-29.9084,30.95,Ntokozweni||Umlazi
ZAF,4090,-29.85,31.0167,Durban
ZAF,4091,-29.85,31.0,Durban||Mayville||Dormerton
ZAF,4092,-29.9,30.9833,Durban||Mobeni||Marianhill||Chatsworth
ZAF,4093,-29.8333,30.9333,Shallcross||Pinetown||Durban||Northdene||Queensburgh
ZAF,4094,-29.875,30.9917,Rossburgh||Durban
ZAF,4098,-29.8,31.0333,Durban North
ZAF,4099,-26.0667,29.2,Phoenix
ZAF,4100,-30.05,30.8833,Amanzimtoti
ZAF,4101,-29.85,31.0167,Durban
ZAF,4104,-29.85,31.0167,Durban
ZAF,4105,-29.9833,30.7,Umbumbulu
ZAF,4106,-29.9833,30.7,Umbumbulu
ZAF,4109,-29.9333,30.9833,Jacobs
ZAF,4110,-29.9833,30.9333,Isipingo
ZAF,4111,-29.9833,30.9333,Isipingo
ZAF,4113,-29.9833,30.9333,Isipingo
ZAF,4115,-29.9833,30.95,Isipingo Beach
ZAF,4120,-30.05,30.8833,Amanzimtoti
ZAF,4125,-30.05,30.8833,Amanzimtoti
ZAF,4126,-30.0733,30.8767,Amanzimtoti||Illovo Beach||Umbogintwini||Doonside||Winklespruit
ZAF,4132,-33.55,18.5833,Chatsworth
ZAF,4133,-29.9833,30.9416,Isipingo||Isipingo Beach
ZAF,4135,-30.05,30.8833,Amanzimtoti
ZAF,4136,-30.05,30.8833,Amanzimtoti
ZAF,4137,-29.85,31.0167,Durban
ZAF,4138,-29.95,30.9333,Mayville||Dormerton
ZAF,4139,-30.05,30.8833,Bluff
ZAF,4140,-30.05,30.8833,Amanzimtoti
ZAF,4142,-29.8472,23.3388,Chatsworth||Marianhill
ZAF,4144,-29.9667,30.8833,Umlazi
ZAF,4145,-30.075,30.8666,Winklespruit||Amanzimtoti
ZAF,4146,-26.2,28.1,Malvern||Rossburgh
ZAF,4147,-26.1167,28.0917,Northdene||Pinetown||Queensburgh||Chatsworth||Malvern
ZAF,4148,-29.9667,30.8833,Umlazi
ZAF,4150,-30.05,30.8833,Amanzimtoti
ZAF,4153,-29.9833,30.9333,Isipingo
ZAF,4155,-30.05,30.8833,Amanzimtoti
ZAF,4156,-27.8834,30.1166,Phoenix||Mount Edgecombe
ZAF,4157,-26.0667,29.2,Phoenix
ZAF,4158,-26.0667,29.2,Phoenix
ZAF,4160,-30.05,30.8833,Amanzimtoti
ZAF,4162,-29.644,30.7233,Yellowwood Park||Durban
ZAF,4163,-29.4379,30.4299,Yellowwood Park
ZAF,4170,-30.2,30.8,Umkomaas
ZAF,4171,-30.2,30.8,Umkomaas
ZAF,4180,-30.2833,30.75,Scottburgh
ZAF,4181,-30.2833,30.75,Scottburgh
ZAF,4182,-30.2833,30.75,Scottburgh
ZAF,4183,-30.2833,30.75,Scottburgh
ZAF,4184,-30.2833,30.75,Pennington||Scottburgh
ZAF,4185,-30.3666,30.7,Ifafa Beach||Scottburgh
ZAF,4186,-30.2833,30.75,Scottburgh
ZAF,4200,-30.3167,30.6667,Umzinto||Hibberdene
ZAF,4201,-30.3167,30.6667,Umzinto
ZAF,4202,-30.3167,30.6667,Umzinto
ZAF,4204,-30.3167,30.6667,Umzinto
ZAF,4207,-30.3167,30.6667,Umzinto
ZAF,4215,-30.4167,30.6833,Sezela
ZAF,4220,-30.5833,30.5833,Hibberdene
ZAF,4221,-30.5833,30.5833,Hibberdene
ZAF,4225,-30.6167,30.55,Umzumbe
ZAF,4226,-30.75,30.45,Port Shepstone
ZAF,4227,-30.6167,30.55,Umzumbe
ZAF,4230,-30.6667,30.5,Anerley
ZAF,4235,-30.7167,30.4667,Umtentweni
ZAF,4240,-30.775,30.4334,Shelly Beach||Port Shepstone
ZAF,4241,-30.75,30.45,Port Shepstone
ZAF,4242,-30.75,30.45,Ndwedwe||Port Shepstone
ZAF,4243,-30.75,30.45,Port Shepstone
ZAF,4246,-30.7536,30.4476,Mehlomnyama||Port Shepstone
ZAF,4247,-30.75,30.45,Port Shepstone
ZAF,4249,-30.75,30.45,Port Shepstone
ZAF,4250,-30.75,30.45,Port Shepstone
ZAF,4251,-30.75,30.45,Port Shepstone
ZAF,4260,-30.7833,30.1333,Izingolweni
ZAF,4261,-30.7833,30.1333,Izingolweni
ZAF,4265,-30.8,30.4167,Shelly Beach
ZAF,4270,-31.4,26.5833,Uvongo
ZAF,4275,-30.85,30.3667,Margate
ZAF,4276,-30.85,30.3667,Manaba Beach||Margate
ZAF,4277,-30.9166,30.3166,Margate
ZAF,4278,-30.9166,30.3,Munster||Margate
ZAF,4280,-30.85,30.3667,Margate
ZAF,4281,-30.85,30.3667,Margate
ZAF,4295,-31.05,30.2167,Port Edward
ZAF,4300,-26.0667,29.2,Phoenix
ZAF,4301,-29.7,31.0333,Mount Edgecombe
ZAF,4302,-26.0667,29.2,Phoenix
ZAF,4309,-26.1167,28.05,Durban||Inanda||Phoenix
ZAF,4310,-29.7666,30.975,Durban||Inanda
ZAF,4319,-29.6834,31.0584,Umhlanga Rocks||Verulam
ZAF,4321,-29.7167,31.0667,Umhlanga Rocks
ZAF,4339,-29.65,31.05,Verulam
ZAF,4340,-29.65,31.05,Verulam
ZAF,4341,-29.5,30.9333,Ndwedwe
ZAF,4342,-29.5,30.9333,Ndwedwe
ZAF,4343,-29.65,31.05,Verulam
ZAF,4344,-29.65,31.05,Verulam
ZAF,4345,-29.65,31.05,Verulam
ZAF,4350,-29.7167,31.0667,Umhlanga Rocks
ZAF,4359,-29.75,30.9833,Kwamashu||Durban||Kwa-Mashu
ZAF,4360,-29.8,31.0,Durban||Kwamashu||Kwa-Mashu
ZAF,4361,-29.8167,31.0056,Kwa-Mashu
ZAF,4362,-29.85,31.0167,Durban
ZAF,4364,-29.8167,31.0056,Kwa-Mashu
ZAF,4380,-29.575,31.1333,Maidstone||Tongaat
ZAF,4390,-29.5833,31.1333,Tongaat
ZAF,4391,-29.114,30.6772,Umhlali
ZAF,4399,-29.4623,30.0775,Maidstone||Tongaat||Ndwedwe||Hambanathi Heights||Desainagar
ZAF,4400,-29.5833,31.1333,Tongaat||Hambanathi Heights
ZAF,4401,-29.5833,31.1333,Tongaat
ZAF,4402,-29.5833,31.1333,Tongaat
ZAF,4403,-29.5833,31.1333,Tongaat
ZAF,4404,-29.5833,31.1333,Tongaat
ZAF,4405,-29.5833,31.1333,Desainagar||Tongaat
ZAF,4406,-29.5833,31.1333,Maidstone||Tongaat
ZAF,4420,-29.4254,30.9658,Umhlali||Tongaat
ZAF,4430,-29.45,31.2167,Shakaskraal
ZAF,4449,-29.3333,31.3,Stanger
ZAF,4450,-29.3333,31.3,Stanger
ZAF,4451,-29.3333,31.3,Stanger
ZAF,4452,-29.3333,31.3,Stanger
ZAF,4453,-29.3333,31.3,Stanger
ZAF,4454,-29.3333,31.3,Stanger
ZAF,4455,-29.3333,31.3,Stanger
ZAF,4456,-29.3333,31.3,Stanger
ZAF,4457,-29.3333,31.3,Stanger
ZAF,4470,-29.2416,31.1834,Mapumulo||Stanger
ZAF,4480,-26.4,23.25,Darnall
ZAF,4490,-29.3004,31.0491,Mandeni||Stanger
ZAF,4491,-29.2675,30.7982,Mandeni
ZAF,4492,-29.2675,30.7982,Mandeni
ZAF,4642,-30.75,30.45,Port Shepstone
ZAF,4643,-30.5833,29.8833,Harding
ZAF,4680,-30.5833,29.8833,Harding
ZAF,4681,-30.5833,29.8833,Harding
ZAF,4682,-30.7333,30.0333,Nqabeni||Port Shepstone
ZAF,4683,-30.5833,29.8833,Harding
ZAF,4684,-30.5833,29.8833,Harding
ZAF,4685,-30.55,29.4167,Kokstad
ZAF,4687,-30.5833,29.8833,Harding
ZAF,4688,-30.5833,29.8833,Harding
ZAF,4689,-30.5833,29.8833,Harding
ZAF,4693,-30.55,29.4167,Kokstad
ZAF,4700,-30.55,29.4167,Kokstad
ZAF,4706,-30.55,29.4167,Kokstad
ZAF,4710,-30.55,29.4167,Kokstad
ZAF,4730,-30.3333,28.8,Matatiele
ZAF,4731,-30.3333,28.8,Matatiele
ZAF,4735,-30.8,29.3667,Mount Ayliff
ZAF,4736,-30.8,29.3667,Mount Ayliff
ZAF,4737,-30.8,29.3667,Mount Ayliff
ZAF,4738,-30.8,29.3667,Mount Ayliff
ZAF,4740,-30.9166,28.6583,Umtata||Maluti
ZAF,4742,-30.25,28.5333,Maluti
ZAF,4743,-30.25,28.5333,Queen'S Mercy||Queens Mercy
ZAF,4751,-30.6,27.3167,Magadla
ZAF,4752,-30.6,27.3167,Magadla
ZAF,4753,-30.6,27.3167,Magadla
ZAF,4770,-30.6833,28.5167,Mount Fletcher
ZAF,4771,-30.6833,28.5167,Mount Fletcher
ZAF,4772,-30.6833,28.5167,Mount Fletcher
ZAF,4773,-30.6833,28.5167,Mount Fletcher
ZAF,4774,-30.6833,28.5167,Mount Fletcher
ZAF,4776,-30.6833,28.5167,Mount Fletcher
ZAF,4777,-30.6833,28.5167,Mount Fletcher
ZAF,4778,-30.6833,28.5167,Mount Fletcher
ZAF,4780,-30.6833,28.5167,Mount Fletcher
ZAF,4781,-30.6833,28.5167,Mount Fletcher
ZAF,4786,-30.6833,28.5167,Mount Fletcher
ZAF,4788,-30.25,28.5333,Queen'S Mercy
ZAF,4789,-30.6833,28.5167,Mount Fletcher
ZAF,4790,-30.6833,28.5167,Mount Fletcher
ZAF,4800,-30.85,29.85,Bizana
ZAF,4802,-30.85,29.85,Bizana
ZAF,4803,-30.85,29.85,Bizana
ZAF,4804,-30.85,29.85,Bizana
ZAF,4810,-31.0833,29.4833,Flagstaff
ZAF,4811,-31.0833,29.4833,Flagstaff
ZAF,4812,-31.0833,29.4833,Flagstaff
ZAF,4813,-31.0833,29.4833,Flagstaff
ZAF,4814,-31.0833,29.4833,Flagstaff
ZAF,4820,-31.35,29.5833,Lusikisiki
ZAF,4821,-31.0833,29.4833,Flagstaff
ZAF,4822,-31.35,29.5833,Lusikisiki
ZAF,4824,-31.35,29.5833,Lusikisiki
ZAF,4825,-31.35,29.5833,Lusikisiki
ZAF,4828,-31.35,29.5833,Lusikisiki
ZAF,4930,-32.5667,27.4167,Stutterheim
ZAF,4931,-32.8833,27.4,King William'S Town
ZAF,4934,-32.5667,27.4167,Stutterheim
ZAF,4935,-32.5667,27.4167,Stutterheim
ZAF,4950,-32.5833,27.9,Komga
ZAF,4960,-32.3333,28.15,Butterworth
ZAF,4961,-32.3333,28.15,Msobomvu||Butterworth
ZAF,4963,-32.3333,28.15,Butterworth
ZAF,4964,-32.3333,28.15,Ndabakazi
ZAF,4968,-32.3333,28.15,Butterworth
ZAF,4980,-32.5167,28.3167,Kentani
ZAF,4982,-32.5167,28.3167,Kentani
ZAF,4990,-32.2333,28.0667,Nqamakwe
ZAF,4991,-32.2333,28.0667,Nqamakwe
ZAF,4992,-32.2,27.9333,Nqamakwe
ZAF,5000,-32.1,28.3,Idutywa
ZAF,5002,-32.1,28.3,Idutywa
ZAF,5003,-32.1,28.3,Idutywa
ZAF,5004,-32.1,28.3,Idutywa
ZAF,5005,-32.1,28.3,Idutywa
ZAF,5006,-32.1,28.3,Idutywa
ZAF,5007,-32.1,28.3,Idutywa
ZAF,5010,-32.1,28.3,Idutywa
ZAF,5011,-32.1,28.3,Idutywa
ZAF,5012,-32.1,28.3,Idutywa
ZAF,5013,-32.3333,28.15,Butterworth
ZAF,5014,-32.1,28.3,Idutywa
ZAF,5015,-32.1,28.3,Idutywa
ZAF,5016,-32.1,28.3,Idutywa
ZAF,5017,-32.1,28.3,Idutywa
ZAF,5018,-32.1,28.3,Idutywa
ZAF,5019,-32.1,28.3,Idutywa
ZAF,5021,-32.1,28.3,Idutywa
ZAF,5024,-31.7833,28.3,Clarkebury
ZAF,5026,-31.7833,28.3,Clarkebury
ZAF,5035,-31.5833,28.7833,Umtata
ZAF,5040,-32.2667,28.5167,Willowvale
ZAF,5041,-32.2667,28.5167,Willowvale
ZAF,5042,-32.2667,28.5167,Willowvale
ZAF,5043,-30.7167,26.8167,Willowvale
ZAF,5050,-31.6833,28.0,Engcobo
ZAF,5051,-31.6667,28.0,Engcobo
ZAF,5052,-31.6833,28.0,Engcobo
ZAF,5054,-31.6833,28.0,Engcobo
ZAF,5055,-31.6833,28.0,Engcobo
ZAF,5056,-31.6833,28.0,Engcobo
ZAF,5057,-31.6833,28.0,Engcobo
ZAF,5058,-31.6833,28.0,Engcobo
ZAF,5070,-31.9667,28.6833,Elliotdale
ZAF,5072,-31.9667,28.6833,Elliotdale
ZAF,5073,-31.9667,28.6833,Elliotdale
ZAF,5075,-31.9667,28.6833,Elliotdale
ZAF,5079,-31.8167,28.75,Mqanduli
ZAF,5080,-31.8167,28.75,Mqanduli
ZAF,5081,-31.8167,28.75,Mqanduli
ZAF,5082,-31.8167,28.75,Mqanduli
ZAF,5083,-31.8167,28.75,Mqanduli
ZAF,5084,-31.8167,28.75,Mqanduli
ZAF,5085,-31.8167,28.75,Mqanduli
ZAF,5086,-30.9167,28.9833,Mount Frere
ZAF,5087,-30.9167,28.9833,Mount Frere
ZAF,5088,-30.9167,28.9833,Mount Frere
ZAF,5089,-30.9167,28.9833,Mount Frere
ZAF,5090,-30.9167,28.9833,Mount Frere
ZAF,5091,-30.9167,28.9833,Mount Frere
ZAF,5092,-30.9167,28.9833,Mount Frere
ZAF,5093,-30.9167,28.9833,Mount Frere
ZAF,5094,-30.9167,28.9833,Mount Frere
ZAF,5095,-30.9167,28.9833,Mount Frere
ZAF,5096,-30.9167,28.9833,Mount Frere
ZAF,5097,-30.9167,28.9833,Mount Frere
ZAF,5100,-31.5833,28.7833,Umtata
ZAF,5101,-31.5833,28.7833,Umtata
ZAF,5102,-31.5833,28.7833,Umtata
ZAF,5103,-31.5833,28.7833,Umtata
ZAF,5104,-31.5833,28.7833,Umtata
ZAF,5105,-31.5833,28.7833,Umtata
ZAF,5106,-31.5833,28.7833,Umtata
ZAF,5107,-31.5833,28.7833,Umtata
ZAF,5108,-31.5833,28.7833,Umtata
ZAF,5109,-31.5833,28.7833,Umtata
ZAF,5111,-31.5833,28.7833,Umtata
ZAF,5113,-31.5833,28.7833,Umtata
ZAF,5114,-31.5833,28.7833,Umtata
ZAF,5115,-31.5833,28.7833,Umtata
ZAF,5116,-31.5833,28.7833,Umtata
ZAF,5117,-31.5833,28.7833,Umtata
ZAF,5118,-31.9667,28.6833,Elliotdale
ZAF,5120,-31.5833,28.7833,Port St Johns
ZAF,5121,-31.5833,28.7833,Port St Johns
ZAF,5122,-31.5833,28.7833,Port St Johns
ZAF,5127,-31.5833,28.7833,Umtata
ZAF,5129,-31.8167,28.75,Mqanduli
ZAF,5130,-30.9667,29.3,Tabankulu
ZAF,5131,-30.9667,29.3,Tabankulu
ZAF,5132,-30.9667,29.3,Tabankulu
ZAF,5134,-30.9667,29.3,Tabankulu
ZAF,5135,-30.9667,29.3,Tabankulu
ZAF,5136,-30.9667,29.3,Tabankulu
ZAF,5140,-31.6667,29.0333,Ngqeleni
ZAF,5141,-30.9833,29.5167,Ngqeleni
ZAF,5150,-31.6667,29.0333,Ngqeleni
ZAF,5160,-31.5333,29.0167,Libode
ZAF,5161,-31.5333,29.0167,Libode
ZAF,5162,-31.5333,29.0167,Libode
ZAF,5163,-31.5333,29.0167,Libode
ZAF,5170,-31.3167,28.75,Tsolo
ZAF,5171,-31.3167,28.75,Tsolo
ZAF,5174,-31.3167,28.75,Tsolo
ZAF,5180,-31.15,28.8667,Qumbu||Umtata
ZAF,5181,-31.15,28.8667,Qumbu
ZAF,5182,-31.15,28.8667,Qumbu
ZAF,5183,-31.15,28.8667,Qumbu
ZAF,5184,-31.15,28.8667,Qumbu
ZAF,5185,-31.15,28.8667,Qumbu
ZAF,5186,-31.15,28.8667,Qumbu
ZAF,5187,-31.15,28.8667,Qumbu
ZAF,5188,-31.15,28.8667,Qumbu
ZAF,5189,-31.15,28.8667,Qumbu
ZAF,5190,-31.15,28.8667,Qumbu
ZAF,5201,-33.0291,27.9124,East London||Oos-Londen
ZAF,5204,-33.0333,27.9167,East London
ZAF,5205,-33.0333,27.9167,Oos-Londen||East London
ZAF,5206,-33.0333,27.9167,East London
ZAF,5207,-33.0333,27.9167,Oos-Londen||East London
ZAF,5208,-33.0333,27.9167,East London
ZAF,5209,-33.0333,27.9167,Pefferville||East London||Oos-Londen
ZAF,5210,-33.0333,27.9167,East London
ZAF,5211,-33.0333,27.9167,East London
ZAF,5212,-33.0333,27.9167,East London
ZAF,5213,-33.0333,27.9167,East London
ZAF,5214,-33.0333,27.9167,East London
ZAF,5216,-33.0333,27.9167,East London
ZAF,5217,-33.0333,27.9167,East London
ZAF,5218,-33.0333,27.9167,East London
ZAF,5219,-33.0333,27.9167,East London
ZAF,5220,-33.0333,27.9167,East London
ZAF,5221,-32.95,27.7667,Mdantsane
ZAF,5241,-33.0333,27.9167,Nahoon||Oos-Londen||East London
ZAF,5247,-33.0,27.9,Cambridge||East London||Oos-Londen
ZAF,5252,-33.0333,27.9167,East London
ZAF,5253,-33.0333,27.9167,East London
ZAF,5257,-32.9333,28.0167,Gonubie
ZAF,5258,-32.9333,28.0167,Gonubie
ZAF,5259,-33.0333,27.9167,East London
ZAF,5260,-33.0333,27.9167,East London
ZAF,5264,-33.0333,27.9167,East London
ZAF,5265,-33.0333,27.9167,East London
ZAF,5272,-33.0333,27.9167,East London
ZAF,5275,-33.0333,27.9167,Oos-Londen||East London
ZAF,5284,-33.0333,27.9167,East London
ZAF,5288,-33.0333,27.9167,East London
ZAF,5292,-33.0333,27.9167,Oos-Londen||East London
ZAF,5310,-32.3,27.1333,Cathcart
ZAF,5319,-31.9,26.8833,Queenstown
ZAF,5320,-31.9,26.8833,Queenstown
ZAF,5321,-31.9,26.8833,Queenstown
ZAF,5322,-31.9,26.8833,Queenstown
ZAF,5328,-31.9,26.8833,Queenstown
ZAF,5329,-32.0167,27.5833,Cofimvaba
ZAF,5330,-31.9,26.8833,Queenstown
ZAF,5331,-32.0167,27.5833,Cofimvaba
ZAF,5341,-31.7,27.2333,Lady Frere
ZAF,5360,-32.1667,26.8167,Whittlesea
ZAF,5362,-32.1667,26.8167,Whittlesea
ZAF,5364,-32.1667,26.8167,Whittlesea
ZAF,5365,-32.1833,25.6167,Cradock
ZAF,5370,-32.0167,26.2667,Tarkastad
ZAF,5375,-32.0167,27.5833,Cofimvaba
ZAF,5376,-32.0167,27.5833,Cofimvaba
ZAF,5377,-32.0167,27.5833,Cofimvaba
ZAF,5380,-32.0167,27.5833,Cofimvaba
ZAF,5381,-32.0167,27.5833,Cofimvaba
ZAF,5382,-32.0167,27.5833,Cofimvaba
ZAF,5400,-32.0333,27.8,Tsomo
ZAF,5401,-32.0333,27.8,Tsomo
ZAF,5402,-32.0333,27.8,Tsomo
ZAF,5404,-32.0333,27.8,Tsomo
ZAF,5405,-32.0333,27.8,Tsomo
ZAF,5410,-31.7,27.2333,Lady Frere
ZAF,5411,-31.7,27.2333,Lady Frere
ZAF,5412,-31.7,27.2333,Lady Frere
ZAF,5414,-31.7,27.2333,Lady Frere
ZAF,5415,-31.7,27.2333,Lady Frere
ZAF,5416,-31.7,27.2333,Lady Frere
ZAF,5417,-31.7,27.2333,Lady Frere
ZAF,5418,-31.7,27.2333,Lady Frere
ZAF,5419,-31.7,27.2333,Lady Frere
ZAF,5420,-31.3667,27.05,Dordrecht
ZAF,5425,-31.5667,26.55,Sterkstroom
ZAF,5435,-31.3667,27.05,Dordrecht
ZAF,5436,-31.3667,27.05,Dordrecht
ZAF,5445,-31.4667,27.3333,Indwe
ZAF,5455,-31.5167,27.7,Cala
ZAF,5460,-30.9167,26.6833,Elliot
ZAF,5480,-31.0833,28.3667,Maclear
ZAF,5481,-31.0833,28.3667,Maclear
ZAF,5483,-31.0833,28.3667,Maclear
ZAF,5500,-31.4,26.3667,Molteno
ZAF,5600,-32.8833,27.4,King William'S Town
ZAF,5601,-32.8833,27.4,King William'S Town||King Williams Town
ZAF,5605,-32.8667,27.4333,Bisho
ZAF,5606,-32.8667,27.4333,Bisho
ZAF,5607,-32.8833,27.4,King William'S Town
ZAF,5608,-32.8667,27.4333,Bisho
ZAF,5609,-32.8833,27.4,King William'S Town
ZAF,5610,-32.8833,27.4,King William'S Town
ZAF,5611,-32.8833,27.4,King Williams Town
ZAF,5612,-33.2,27.1167,Peddie
ZAF,5614,-32.8833,27.4,King Williams Town
ZAF,5620,-32.8667,27.4333,Bisho
ZAF,5630,-32.1667,26.8167,Whittlesea
ZAF,5643,-33.2,27.1167,Peddie
ZAF,5644,-33.2,27.1167,Peddie
ZAF,5645,-33.2,27.1167,Peddie
ZAF,5671,-32.8667,27.4333,Bisho
ZAF,5680,-32.6833,27.15,Keiskammahoek
ZAF,5686,-32.8167,26.9833,Middledrift
ZAF,5688,-33.0333,27.9167,East London
ZAF,5700,-32.7833,26.8333,Alice
ZAF,5701,-32.7833,26.8333,Alice
ZAF,5702,-32.7833,26.8333,Alice
ZAF,5703,-32.7833,26.8333,Alice
ZAF,5705,-32.7833,26.8333,Alice
ZAF,5706,-32.7833,26.8333,Alice
ZAF,5708,-32.7833,26.8333,Alice
ZAF,5720,-32.7833,26.6333,Fort Beaufort
ZAF,5730,-32.7833,26.6333,Fort Beaufort
ZAF,5740,-32.765,26.685,Eastern Cape
ZAF,5760,-32.7,26.3,Adelaide
ZAF,5780,-32.6833,26.0833,Bedford
ZAF,5805,-33.3,26.5333,Grahamstown||Grahamstad
ZAF,5820,-32.75,25.8167,Cookhouse
ZAF,5821,-32.75,25.8167,Cookhouse
ZAF,5824,-32.75,25.8167,Cookhouse
ZAF,5830,-32.75,25.8167,Cookhouse
ZAF,5850,-32.7167,25.5833,Somerset East
ZAF,5860,-32.5833,25.1333,Pearston
ZAF,5870,-32.1833,25.6167,Cradock
ZAF,5880,-32.1833,25.6167,Cradock
ZAF,5881,-32.1833,25.6167,Cradock
ZAF,5882,-32.1833,25.6167,Cradock
ZAF,5883,-32.1833,25.6167,Cradock
ZAF,5884,-32.1833,25.6167,Cradock
ZAF,5900,-27.8111,27.8556,Middelburg||Eastern Cape
ZAF,5920,-31.3,25.8167,Steynsburg
ZAF,5930,-31.65,25.8,Hofmeyr
ZAF,5950,-31.1874,24.9499,Noupoort
ZAF,6000,-33.9667,25.5833,Port Elizabeth
ZAF,6001,-33.9766,25.6324,Port Elizabeth
ZAF,6003,-33.9667,25.5833,Port Elizabeth
ZAF,6004,-33.8667,25.5667,Zwide
ZAF,6005,-33.9667,25.5833,Port Elizabeth
ZAF,6006,-33.9667,25.5833,Port Elizabeth
ZAF,6008,-33.9667,25.5833,Port Elizabeth
ZAF,6011,-33.9834,25.5667,Port Elizabeth||Emerald Hill
ZAF,6012,-33.9667,25.5833,Port Elizabeth||Estadeal
ZAF,6013,-33.9666,25.5833,Port Elizabeth
ZAF,6014,-33.9667,25.5833,Port Elizabeth
ZAF,6015,-33.9667,25.5833,Port Elizabeth
ZAF,6016,-33.9667,25.5833,Port Elizabeth
ZAF,6017,-33.9667,25.5833,Hunter'S Retreat||Port Elizabeth
ZAF,6018,-33.9667,25.5833,Port Elizabeth
ZAF,6019,-33.9666,25.5833,Port Elizabeth
ZAF,6020,-33.9417,25.5667,Gelvandale||Port Elizabeth
ZAF,6021,-33.7653,25.4022,Uitenhage
ZAF,6025,-33.9534,25.5716,Port Elizabeth||Linton Grange
ZAF,6026,-33.9667,25.5833,Port Elizabeth
ZAF,6027,-33.9667,25.5833,Port Elizabeth
ZAF,6028,-33.8833,25.5,Bethelsdorp
ZAF,6031,-33.9667,25.5833,Port Elizabeth
ZAF,6032,-33.9667,25.5833,Port Elizabeth
ZAF,6033,-33.9667,25.5833,Port Elizabeth
ZAF,6045,-33.9584,25.575,Newton Park||Port Elizabeth
ZAF,6055,-33.9667,25.5833,Port Elizabeth
ZAF,6056,-33.9667,25.5833,Port Elizabeth
ZAF,6057,-33.9667,25.5833,Port Elizabeth
ZAF,6058,-33.9667,25.5833,Port Elizabeth
ZAF,6059,-33.9667,25.5833,Saltville||Port Elizabeth
ZAF,6060,-33.9667,25.5833,Port Elizabeth
ZAF,6061,-33.9667,25.5833,Port Elizabeth
ZAF,6062,-33.9667,25.5833,Port Elizabeth
ZAF,6065,-33.9667,25.5833,Port Elizabeth
ZAF,6070,-33.9917,25.5667,Emerald Hill||Walmer||Port Elizabeth
ZAF,6105,-33.5667,25.6833,Addo
ZAF,6107,-33.5667,25.6833,Addo
ZAF,6109,-33.5667,25.6833,Addo
ZAF,6115,-33.5667,25.6833,Addo
ZAF,6120,-33.4156,25.4436,Kirkwood
ZAF,6121,-33.4156,25.4436,Kirkwood
ZAF,6125,-33.4156,25.4436,Kirkwood
ZAF,6130,-33.45,25.9667,Paterson
ZAF,6131,-33.45,25.9667,Paterson
ZAF,6135,-33.3167,26.0833,Alicedale
ZAF,6139,-33.3,26.5333,Peddie||Grahamstad||Grahamstown
ZAF,6140,-33.3,26.5333,Grahamstown
ZAF,6141,-33.3,26.5333,Grahamstown||Grahamstad
ZAF,6142,-33.3,26.5333,Grahamstown
ZAF,6143,-33.3,26.5333,Grahamstown
ZAF,6145,-33.3,26.5333,Grahamstown
ZAF,6146,-33.3,26.5333,Grahamstown
ZAF,6150,-33.3,26.5333,Grahamstown
ZAF,6166,-33.4833,26.8333,Bathurst
ZAF,6170,-33.6,26.9,Port Alfred
ZAF,6171,-33.6,26.9,Port Alfred
ZAF,6172,-33.6,26.9,Southseas||Port Alfred
ZAF,6173,-33.6,26.9,Port Alfred
ZAF,6175,-33.7834,26.2416,Colchester||Port Elizabeth
ZAF,6180,-33.9667,25.5833,Port Elizabeth
ZAF,6185,-24.9167,31.15,Alexandria
ZAF,6186,-24.9167,31.15,Alexandria
ZAF,6187,-24.9167,31.15,Alexandria
ZAF,6188,-33.9667,25.5833,Port Elizabeth
ZAF,6189,-24.9167,31.15,Alexandria
ZAF,6191,-33.7,26.6833,Kenton On Sea
ZAF,6200,-33.9,25.6,New Brighton||Port Elizabeth
ZAF,6201,-33.9333,25.5917,Zwide||Port Elizabeth||New Brighton
ZAF,6202,-33.9,25.6,New Brighton
ZAF,6204,-33.9667,25.5833,Port Elizabeth
ZAF,6205,-33.9167,25.5833,Kwazakhele||Port Elizabeth
ZAF,6209,-33.9667,25.5833,Port Elizabeth
ZAF,6210,-33.9167,25.5916,Port Elizabeth||Swartkops
ZAF,6211,-33.9667,25.5833,Motherwell||Port Elizabeth
ZAF,6212,-33.9667,25.5833,Port Elizabeth
ZAF,6213,-33.9667,25.5833,Port Elizabeth
ZAF,6215,-33.9667,25.5833,Port Elizabeth
ZAF,6220,-33.8,25.4667,Port Elizabeth||Despatch
ZAF,6229,-33.7653,25.4022,Uitenhage
ZAF,6230,-33.7653,25.4022,Uitenhage
ZAF,6231,-33.7653,25.4022,Uitenhage
ZAF,6232,-33.7653,25.4022,Uitenhage
ZAF,6234,-33.7653,25.4022,Uitenhage
ZAF,6237,-33.9667,25.5833,Port Elizabeth
ZAF,6238,-33.7653,25.4022,Uitenhage
ZAF,6241,-33.8753,25.4904,Port Elizabeth||Gambleville
ZAF,6242,-33.7839,25.3974,Kwanobuhle||Uitenhage
ZAF,6250,-33.3328,24.3447,Steytlerville
ZAF,6255,-33.0211,24.3369,Klipplaat
ZAF,6265,-32.9333,24.6667,Jansenville
ZAF,6270,-32.4833,24.0667,Aberdeen
ZAF,6280,-32.25,24.55,Graaff-Reinet
ZAF,6281,-32.25,24.55,Graaff-Reinet
ZAF,6282,-32.3,24.55,Adendorp
ZAF,6286,-32.25,24.55,Graaff-Reinet
ZAF,6300,-34.0333,24.7667,Humansdorp
ZAF,6302,-34.0333,24.7667,Humansdorp
ZAF,6303,-34.0333,24.7667,Humansdorp
ZAF,6304,-34.0333,24.7667,Humansdorp
ZAF,6306,-34.0333,24.7667,Humansdorp
ZAF,6307,-34.0333,24.7667,Humansdorp
ZAF,6310,-34.0333,24.7667,Humansdorp
ZAF,6311,-34.0333,24.7667,Humansdorp
ZAF,6313,-34.0333,24.7667,Humansdorp
ZAF,6330,-33.9028,24.8675,Jeffreys Bay
ZAF,6331,-33.9028,24.8675,Jeffreys Bay
ZAF,6332,-34.05,24.9167,Jeffreysbaai||Jeffreys Bay
ZAF,6335,-33.7556,24.8183,Patensie
ZAF,6350,-33.8333,24.8833,Hankey
ZAF,6351,-32.3167,26.6333,Hackney
ZAF,6360,-33.9667,25.5833,Port Elizabeth
ZAF,6365,-33.9667,25.5833,Port Elizabeth
ZAF,6375,-34.0333,24.7667,Humansdorp
ZAF,6385,-33.9667,25.5833,Port Elizabeth
ZAF,6390,-33.9667,25.5833,Port Elizabeth
ZAF,6400,-30.7833,25.85,Kareedouw
ZAF,6410,-30.85,26.6833,Joubertina
ZAF,6446,-33.2833,23.4833,Willowmore
ZAF,6447,-33.2833,23.4833,Willowmore
ZAF,6451,-33.2833,23.4833,Willowmore
ZAF,6452,-33.2833,23.4833,Willowmore
ZAF,6454,-33.2833,23.4833,Willowmore
ZAF,6460,-33.65,23.1333,Uniondale
ZAF,6462,-33.65,23.1333,Uniondale
ZAF,6463,-33.65,23.1333,Uniondale
ZAF,6466,-33.65,23.1333,Uniondale
ZAF,6467,-33.65,23.1333,Uniondale
ZAF,6480,-33.65,23.1333,Uniondale
ZAF,6490,-33.65,23.1333,Uniondale
ZAF,6501,-34.1833,22.1333,Mossel Bay
ZAF,6503,-34.1833,22.1333,Mosselbaai||Mossel Bay
ZAF,6504,-34.1833,22.1333,Mossel Bay
ZAF,6505,-34.1833,22.1333,Mossel Bay
ZAF,6506,-34.1833,22.1333,Kwanonqaba||Mossel Bay||Mosselbay||Mosselbaai
ZAF,6507,-34.1833,22.1333,Mossel Bay
ZAF,6510,-34.1833,22.1333,Mossel Bay||Mosselbaai
ZAF,6511,-34.1833,22.1333,Mossel Bay
ZAF,6520,-34.1167,22.1167,Hartenbos
ZAF,6525,-34.0333,22.2167,Great Brak River||Groot-Brakrivier
ZAF,6526,-34.0333,22.2167,Great Brak River
ZAF,6529,-33.9334,23.5167,Pacaltsdorp||George East||George
ZAF,6531,-33.9666,22.4499,George
ZAF,6534,-33.9667,22.45,George
ZAF,6535,-33.9667,22.45,George
ZAF,6536,-33.9666,22.4499,George
ZAF,6537,-33.9667,22.45,George
ZAF,6538,-33.9667,22.45,George
ZAF,6539,-33.9667,22.45,George
ZAF,6541,-33.9667,22.45,George
ZAF,6544,-33.9667,22.45,George
ZAF,6560,-33.9667,22.45,George
ZAF,6570,-34.034,23.0343,Knysna
ZAF,6571,-34.0333,23.0333,Knysna
ZAF,6573,-34.0167,22.8,Sedgefield
ZAF,6576,-34.0333,23.0333,Knysna
ZAF,6580,-34.0333,23.0333,Knysna
ZAF,6583,-34.0333,23.0333,Knysna
ZAF,6600,-34.0455,23.3727,Plettenbergbaai||Plettenberg Bay
ZAF,6602,-34.05,23.3666,Plettenberg Bay
ZAF,6603,-34.05,23.3667,Plettenberg Bay
ZAF,6604,-34.05,23.3666,Plettenberg Bay
ZAF,6605,-34.05,23.3667,Plettenberg Bay
ZAF,6606,-34.05,23.3667,Plettenberg Bay
ZAF,6615,-33.9667,22.45,George
ZAF,6623,-33.5833,22.2,Oudtshoorn
ZAF,6624,-33.5833,22.2,Oudtshoorn
ZAF,6625,-33.5833,22.2,Oudshoorn||Oudtshoorn
ZAF,6628,-33.5833,22.2,Oudtshoorn
ZAF,6631,-33.5833,22.2,Oudtshoorn
ZAF,6632,-33.5833,22.2,Oudtshoorn
ZAF,6633,-33.5833,22.2,Oudtshoorn
ZAF,6634,-33.5833,22.2,Oudtshoorn
ZAF,6650,-33.5833,22.2,Oudtshoorn
ZAF,6651,-33.5833,22.2,Oudtshoorn
ZAF,6655,-33.5166,21.5778,Western Cape||Ladismith
ZAF,6656,-33.4833,21.2667,Ladismith
ZAF,6660,-33.5333,21.6833,Calitzdorp
ZAF,6665,-33.5333,21.6833,Western Cape||Heidelberg Wc
ZAF,6666,-33.5333,21.6833,Heidelberg Wc
ZAF,6667,-33.5333,21.6833,Heidelberg Wc
ZAF,6670,-34.1,21.2667,Riversdale
ZAF,6671,-34.1,21.2667,Riversdale
ZAF,6674,-34.3667,21.4084,Stilbaai||Still Bay
ZAF,6675,-34.3667,21.4,Still Bay
ZAF,6676,-34.3667,21.4,Still Bay
ZAF,6690,-33.4833,21.2667,Ladismith
ZAF,6695,-34.2,21.5833,Albertinia||Albertina
ZAF,6696,-34.2,21.5833,Albertina
ZAF,6705,-33.8,19.8833,Robertson
ZAF,6707,-33.8,19.8833,Robertson
ZAF,6715,-33.8167,20.05,Ashton
ZAF,6720,-33.7833,20.1167,Montagu
ZAF,6730,-33.9333,22.0333,Bonnievale
ZAF,6740,-34.0333,20.4333,Swellendam
ZAF,6741,-33.9333,20.1,Bonnievale
ZAF,6742,-34.0333,20.4333,Swellendam
ZAF,6743,-34.0333,20.4333,Swellendam
ZAF,6810,-33.0167,18.9833,Porterville
ZAF,6811,-33.0167,18.9833,Porterville
ZAF,6812,-33.0167,18.9833,Porterville
ZAF,6820,-33.2833,19.15,Western Cape||Tulbagh
ZAF,6821,-33.2833,19.15,Tulbagh
ZAF,6830,-33.4167,19.2,Wolseley
ZAF,6835,-33.3333,19.3167,Prince Alfred Hamlet||Ceres
ZAF,6836,-33.3667,19.3167,Ceres
ZAF,6837,-33.3667,19.3167,Ceres
ZAF,6838,-33.3667,19.3167,Ceres
ZAF,6840,-33.3667,19.3167,Prince Alfred Hamlet||Ceres
ZAF,6845,-33.65,19.4333,Worcester
ZAF,6850,-33.65,19.4333,Worcester
ZAF,6851,-33.65,19.4333,Worcester
ZAF,6852,-33.65,19.4333,Worcester
ZAF,6853,-33.65,19.4333,Worcester
ZAF,6854,-33.65,19.4333,Worcester
ZAF,6855,-33.65,19.4333,Worcester
ZAF,6856,-33.65,19.4333,Worcester
ZAF,6857,-33.65,19.4333,Worcester
ZAF,6858,-33.65,19.4333,Worcester
ZAF,6859,-24.3,30.5167,Worcester
ZAF,6861,-33.65,19.4333,Worcester
ZAF,6862,-33.65,19.4333,Worcester
ZAF,6863,-24.3,30.5167,Worcester
ZAF,6870,-33.65,19.4333,Worcester
ZAF,6880,-33.3333,20.0333,Touws River||Touwsrivier
ZAF,6901,-33.2,20.85,Laingsburg
ZAF,6920,-32.4,20.6667,Sutherland
ZAF,6932,-33.2167,22.0333,Prince Albert
ZAF,6940,-32.35,22.5833,Beaufort West
ZAF,6950,-32.35,22.5833,Beaufort West
ZAF,6960,-31.9167,21.5167,Fraserburg
ZAF,6970,-32.35,22.5833,Beaufort West||Beaufort Wes||Beaufort-Wes
ZAF,6973,-32.35,22.5833,Beaufort West
ZAF,7000,-30.65,24.0167,De Aar
ZAF,7005,-31.0667,24.45,Hanover
ZAF,7070,-31.4,23.1167,Victoria West
ZAF,7071,-31.4,23.1167,Victoria West
ZAF,7090,-30.5778,26.9139,Northern Cape||Richmond
ZAF,7100,-33.9778,18.6167,Eerste River||Kaapstad||Cape Town||Delft||Eersterivier||Eerste Rivier
ZAF,7101,-34.0,18.7333,Eerste River
ZAF,7102,-34.0,18.7333,Eerste River
ZAF,7103,-33.9167,18.4167,Kaapstad||Cape Town
ZAF,7105,-34.0,18.7333,Eerste River
ZAF,7110,-34.0833,18.85,Somerset West
ZAF,7130,-34.075,18.8083,Somerset West||Macassar||Firgrove||Somerset-Wes
ZAF,7131,-34.0833,18.85,Somerset West
ZAF,7133,-34.0833,18.85,Somerset West
ZAF,7134,-34.0833,18.85,Somerset West
ZAF,7135,-34.0833,18.85,Somerset West
ZAF,7140,-34.1417,18.85,Strand||Gordon'S Bay
ZAF,7141,-34.35,19.0333,Kleinmond
ZAF,7144,-34.1167,18.8333,Strand
ZAF,7151,-34.1167,18.8333,Strand
ZAF,7160,-34.15,19.0167,Grabouw
ZAF,7171,-34.15,19.0167,Grabouw
ZAF,7180,-34.15,19.0167,Grabouw
ZAF,7185,-34.2167,19.4167,Caledon
ZAF,7195,-34.35,19.0333,Kleinmond
ZAF,7196,-34.35,19.0333,Kleinmond
ZAF,7200,-34.4166,19.2333,Hermanus
ZAF,7201,-34.4167,19.2333,Onrus River||Hermanus
ZAF,7202,-34.4167,19.2333,Hermanus
ZAF,7210,-34.4167,19.2333,Hermanus
ZAF,7220,-34.5833,19.35,Gans Bay
ZAF,7221,-34.5833,19.35,Gans Bay
ZAF,7230,-34.2167,19.4167,Caledon
ZAF,7232,-34.2167,19.4167,Caledon
ZAF,7250,-34.15,19.9,Riviersonderend||Caledon
ZAF,7252,-34.15,19.9,Riviersonderend
ZAF,7271,-34.5833,19.35,Gans Bay
ZAF,7281,-34.5333,20.0333,Bredasdorp
ZAF,7282,-34.5333,20.0333,Saldanha||Bredasdorp
ZAF,7283,-34.5333,20.0333,Bredasdorp
ZAF,7285,-34.5333,20.0333,Bredasdorp
ZAF,7287,-34.5333,20.0333,Bredasdorp
ZAF,7300,-33.45,18.7333,Malmesbury
ZAF,7302,-33.45,18.7333,Malmesbury
ZAF,7303,-33.45,18.7333,Malmesbury
ZAF,7304,-33.5667,18.4833,Atlantis
ZAF,7305,-33.45,18.7333,Malmesbury
ZAF,7306,-33.45,18.7333,Malmesbury
ZAF,7307,-33.45,18.7333,Malmesbury
ZAF,7308,-33.45,18.7333,Malmesbury
ZAF,7310,-33.15,18.6667,Moorreesburg
ZAF,7312,-33.15,18.6667,Moorreesburg
ZAF,7320,-32.9,18.7667,Piketberg
ZAF,7321,-32.9,18.7667,Piketberg
ZAF,7322,-32.9,18.7667,Piketberg
ZAF,7323,-32.9,18.7667,Piketberg
ZAF,7325,-32.9,18.7667,Piketberg
ZAF,7335,-32.9,18.7667,Piketberg
ZAF,7340,-32.6,19.0167,Citrusdal
ZAF,7345,-26.9833,29.3167,Darling
ZAF,7347,-33.0833,18.75,Dassenberg
ZAF,7348,-33.5667,18.4833,Atlantis
ZAF,7349,-33.5667,18.4833,Atlantis||Dassenberg||Kaapstad
ZAF,7350,-33.5667,18.4833,Atlantis
ZAF,7351,-33.3833,18.3833,Darling
ZAF,7352,-33.3367,18.3467,Dassenberg
ZAF,7353,-33.5667,18.4833,Atlantis
ZAF,7354,-33.5667,18.4833,Atlantis
ZAF,7355,-33.0667,18.35,Hopefield
ZAF,7357,-33.1,18.0333,Langebaan
ZAF,7358,-33.5667,18.4833,Atlantis
ZAF,7365,-32.7833,18.1667,Velddrif
ZAF,7375,-32.9,17.9833,Vredenburg
ZAF,7380,-32.9,17.9833,Vredenburg
ZAF,7381,-32.9,17.9833,Vredenburg
ZAF,7382,-32.9583,17.9666,Saldanha||Vredenburg
ZAF,7390,-32.9,17.9833,Vredenburg
ZAF,7395,-33.0167,17.95,Saldanha
ZAF,7400,-33.9167,18.4167,Cape Town||Kaapstad
ZAF,7404,-33.9167,18.4167,Cape Town
ZAF,7405,-33.9083,18.45,Rugby||Paarden Island||Maitland||Kaapstad||Ysterplaat||Cape Town
ZAF,7406,-33.9167,18.4167,Cape Town
ZAF,7407,-33.9167,18.4167,Cape Town
ZAF,7420,-33.9167,18.4167,Kaapstad||Cape Town
ZAF,7425,-33.9167,18.4167,Cape Town
ZAF,7430,-33.9167,18.4167,Cape Town
ZAF,7435,-33.8916,18.45,Milnerton||Cape Town
ZAF,7436,-33.8667,18.4833,Milnerton
ZAF,7437,-33.9167,18.4167,Cape Town
ZAF,7439,-33.9167,18.4167,Cape Town
ZAF,7440,-33.7306,18.4361,Melkbosstrand
ZAF,7441,-33.8213,18.4454,Milnerton||Table View||Melkbosstrand||Bloubergstrand||Cape Town||Bloubergrant
ZAF,7442,-33.8667,18.4833,Milnerton
ZAF,7443,-33.9166,18.4166,Milnerton
ZAF,7444,-33.8326,18.4632,Bloubergrant
ZAF,7446,-33.8667,18.4833,Milnerton
ZAF,7447,-33.8667,18.4833,Milnerton
ZAF,7449,-33.8667,18.4833,Bloubergrant||Milnerton
ZAF,7450,-33.9167,18.5,Pinelands
ZAF,7451,-33.9333,18.5,Maitland
ZAF,7455,-33.9333,18.5167,Langa||Cape Town
ZAF,7456,-33.9167,18.4167,Cape Town
ZAF,7460,-33.8917,18.5583,Goodwood||Monte Vista||Cape Town
ZAF,7463,-30.1834,21.3,Goodwood||Cape Town
ZAF,7465,-33.9333,18.5833,Matroosfontein
ZAF,7475,-26.45,24.1833,Goodwood
ZAF,7480,-33.9333,18.5833,Matroosfontein
ZAF,7485,-26.45,24.1833,Goodwood
ZAF,7489,-33.9167,18.4167,Cape Town
ZAF,7490,-33.9222,18.5222,Elsiesrivier||Lavistown||Cape Town||Elsies River||Matroosfontein
ZAF,7491,-33.9333,18.5833,Matroosfontein
ZAF,7493,-33.9222,18.5333,Ravensmead||Matroosfontein||Kaapstad||Cape Town||Belhar
ZAF,7499,-33.9167,18.4167,Cape Town
ZAF,7500,-33.9084,18.5084,Parow||Cape Town
ZAF,7501,-33.9,18.6,Parow
ZAF,7503,-33.9,18.6,Parow
ZAF,7504,-33.95,18.6333,Belhar
ZAF,7505,-33.9,18.6,Parow
ZAF,7506,-33.9,18.6,Parow
ZAF,7507,-33.9167,18.4167,Cape Town
ZAF,7525,-33.9167,18.4167,Kaapstad||Cape Town
ZAF,7530,-33.9,18.6333,Cape Town||Bellville
ZAF,7532,-33.9,18.6333,Bellville
ZAF,7533,-33.9,18.6333,Bellville
ZAF,7535,-33.9167,18.4167,Cape Town
ZAF,7536,-33.9,18.6333,Bellville
ZAF,7537,-33.9,18.6333,Bellville
ZAF,7538,-33.9,18.6333,Bellville
ZAF,7539,-33.9,18.6333,Bellville
ZAF,7540,-33.9,18.6333,Bellville
ZAF,7550,-33.8333,18.65,Durbanville||Cape Town
ZAF,7551,-33.9167,18.4167,Cape Town
ZAF,7560,-33.8667,18.6833,Brackenfell||Cape Town
ZAF,7561,-33.9167,18.4167,Cape Town
ZAF,7570,-33.8481,18.7172,Kraaifontein
ZAF,7571,-30.0667,25.6667,Kraaifontein
ZAF,7572,-28.4278,26.8278,Kraaifontein North
ZAF,7579,-25.15,29.15,Kuilsrivier
ZAF,7580,-31.3333,21.7667,Blackheath||Kuilsriver||Kuils River||Kuilsrivier
ZAF,7581,-33.9333,18.6667,Kuils River
ZAF,7582,-33.9333,18.6667,Kuils River
ZAF,7583,-25.15,29.15,Kuilsrivier
ZAF,7600,-33.9302,18.8449,Stellenbosch
ZAF,7601,-33.9333,18.85,Stellenbosch
ZAF,7602,-33.9333,18.85,Stellenbosch
ZAF,7603,-33.9333,18.85,Stellenbosch
ZAF,7604,-33.9333,18.85,Stellenbosch
ZAF,7605,-33.9333,18.85,Stellenbosch
ZAF,7607,-33.9333,18.85,Stellenbosch
ZAF,7608,-33.9333,18.85,Stellenbosch
ZAF,7611,-33.9333,18.85,Stellenbosch
ZAF,7612,-33.9333,18.85,Stellenbosch
ZAF,7613,-33.9333,18.85,Stellenbosch
ZAF,7614,-33.9333,18.85,Stellenbosch
ZAF,7615,-33.9333,18.85,Stellenbosch
ZAF,7622,-33.7333,18.9667,Paarl
ZAF,7623,-33.7333,18.9667,Paarl
ZAF,7624,-33.7333,18.9667,Paarl
ZAF,7625,-33.7333,18.9667,Paarl
ZAF,7626,-33.7333,18.9667,Paarl
ZAF,7627,-31.0833,26.6,Huguenot
ZAF,7628,-33.2033,20.4933,Nederburg
ZAF,7630,-33.7333,18.9667,Paarl
ZAF,7645,-33.7297,19.2536,Nederburg
ZAF,7646,-32.8488,21.6068,Paarl||Huguenot||Nederburg
ZAF,7655,-33.6833,18.9833,Wellington||Paarl||Mbekweni
ZAF,7656,-33.6333,19.0,Wellington
ZAF,7670,-33.7333,18.9667,Paarl
ZAF,7680,-33.7333,18.9667,Paarl
ZAF,7681,-33.7333,18.9667,Paarl
ZAF,7690,-33.9166,19.1166,Franschhoek
ZAF,7691,-33.9167,19.1167,Franschhoek
ZAF,7700,-33.6116,18.8569,Lansdowne||Cape Town||Newlands||Mowbray||Kaapstad||Rondebosch
ZAF,7702,-33.3533,19.19,Rondebosch
ZAF,7705,-33.9167,18.4167,Cape Town
ZAF,7707,-33.3533,19.19,Rondebosch
ZAF,7708,-33.975,18.475,Nuweland||Cape Town||Claremont
ZAF,7725,-33.9167,18.4167,Cape Town||Kaapstad
ZAF,7735,-33.9167,18.4167,Cape Town
ZAF,7740,-33.9833,18.4667,Claremont
ZAF,7745,-33.9167,18.4167,Cape Town
ZAF,7750,-33.9833,18.575,Guguletu||Ottery||Khayalitsha||Nyanga||Cape Town||Gugulethu
ZAF,7751,-33.9167,18.4167,Cape Town
ZAF,7752,-33.9833,18.5667,Guguletu
ZAF,7755,-33.9167,18.4167,Cape Town
ZAF,7756,-33.9833,18.5667,Guguletu
ZAF,7760,-33.9167,18.4167,Cape Town
ZAF,7762,-33.9625,18.4917,Gatesville
ZAF,7763,-33.9625,18.4917,Gatesville
ZAF,7764,-33.9778,18.5167,Athlone||Manenberg||Crawford||Lansdowne||Cape Town||Gatesville||Elspark
ZAF,7766,-33.9167,18.4167,Cape Town
ZAF,7767,-33.9625,18.4917,Gatesville
ZAF,7769,-33.9625,18.4917,Gatesville
ZAF,7770,-33.9833,18.5,Lansdowne
ZAF,7779,-33.9167,18.4167,Cape Town
ZAF,7780,-33.9729,18.4663,Lansdowne||Ottery||Cape Town||Gatesville||Kenwyn||Landsdowne
ZAF,7782,-33.9167,18.4167,Cape Town
ZAF,7783,-33.9167,18.4167,Cape Town
ZAF,7784,-33.9167,18.4167,Khayelitsha||Khayalitsha||Mitchells Plain||Cape Town
ZAF,7785,-33.9611,18.4833,Mithchells Plain||Mitchells Plain||Mitchellsplain||Kaapstad||Mitchells Plein||Cape Town
ZAF,7786,-34.05,18.6167,Mitchells Plain
ZAF,7787,-34.05,18.6167,Mitchells Plain
ZAF,7788,-34.05,18.6167,Mitchells Plain
ZAF,7789,-33.9167,18.4167,Cape Town||Kaapstad
ZAF,7790,-33.9833,18.5,Lansdowne
ZAF,7791,-34.05,18.6667,Khayelitsha
ZAF,7793,-34.05,18.6667,Khayelitsha
ZAF,7794,-34.05,18.6667,Khayelitsha
ZAF,7798,-34.0666,18.5834,Strandfontein||Mitchells Plain
ZAF,7800,-34.0197,18.471,Diep River||Ottery||Plumstead||Southfield||Wynberg||Cape Town
ZAF,7801,-33.9167,18.4167,Cape Town
ZAF,7802,-34.05,18.6167,Mitchells Plain
ZAF,7805,-34.05,18.4833,Grassy Park
ZAF,7806,-33.9533,18.4183,Houtbaai||Kaapstad||Constantia||Hout Bay||Cape Town
ZAF,7808,-33.9167,18.4167,Cape Town
ZAF,7824,-33.9167,18.4167,Cape Town
ZAF,7848,-33.9167,18.4167,Cape Town
ZAF,7864,-33.9167,18.4167,Cape Town
ZAF,7872,-33.9167,18.4167,Cape Town||Kaapstad
ZAF,7880,-33.9167,18.4167,Cape Town
ZAF,7888,-33.9167,18.4167,Cape Town
ZAF,7915,-33.9167,18.4167,Cape Town
ZAF,7925,-33.9167,18.4222,Woodstock||Kaapstad||Cape Town
ZAF,7935,-33.9167,18.4167,Cape Town
ZAF,7937,-33.9167,18.4167,Cape Town
ZAF,7941,-33.9945,18.4611,Cape Town||Ottery||Grassy Park
ZAF,7945,-33.8142,19.4132,Bergvliet||Lakeside||Lavender Hill||Diep River||Muizenberg||Cape Town||Heathfield||Steenberg||Retreat||Tokai
ZAF,7946,-34.1167,18.4667,Muizenberg
ZAF,7947,-31.9167,26.9667,Retreat
ZAF,7950,-33.9167,18.4167,Cape Town
ZAF,7965,-33.9167,18.4167,Cape Town
ZAF,7966,-33.9167,18.4167,Cape Town
ZAF,7974,-33.9167,18.4167,Kaapstad||Cape Town
ZAF,7975,-34.0056,18.4222,Vishoek||Cape Town||Fishhoek||Kaapstad||Simon'S Town||Simonstad||Fish Hoek
ZAF,7976,-33.9833,18.4208,Fish Hoek
ZAF,7977,-33.9833,18.4208,Fish Hoek
ZAF,7978,-33.9833,18.4208,Fish Hoek
ZAF,7979,-33.9833,18.4208,Fish Hoek
ZAF,7985,-33.823,19.2508,Fish Hoek
ZAF,7990,-34.1333,18.4333,Vishoek||Fish Hoek
ZAF,7995,-34.1833,18.4333,Simon'S Town||Fish Hoek||Vishoek
ZAF,8000,-33.9164,18.4153,Kaapstad||Cape Town
ZAF,8001,-33.9212,18.4182,Cape Town||Kaapstad
ZAF,8002,-33.9125,18.4193,Cape Town
ZAF,8003,-33.9167,18.4167,Cape Town
ZAF,8005,-33.9185,18.4131,Kaapstad||Cape Town
ZAF,8007,-33.9167,18.4167,Cape Town
ZAF,8008,-33.9167,18.4167,Cape Town||Kaapstad
ZAF,8010,-33.9167,18.4167,Cape Town
ZAF,8012,-33.9167,18.4167,Cape Town||Kaapstad
ZAF,8017,-33.9167,18.4167,Cape Town
ZAF,8018,-33.9167,18.4167,Cape Town
ZAF,8020,-33.9167,18.4167,Cape Town
ZAF,8040,-33.9222,18.4083,Kaapstad||Cape Town
ZAF,8050,-33.9167,18.4167,Cape Town
ZAF,8051,-33.9167,18.4167,Kaapstad||Cape Town
ZAF,8060,-33.918,18.4066,Kaapstad||Cape Town
ZAF,8100,-32.9,18.7667,Piketberg
ZAF,8105,-32.9,18.7667,Piketberg
ZAF,8110,-32.9,18.7667,Piketberg
ZAF,8115,-32.9,18.7667,Piketberg
ZAF,8120,-32.1833,18.9,Clanwilliam
ZAF,8121,-32.15,18.6,Graafwater
ZAF,8122,-32.15,18.6,Graafwater
ZAF,8130,-32.1,18.3,Lambertsbaai
ZAF,8138,-32.1833,18.9,Clanwilliam
ZAF,8145,-31.7833,18.6167,Klawer
ZAF,8146,-31.6667,18.5,Vredendal
ZAF,8147,-31.7833,18.6167,Klawer
ZAF,8149,-31.55,18.35,Lutzville
ZAF,8151,-31.6667,18.5,Vredendal
ZAF,8160,-33.9167,18.4167,Cape Town||Kaapstad
ZAF,8170,-31.6167,18.7333,Vanrhynsdorp
ZAF,8185,-30.9667,19.45,Loeriesfontein
ZAF,8190,-31.4667,19.7833,Calvinia
ZAF,8191,-31.4667,19.7833,Calvinia
ZAF,8193,-31.4667,19.7833,Calvinia
ZAF,8201,-31.0333,18.2667,Bitterfontein
ZAF,8202,-31.0333,18.2667,Bitterfontein
ZAF,8204,-31.0333,18.2667,Bitterfontein
ZAF,8205,-31.0333,18.2667,Bitterfontein
ZAF,8207,-31.6667,18.5,Vredendal
ZAF,8221,-30.55,17.9833,Garies
ZAF,8223,-30.55,17.9833,Garies
ZAF,8240,-29.6667,17.8833,Springbok
ZAF,8241,-29.6667,17.8833,Springbok
ZAF,8242,-29.6667,17.8833,Springbok
ZAF,8245,-28.7167,17.5833,Kotzeshoop
ZAF,8246,-28.7667,17.65,Vioolsdrif
ZAF,8247,-29.6667,17.8833,Springbok
ZAF,8249,-29.6667,17.0833,Kleinsee
ZAF,8251,-29.6667,17.8833,Springbok
ZAF,8252,-30.2,17.9333,Kamieskroon
ZAF,8253,-30.2,17.9333,Kamieskroon
ZAF,8257,-30.2,17.9333,Kamieskroon
ZAF,8261,-30.2,17.9333,Kamieskroon
ZAF,8271,-29.6,17.9,Okiep
ZAF,8280,-29.25,16.8667,Port Nolloth
ZAF,8282,-29.6667,17.8833,Springbok
ZAF,8283,-29.25,16.8667,Port Nolloth
ZAF,8284,-29.25,16.8667,Port Nolloth
ZAF,8290,-28.5833,16.4833,Alexander Bay
ZAF,8292,-28.5833,16.4833,Alexander Bay
ZAF,8294,-28.5833,16.4833,Alexander Bay
ZAF,8300,-28.7333,24.7667,Kimberley
ZAF,8301,-28.7333,24.7667,Kimberley
ZAF,8303,-28.7333,24.7667,Kimberley
ZAF,8306,-28.7333,24.7667,Kimberley
ZAF,8309,-28.7333,24.7667,Pescodia
ZAF,8315,-22.9333,30.1167,Beaconsfield||Kimberley
ZAF,8320,-28.7333,24.7667,Kimberley
ZAF,8325,-28.7333,24.7667,Kimberley
ZAF,8330,-28.3564,24.938,Galeshewe||Kimberley
ZAF,8335,-28.7333,24.7667,Kimberley
ZAF,8340,-28.55,25.2333,Boshof
ZAF,8345,-28.6416,25.0,Mankurwane||Kimberley
ZAF,8350,-28.7333,24.7667,Kimberley
ZAF,8360,-28.7333,24.7667,Kimberley
ZAF,8365,-28.85,23.25,Griquatown
ZAF,8375,-28.5333,24.5167,Barkly West
ZAF,8376,-28.5333,24.5167,Barkly West
ZAF,8377,-28.475,24.4084,Delportshoop||Barkly West
ZAF,8391,-28.7333,24.7667,Kimberley
ZAF,8405,-28.1833,23.5333,Danielskuil
ZAF,8420,-28.3167,23.0667,Postmasburg
ZAF,8423,-28.3,23.0167,Mancorp Mine||Postmasburg
ZAF,8426,-28.3167,23.0667,Postmasburg
ZAF,8445,-28.3167,23.0667,Postmasburg
ZAF,8450,-27.9333,22.7333,Olifantshoek
ZAF,8460,-27.45,23.4333,Kuruman
ZAF,8461,-27.45,23.4333,Kuruman
ZAF,8466,-27.45,23.4333,Kuruman
ZAF,8467,-27.2,22.9667,Hotazel
ZAF,8468,-27.45,23.4333,Kuruman
ZAF,8470,-27.45,23.4333,Kuruman
ZAF,8474,-26.95,24.7333,Vryburg
ZAF,8476,-26.95,24.7333,Vryburg
ZAF,8477,-27.05,24.4733,Mothibistad
ZAF,8478,-26.95,24.7333,Vryburg
ZAF,8479,-26.95,24.7333,Vryburg
ZAF,8480,-26.95,24.7333,Vryburg
ZAF,8481,-26.95,24.7333,Mothibistad
ZAF,8482,-26.95,24.7333,Mothibistad
ZAF,8484,-26.95,24.7333,Vryburg
ZAF,8505,-28.7333,24.7667,Kimberley
ZAF,8510,-28.3333,24.7167,Windsorton
ZAF,8530,-28.1167,24.85,Warrenton||Northern Cape
ZAF,8532,-28.1167,24.85,Warrenton
ZAF,8534,-27.9167,24.85,Jan Kempdorp
ZAF,8535,-27.9167,24.85,Jan Kempdorp
ZAF,8537,-28.0167,24.85,Taung Station
ZAF,8550,-27.9167,24.85,Jan Kempdorp
ZAF,8553,-27.9167,24.85,Jan Kempdorp
ZAF,8560,-27.9167,24.85,Jan Kempdorp
ZAF,8570,-27.7667,24.8167,Hartswater
ZAF,8575,-27.6667,24.8333,Magogong
ZAF,8576,-26.1,27.6208,Taung||Taung Sta
ZAF,8577,-27.7167,24.825,Taung Station
ZAF,8582,-26.6,24.1833,Ganyesa
ZAF,8583,-27.9762,24.8238,Taung Sta
ZAF,8585,-27.9762,24.8238,Taung Sta
ZAF,8586,-27.9762,24.8238,Taung Sta
ZAF,8587,-26.6,24.1833,Ganyesa
ZAF,8588,-27.9762,24.8238,Taung Sta
ZAF,8589,-27.9762,24.8238,Taung Sta
ZAF,8590,-27.9762,24.8238,Taung Sta
ZAF,8591,-27.9762,24.8238,Taung Sta
ZAF,8592,-27.9762,24.8238,Taung Sta
ZAF,8593,-27.9762,24.8238,Taung Sta
ZAF,8594,-27.9762,24.8238,Taung Sta
ZAF,8596,-27.9762,24.8238,Taung Sta
ZAF,8597,-27.9762,24.8238,Taung Station
ZAF,8599,-27.9762,24.8238,Taung Station
ZAF,8601,-26.95,24.7333,Vryburg
ZAF,8602,-26.95,24.7333,Vryburg
ZAF,8603,-26.95,24.7333,Vryburg
ZAF,8604,-26.6,24.1833,Ganyesa
ZAF,8605,-27.1444,24.7556,Taung Station
ZAF,8606,-27.1444,24.7556,Taung Station
ZAF,8607,-27.1444,24.7556,Taung Station
ZAF,8608,-27.1444,24.7556,Taung Station
ZAF,8609,-27.5333,24.8,Taung
ZAF,8610,-26.95,24.7333,Vryburg
ZAF,8611,-26.95,24.7333,Pomfret||Vryburg
ZAF,8612,-25.8167,23.5333,Pomfret
ZAF,8614,-25.8167,23.5333,Pomfret
ZAF,8615,-26.95,24.7333,Vryburg
ZAF,8616,-26.95,24.7333,Vryburg
ZAF,8617,-25.8167,23.5333,Pomfret
ZAF,8618,-25.8167,23.5333,Pomfret
ZAF,8620,-25.8167,23.5333,Pomfret
ZAF,8621,-26.95,24.7333,Vryburg
ZAF,8622,-26.95,24.7333,Vryburg
ZAF,8623,-26.6,24.1833,Ganyesa
ZAF,8624,-26.95,24.7333,Vryburg
ZAF,8625,-25.8167,23.5333,Pomfret
ZAF,8626,-25.8167,23.5333,Pomfret
ZAF,8655,-26.4167,25.2,Madibogo
ZAF,8680,-26.95,24.7333,Vryburg
ZAF,8700,-28.7333,24.7667,Kimberley
ZAF,8701,-29.05,24.6,Ritchie
ZAF,8710,-25.6333,26.0667,Jacobsdal
ZAF,8730,-29.0667,23.7667,Douglas
ZAF,8731,-28.7333,24.7667,Kimberley
ZAF,8735,-26.0167,29.3667,Douglas
ZAF,8745,-28.7333,24.7667,Kimberley
ZAF,8750,-29.6167,24.0833,Hopetown
ZAF,8751,-29.6167,24.0833,Hopetown
ZAF,8760,-29.6167,24.0833,Hopetown
ZAF,8765,-29.95,23.6833,Strydenburg
ZAF,8770,-30.0833,24.65,Petrusville
ZAF,8771,-30.0,24.7333,Vanderkloof
ZAF,8780,-30.65,24.0167,De Aar
ZAF,8782,-30.5833,23.5,Britstown
ZAF,8795,-30.4333,24.4667,Philipstown
ZAF,8801,-28.45,21.25,Upington
ZAF,8805,-28.45,21.25,Upington
ZAF,8806,-28.45,21.25,Upington
ZAF,8807,-28.45,21.25,Upington
ZAF,8808,-28.45,21.25,Upington
ZAF,8809,-28.45,21.25,Upington
ZAF,8810,-28.45,21.25,Upington
ZAF,8813,-28.45,21.25,Upington
ZAF,8815,-28.45,21.25,Upington
ZAF,8816,-28.45,21.25,Upington
ZAF,8818,-28.45,21.25,Upington
ZAF,8820,-28.45,21.25,Upington
ZAF,8822,-26.4833,22.2333,Grootdrink
ZAF,8824,-28.45,21.25,Upington
ZAF,8826,-28.8833,21.9833,Groblershoop
ZAF,8851,-28.8833,21.9833,Groblershoop
ZAF,8860,-28.7,20.9667,Keimoes
ZAF,8861,-28.7,20.9667,Keimoes
ZAF,8870,-28.75,20.6333,Kakamas
ZAF,8873,-28.75,20.6333,Kakamas
ZAF,8874,-28.75,20.6333,Kakamas
ZAF,8892,-29.1333,19.3833,Pofadder
ZAF,8893,-29.6667,17.8833,Springbok
ZAF,8922,-30.95,22.1333,Carnarvon
ZAF,8925,-30.95,22.1333,Carnarvon
ZAF,8930,-29.4917,22.7916,Niekerkshoop||Prieska
ZAF,8940,-29.6667,22.75,Prieska
ZAF,8943,-28.8833,21.9833,Groblershoop
ZAF,9300,-29.1333,26.2,Bloemfontein
ZAF,9301,-29.123,26.1662,Bloemfontein
ZAF,9302,-29.1333,26.2,Bloemfontein
ZAF,9303,-29.1333,26.2,Bloemfontein
ZAF,9305,-29.1333,26.2,Bloemfontein
ZAF,9306,-29.1333,26.2,Bloemfontein
ZAF,9307,-29.1333,26.2,Mangaung||Bloemfontein
ZAF,9309,-29.1583,26.2166,Kagisanong||Bloemfontein
ZAF,9310,-29.1333,26.2,Bloemfontein
ZAF,9311,-29.1333,26.2,Bloemfontein
ZAF,9312,-29.1333,26.2,Bloemfontein
ZAF,9313,-29.1333,26.2,Bloemfontein
ZAF,9315,-29.1333,26.2,Bloemfontein
ZAF,9317,-29.1333,26.2,Bloemfontein
ZAF,9320,-29.1333,26.2,Bloemfontein
ZAF,9321,-29.1333,26.2,Bloemfontein
ZAF,9322,-29.1333,26.2,Bloemfontein
ZAF,9323,-28.0833,24.8917,Kagisanong||Bloemfontein||Gasehunelo||Ga-Sehunelo
ZAF,9324,-29.1333,26.2,Bloemfontein
ZAF,9325,-29.1333,26.2,Bloemfontein
ZAF,9326,-29.1333,26.2,Bloemfontein
ZAF,9327,-29.1333,26.2,Bloemfontein
ZAF,9328,-29.1833,26.2333,Kagisanong
ZAF,9330,-29.1333,26.2,Bloemfontein
ZAF,9332,-29.1333,26.2,Bloemfontein
ZAF,9334,-29.1333,26.2,Bloemfontein
ZAF,9348,-28.6667,25.7667,Dealesville
ZAF,9356,-29.1333,26.2,Bloemfontein
ZAF,9358,-29.1333,26.2,Bloemfontein
ZAF,9360,-29.1333,26.2,Bloemfontein
ZAF,9364,-29.1333,26.225,Bloemspruit||Bloemfontein
ZAF,9380,-29.1333,26.2,Bloemfontein
ZAF,9400,-28.7,26.4667,Brandfort
ZAF,9410,-28.4,26.7167,Theunissen
ZAF,9414,-28.4,26.7167,Theunissen
ZAF,9420,-28.5333,27.0167,Winburg
ZAF,9421,-28.5333,27.0167,Winburg
ZAF,9430,-28.1167,26.9,Free State||Virginia
ZAF,9431,-28.1167,26.9,Virginia||Free State
ZAF,9432,-28.1167,26.9,Virginia
ZAF,9433,-28.1167,26.9,Virginia
ZAF,9435,-28.1167,26.9,Virginia
ZAF,9437,-28.1167,26.9,Virginia
ZAF,9438,-27.9833,26.7333,Welkom
ZAF,9439,-28.1167,26.9,Virginia
ZAF,9450,-28.0833,27.1333,Ventersburg
ZAF,9459,-27.9833,26.7333,Welkom
ZAF,9460,-27.9833,26.7333,Welkom
ZAF,9462,-27.9833,26.7333,Welkom
ZAF,9463,-27.9833,26.7333,Motsethabong||Welkom
ZAF,9465,-27.9833,26.7333,Welkom
ZAF,9466,-27.9833,26.7333,Welkom
ZAF,9467,-27.9833,26.7333,Welkom
ZAF,9468,-27.9833,26.7333,Geduldpan||Welkom
ZAF,9469,-24.4167,29.1667,Welkom
ZAF,9470,-27.9833,26.7333,Welkom
ZAF,9471,-27.9833,26.7333,Welkom
ZAF,9473,-27.9833,26.7333,Welkom
ZAF,9475,-27.9542,26.7208,Motsethabong
ZAF,9476,-27.8667,26.6833,Odendaalsrus
ZAF,9477,-27.9833,26.7333,Welkom
ZAF,9478,-27.9542,26.7208,Motsethabong
ZAF,9480,-27.8667,26.6833,Odendaalsrus
ZAF,9482,-28.1333,25.5,Hertzogville
ZAF,9483,-27.9722,26.5306,Merafong||Odendaalsrus
ZAF,9484,-28.1167,26.9,Virginia
ZAF,9485,-28.3167,27.6,Senekal
ZAF,9487,-28.0778,26.3778,Motsethabang
ZAF,9488,-27.9833,26.7333,Welkom
ZAF,9490,-27.75,26.6667,Allanridge
ZAF,9492,-27.75,26.6667,Allanridge
ZAF,9499,-27.65,27.2333,Kroonstad
ZAF,9501,-27.65,27.2333,Kroonstad
ZAF,9503,-27.65,27.2333,Lengau||Kroonstad
ZAF,9505,-27.65,27.2333,Kroonstad
ZAF,9520,-27.2167,26.95,Viljoenskroon
ZAF,9521,-27.2167,26.95,Viljoenskroon
ZAF,9535,-29.2667,21.6333,Edenville||Free State
ZAF,9540,-27.2333,27.5833,Koppies
ZAF,9580,-26.8167,27.8167,Sasolburg
ZAF,9585,-26.9,27.45,Parys
ZAF,9595,-27.0167,27.3833,Vredefort
ZAF,9600,-28.3167,27.6,Senekal
ZAF,9602,-28.0333,27.85,Arlington
ZAF,9610,-28.6667,27.4333,Marquard
ZAF,9630,-27.8667,27.9167,Lindley
ZAF,9640,-27.65,28.1333,Petrus Steyn
ZAF,9650,-27.2833,27.9667,Heilbron
ZAF,9660,-27.3667,26.6167,Bothaville
ZAF,9661,-27.3667,26.6167,Bothaville
ZAF,9663,-27.3667,26.6167,Bothaville
ZAF,9670,-25.1167,28.5667,Bultfontein
ZAF,9680,-27.85,26.3667,Wesselsbron
ZAF,9682,-27.85,26.3667,Wesselsbron
ZAF,9700,-28.2333,28.3,Bethlehem
ZAF,9701,-28.2333,28.3,Theronville||Bethlehem
ZAF,9702,-28.2333,28.3,Bohlokong||Bethlehem||Theronville
ZAF,9703,-28.2333,28.3,Bethlehem
ZAF,9704,-28.2333,28.3,Bethlehem
ZAF,9705,-28.2333,28.3,Bethlehem
ZAF,9706,-28.2333,28.3,Bethlehem
ZAF,9707,-28.5167,28.4167,Clarens
ZAF,9720,-28.5167,27.9333,Rosendal
ZAF,9725,-28.5833,28.1333,Fouriesburg
ZAF,9730,-28.8833,27.8833,Ficksburg
ZAF,9732,-28.8833,27.8833,Ficksburg
ZAF,9735,-28.9,27.5667,Clocolan
ZAF,9740,-29.5333,27.15,Hobhouse
ZAF,9742,-31.1167,26.8,Jamestown
ZAF,9744,-30.9833,26.3167,Burgersdorp
ZAF,9745,-29.2,27.45,Ladybrand
ZAF,9746,-29.2,27.45,Ladybrand
ZAF,9748,-29.2,27.45,Ladybrand
ZAF,9750,-30.7,26.7,Aliwal North||Aliwal-Noord
ZAF,9752,-30.7,26.7,Aliwal North
ZAF,9754,-30.7,26.7,Aliwal North
ZAF,9755,-30.7,27.2333,Lady Grey
ZAF,9756,-30.6167,27.1667,Herschel
ZAF,9760,-25.8333,30.5167,Excelsior
ZAF,9762,-25.3667,30.5333,Sterkspruit
ZAF,9775,-29.3154,27.4386,Ga-Rapulana||Garapulana
ZAF,9780,-29.6583,26.9854,Ga-Rapulana
ZAF,9781,-29.2333,26.7333,Botshabelo||Bloemfontein
ZAF,9782,-29.2333,26.7333,Botshabelo
ZAF,9783,-29.2083,26.825,Ga-Rapulana||Thaba Nchu||Selosesha
ZAF,9784,-29.2167,26.8333,Thaba Nchu
ZAF,9785,-29.2333,26.7333,Botshabelo
ZAF,9786,-30.9667,27.6,Barkly East
ZAF,9787,-30.9667,27.6,Barkly East
ZAF,9788,-29.2333,26.7333,Botshabelo
ZAF,9789,-29.2333,26.7333,Botshabelo
ZAF,9790,-29.2167,26.8333,Thaba Nchu
ZAF,9795,-30.7333,25.1,Colesberg
ZAF,9797,-30.7333,25.1,Colesberg
ZAF,9798,-30.7833,25.8,Venterstad
ZAF,9800,-28.3,27.95,Paul Roux
ZAF,9810,-27.8,28.4333,Reitz
ZAF,9820,-27.55,28.5167,Tweeling
ZAF,9830,-27.2833,28.5,Frankfort
ZAF,9835,-27.4167,29.1667,Vrede
ZAF,9840,-27.0333,28.6,Villiers
ZAF,9850,-23.7167,29.1333,Cornelia||Vrede
ZAF,9860,-28.3167,28.7,Kestell
ZAF,9866,-28.5333,28.8167,Phuthaditjhaba
ZAF,9868,-28.5333,28.8,Witsieshoek
ZAF,9869,-28.5333,28.8,Phuthaditjhaba||Mokodumela||Witsieshoek
ZAF,9870,-28.5333,28.8,Witsieshoek
ZAF,9873,-28.5333,28.8,Dikgakeng
ZAF,9875,-28.5333,28.8,Witsieshoek
ZAF,9877,-28.5333,28.8,Witsieshoek
ZAF,9878,-28.5333,28.8,Witsieshoek
ZAF,9880,-28.2833,29.1333,Harrismith
ZAF,9882,-28.2833,29.1333,Harrismith
ZAF,9883,-28.2833,29.1333,Harrismith
ZAF,9885,-28.2833,29.1333,Harrismith
ZAF,9890,-27.85,28.9667,Warden
ZAF,9904,-29.65,26.1667,Reddersburg
ZAF,9908,-29.7333,25.9333,Edenburg
ZAF,9913,-30.0333,25.7833,Trompsburg
ZAF,9917,-30.2667,25.7,Springfontein
ZAF,9922,-30.7333,25.1,Colesberg
ZAF,9928,-29.1333,26.2,Bloemfontein
ZAF,9932,-29.1167,25.4167,Petrusburg
ZAF,9936,-29.1167,25.4167,Petrusburg
ZAF,9940,-29.5833,26.6667,Dewetsdorp
ZAF,9944,-29.7333,27.0333,Wepener
ZAF,9945,-30.3,27.0833,Zastron
ZAF,9950,-30.3,27.0833,Zastron
ZAF,9951,-30.3,27.0833,Zastron
ZAF,9958,-30.4167,26.8333,Free State||Rouxville
ZAF,9966,-30.2167,26.5333,Smithfield
ZAF,9970,-30.2667,25.2833,Philippolis
ZAF,9974,-29.7667,25.4167,Jagersfontein
ZAF,9978,-29.75,25.3167,Fauresmith
ZAF,9982,-29.75,24.7833,Luckhoff
ZAF,9986,-29.4,25.0167,Koffiefontein||Luckhoff
ZAF,9987,-29.4,25.0167,Koffiefontein
ZAF,9992,-30.5333,21.2833,Bethulie
