country_code,postal_code,town,region,latitude,longitude
ITA,00010,Marcellina,RM,42.0097,12.783
ITA,00011,Tivoli Terme,RM,42.0102,12.7501
ITA,00012,Guidonia,RM,41.9778,12.7239
ITA,00013,Fonte Nuova,RM,42.0052,12.6395
ITA,00015,Monterotondo,RM,42.0516,12.6197
ITA,00017,Nerola,RM,42.162,12.7642
ITA,00018,Cretone,RM,42.0702,12.7352
ITA,00019,Empolitana,RM,41.9605,12.8189
ITA,00020,Marano Equo,RM,41.985,13.0218
ITA,00021,Affile,RM,41.8844,13.0985
ITA,00022,Anticoli Corrado,RM,42.008,12.9905
ITA,00023,Arsoli,RM,42.0416,13.0161
ITA,00024,Castel Madama,RM,41.9735,12.8678
ITA,00025,Gerano,RM,41.9347,12.9903
ITA,00026,Licenza,RM,42.0776,12.8976
ITA,00027,Roviano,RM,42.0264,12.9939
ITA,00028,Subiaco,RM,41.9262,13.0891
ITA,00029,Vicovaro,RM,42.0192,12.9
ITA,00030,Rocca Di Cave,RM,41.8205,12.9465
ITA,00031,Colubro,RM,41.7417,12.8774
ITA,00032,Carpineto Romano,RM,41.6047,13.0841
ITA,00033,Cave,RM,41.8155,12.929
ITA,00034,Colleferro,RM,41.7272,13.0048
ITA,00035,Olevano Romano,RM,41.8587,13.036
ITA,00036,Palestrina,RM,41.8098,12.8557
ITA,00037,Segni,RM,41.6889,13.0193
ITA,00038,Valmontone,RM,41.7732,12.9186
ITA,00039,Valle Martella,RM,41.86,12.7811
ITA,00040,Ponte Sulla Moletta,RM,41.6711,12.589
ITA,00041,Cecchina Stazione,RM,41.7185,12.6288
ITA,00042,Colonia Di Anzio,RM,41.4946,12.6057
ITA,00043,Ciampino,RM,41.8006,12.6016
ITA,00044,Frascati,RM,41.8091,12.6794
ITA,00045,Pedica,RM,41.663,12.7067
ITA,00046,Poggio Tulliano,RM,41.7866,12.6714
ITA,00047,Marino,RM,41.7698,12.6592
ITA,00048,Nettuno,RM,41.4579,12.6639
ITA,00049,Velletri,RM,41.6857,12.7775
ITA,00050,Testa Di Lepre Di Sopra,RM,41.9623,12.2851
ITA,00051,Allumiere,RM,42.1527,11.9043
ITA,00052,Borgo San Martino Di Cerveteri,RM,41.9883,12.0988
ITA,00053,Aurelia Di Civitavecchia,RM,42.1238,11.7903
ITA,00054,Fiumicino Aeroporto,RM,41.8493,12.2239
ITA,00055,Palo,RM,41.9383,12.0984
ITA,00057,Malagrotta,RM,41.8833,12.3333
ITA,00058,Santa Severa,RM,42.0292,11.9013
ITA,00059,Tolfa,RM,42.0866,11.9525
ITA,00060,Ponte Storto,RM,42.1449,12.4372
ITA,00061,Anguillara Sabazia,RM,42.0792,12.2837
ITA,00062,Rinascente,RM,42.0814,12.1775
ITA,00063,Campagnano Di Roma,RM,42.1357,12.3736
ITA,00065,Feronia,RM,42.1554,12.5947
ITA,00066,Manziana,RM,42.1317,12.1211
ITA,00067,Morlupo,RM,42.15,12.5031
ITA,00068,Rignano Flaminio,RM,42.2055,12.4807
ITA,00069,Vicarello,RM,42.1635,12.2189
ITA,00071,Pomezia,RM,41.6645,12.5036
ITA,00072,Ariccia,RM,41.7187,12.6695
ITA,00073,Castel Gandolfo,RM,41.7488,12.6497
ITA,00074,Nemi,RM,41.7218,12.7181
ITA,00075,Lanuvio,RM,41.673,12.694
ITA,00076,Lariano,RM,41.7185,12.8287
ITA,00077,Laghetto Di Montecompatri,RM,41.8282,12.7334
ITA,00078,Armetta,RM,41.8144,12.701
ITA,00079,Colle Di Fuori,RM,41.7834,12.7863
ITA,00118,Roma,RM,41.8919,12.5113
ITA,00119,Ostia Antica,RM,41.8919,12.5113
ITA,00120,Roma,RM,41.8919,12.5113
ITA,00121,Lido Di Ostia Ponente,RM,41.8121,12.3938
ITA,00122,Lido Di Ostia Levante,RM,41.7897,12.4095
ITA,00123,La Storta,RM,41.9703,12.4292
ITA,00124,Casal Palocco,RM,41.8202,12.4292
ITA,00125,Acilia,RM,41.8919,12.5113
ITA,00126,Roma,RM,41.8919,12.5113
ITA,00127,Risaro,RM,41.8248,12.4425
ITA,00128,Malpasso,RM,41.7836,12.4583
ITA,00131,Roma,RM,41.9126,12.564
ITA,00132,Borgata Borghesiana,RM,41.8919,12.5113
ITA,00133,Torre Angela,RM,41.8661,12.5896
ITA,00134,Divino Amore,RM,41.815,12.5345
ITA,00135,Borgata Ottavia,RM,41.9376,12.4557
ITA,00136,Roma,RM,41.8919,12.5113
ITA,00137,Roma,RM,41.8919,12.5113
ITA,00138,Borgata Fidene,RM,41.9751,12.5149
ITA,00139,Roma,RM,41.8919,12.5113
ITA,00141,Roma,RM,41.8919,12.5113
ITA,00142,Roma,RM,41.8919,12.5113
ITA,00143,Roma,RM,41.8543,12.4973
ITA,00144,Decima,RM,41.8919,12.5113
ITA,00145,Roma,RM,41.8919,12.5113
ITA,00146,Roma,RM,41.8919,12.5113
ITA,00147,Roma,RM,41.8919,12.5113
ITA,00148,Magliana Trullo,RM,41.8919,12.5113
ITA,00149,Roma,RM,41.8919,12.5113
ITA,00151,Roma,RM,41.8919,12.5113
ITA,00152,Roma,RM,41.8919,12.5113
ITA,00153,Roma,RM,41.8919,12.5113
ITA,00154,Roma,RM,41.8919,12.5113
ITA,00155,La Rustica,RM,41.896,12.5473
ITA,00156,Rebibbia,RM,41.8919,12.5113
ITA,00157,Roma,RM,41.8919,12.5113
ITA,00158,Roma,RM,41.8919,12.5113
ITA,00159,Roma,RM,41.8919,12.5113
ITA,00161,Roma,RM,41.8919,12.5113
ITA,00162,Roma,RM,41.8919,12.5113
ITA,00163,Roma,RM,41.8919,12.5113
ITA,00164,Roma,RM,41.8919,12.5113
ITA,00165,Roma,RM,41.8919,12.5113
ITA,00166,Borgata Casalotti,RM,41.8919,12.5113
ITA,00167,Roma,RM,41.8919,12.5113
ITA,00168,Roma,RM,41.8919,12.5113
ITA,00169,Torre Maura,RM,41.8919,12.5113
ITA,00171,Roma,RM,41.8919,12.5113
ITA,00172,Roma,RM,41.8919,12.5113
ITA,00173,Roma,RM,41.8919,12.5113
ITA,00174,Roma,RM,41.8919,12.5113
ITA,00175,Roma,RM,41.8919,12.5113
ITA,00176,Roma,RM,41.8919,12.5113
ITA,00177,Roma,RM,41.8919,12.5113
ITA,00178,Torricola,RM,41.8626,12.539
ITA,00179,Roma,RM,41.8919,12.5113
ITA,00181,Roma,RM,41.8919,12.5113
ITA,00182,Roma,RM,41.8919,12.5113
ITA,00183,Roma,RM,41.8919,12.5113
ITA,00184,Roma,RM,41.8919,12.5113
ITA,00185,Roma,RM,41.8919,12.5113
ITA,00186,Roma,RM,41.8919,12.5113
ITA,00187,Roma,RM,41.8919,12.5113
ITA,00188,Labaro,RM,41.9619,12.4931
ITA,00189,Tomba Di Nerone,RM,41.8919,12.5113
ITA,00191,Roma,RM,41.8919,12.5113
ITA,00192,Roma,RM,41.8919,12.5113
ITA,00193,Roma,RM,41.8919,12.5113
ITA,00194,Roma,RM,41.8919,12.5113
ITA,00195,Roma,RM,41.8919,12.5113
ITA,00196,Roma,RM,41.8919,12.5113
ITA,00197,Roma,RM,41.8919,12.5113
ITA,00198,Roma,RM,41.8919,12.5113
ITA,00199,Roma,RM,41.8919,12.5113
ITA,01010,Arlena Di Castro,VT,42.4325,11.9076
ITA,01011,Musignano,VT,42.4496,11.7348
ITA,01012,Capranica,VT,42.2681,12.1472
ITA,01014,Montalto Di Castro,VT,42.3747,11.5522
ITA,01015,Sutri,VT,42.246,12.2172
ITA,01016,Lido Di Tarquinia,VT,42.2453,11.7203
ITA,01017,Tuscania,VT,42.4189,11.8685
ITA,01018,Valentano,VT,42.5638,11.8275
ITA,01019,Vetralla,VT,42.3241,12.0638
ITA,01020,Casenuove,VT,42.5879,12.1282
ITA,01021,Acquapendente,VT,42.773,11.8948
ITA,01022,Civita,VT,42.6083,12.119
ITA,01023,Bolsena,VT,42.6433,11.9851
ITA,01024,Sermugnano,VT,42.6539,12.183
ITA,01025,Grotte Di Castro,VT,42.6757,11.8691
ITA,01026,Magugnano,VT,42.5168,12.1695
ITA,01027,Le Mosse,VT,42.5339,12.043
ITA,01028,Orte,VT,42.4599,12.3755
ITA,01030,Vitorchiano Stazione,VT,42.3171,12.3159
ITA,01032,Caprarola,VT,42.3231,12.2385
ITA,01033,Borghetto Di Civita Castellana Stazione,VT,42.3199,12.4317
ITA,01034,Fabrica Di Roma,VT,42.3138,12.325
ITA,01035,Scalo Teverina,VT,42.3747,12.4198
ITA,01036,Nepi,VT,42.2422,12.3436
ITA,01037,Ronciglione,VT,42.289,12.2148
ITA,01038,Chia,VT,42.4444,12.2557
ITA,01039,Vignanello,VT,42.3788,12.2784
ITA,01100,Viterbo,VT,42.3989,12.117
ITA,02010,Canetra Di Castel Sant'Angelo,RI,42.5183,13.028
ITA,02011,Accumoli,RI,42.7142,13.2578
ITA,02012,Santi Lorenzo E Flaviano,RI,42.6247,13.2671
ITA,02013,Antrodoco,RI,42.415,13.0767
ITA,02014,San Liberato,RI,42.4703,12.8909
ITA,02015,Grotti Di Cittaducale,RI,42.3837,12.9407
ITA,02016,San Clemente Di Leonessa,RI,42.5727,13.0075
ITA,02018,Poggio Bustone,RI,42.5033,12.8852
ITA,02019,Posta,RI,42.5236,13.0948
ITA,02020,Varco Sabino,RI,42.2337,12.9954
ITA,02021,Borgorose,RI,42.1788,13.2299
ITA,02022,Collalto Sabino,RI,42.1352,13.0484
ITA,02023,Sant'Ippolito,RI,42.243,13.1326
ITA,02024,Sant'Elpidio Di Pescorocchiano,RI,42.2105,13.1302
ITA,02025,Castelmareri,RI,42.2861,13.0633
ITA,02026,Rocca Sinibalda,RI,42.2562,12.9291
ITA,02030,Villetta Sant'Antonio,RI,42.2303,12.8342
ITA,02031,Castelnuovo Di Farfa,RI,42.2319,12.7431
ITA,02032,Canneto Sabino,RI,42.1908,12.7105
ITA,02033,Ginestra Sabina,RI,42.23,12.8512
ITA,02034,Bocchignano,RI,42.2535,12.7008
ITA,02035,Orvinio,RI,42.1304,12.9376
ITA,02037,Poggio Moiano,RI,42.2497,12.8849
ITA,02038,Scandriglia,RI,42.1682,12.8269
ITA,02039,Toffia,RI,42.213,12.755
ITA,02040,San Polo Sabino,RI,42.3358,12.6722
ITA,02041,Casperia,RI,42.3387,12.6702
ITA,02042,Collevecchio,RI,42.3337,12.5533
ITA,02043,Montisola,RI,42.3767,12.7034
ITA,02044,Gavignano Sabino,RI,42.2855,12.6057
ITA,02045,Limiti Di Greccio,RI,42.4487,12.761
ITA,02046,Foglia,RI,42.3485,12.4795
ITA,02047,Poggio Mirteto Stazione,RI,42.2592,12.6821
ITA,02048,Stimigliano Stazione,RI,42.296,12.5667
ITA,02049,Torri In Sabina,RI,42.3506,12.6416
ITA,02100,Monte Terminillo,RI,42.4013,12.8341
ITA,03010,Certosa Di Trisulti,FR,41.7534,13.2581
ITA,03011,Alatri,FR,41.722,13.3298
ITA,03012,Anagni,FR,41.7361,13.1494
ITA,03013,Tofe,FR,41.697,13.2355
ITA,03014,Fiuggi,FR,41.7978,13.2239
ITA,03016,Campocatino,FR,41.8163,13.3238
ITA,03017,Morolo,FR,41.6402,13.2056
ITA,03018,Paliano,FR,41.7797,13.0766
ITA,03019,Supino,FR,41.6213,13.2345
ITA,03020,Madonna Del Piano,FR,41.5243,13.4197
ITA,03021,Amaseno,FR,41.4671,13.3346
ITA,03022,Colle Campano,FR,41.6462,13.4646
ITA,03023,Ceccano,FR,41.5724,13.329
ITA,03024,Ceprano,FR,41.5457,13.5147
ITA,03025,Chiaiamari,FR,41.6419,13.5275
ITA,03026,Pofi,FR,41.5654,13.4146
ITA,03027,Ripi,FR,41.6137,13.424
ITA,03028,San Giovanni Incarico,FR,41.5,13.5586
ITA,03029,Case Campoli,FR,41.6665,13.464
ITA,03030,Colfelice,FR,41.613,13.6528
ITA,03031,Aquino,FR,41.4939,13.7052
ITA,03032,Isoletta,FR,41.5529,13.5654
ITA,03033,Scaffa San Sossio,FR,41.6511,13.5847
ITA,03034,Roselli,FR,41.6428,13.7124
ITA,03035,Fontana Liri,FR,41.6352,13.6293
ITA,03036,Isola Del Liri,FR,41.6868,13.5968
ITA,03037,Pastine Di Pontecorvo,FR,41.4307,13.6443
ITA,03038,Roccasecca,FR,41.5428,13.665
ITA,03039,Selva Di Sora,FR,41.7005,13.612
ITA,03040,Cerreto Di Vallerotonda,FR,41.5137,13.8551
ITA,03041,Castello D'Alvito,FR,41.7006,13.7455
ITA,03042,Casino Pica,FR,41.6235,13.7958
ITA,03043,Montecassino,FR,41.4875,13.8408
ITA,03044,Pacitti,FR,41.479,13.8832
ITA,03045,Esperia Inferiore,FR,41.393,13.6738
ITA,03046,San Donato Val Di Comino,FR,41.7073,13.8122
ITA,03047,San Giorgio A Liri,FR,41.4058,13.7598
ITA,03048,Sant'Apollinare,FR,41.4018,13.8299
ITA,03049,Sant'Elia Fiumerapido,FR,41.5438,13.859
ITA,03100,Frosinone,FR,41.6398,13.3411
ITA,04010,Sezze Stazione,LT,41.5311,13.0913
ITA,04011,Vallelata,LT,41.5771,12.6547
ITA,04012,Cisterna Di Latina,LT,41.5857,12.8195
ITA,04013,Latina Aeroporto,LT,41.5568,12.9571
ITA,04014,Borgo Pasubio,LT,41.411,13.0426
ITA,04015,Abbazia Di Fossanova,LT,41.4552,13.1885
ITA,04016,Sabaudia,LT,41.2972,13.0626
ITA,04017,San Felice Circeo,LT,41.2577,13.0986
ITA,04018,Sezze,LT,41.5003,13.0618
ITA,04019,Badino,LT,41.3036,13.2027
ITA,04020,Ventotene,LT,41.3163,13.6457
ITA,04021,Suio Terme,LT,41.2944,13.8485
ITA,04022,San Magno,LT,41.329,13.3816
ITA,04023,Acquatraversa Di Formia,LT,41.274,13.6523
ITA,04024,Gaeta,LT,41.2141,13.5708
ITA,04025,Valle Bernardo,LT,41.3971,13.4495
ITA,04026,Minturno,LT,41.2715,13.7419
ITA,04027,Le Forna,LT,40.9101,12.9639
ITA,04028,Scauri,LT,41.257,13.7032
ITA,04029,Sperlonga,LT,41.259,13.433
ITA,04100,Latina,LT,41.4689,12.8908
ITA,05010,Ospedaletto,TR,42.8592,12.2119
ITA,05011,Allerona Stazione,TR,42.7942,12.0164
ITA,05012,Attigliano,TR,42.515,12.2945
ITA,05013,Castel Giorgio,TR,42.707,11.9772
ITA,05014,Monterubiaglio,TR,42.7674,12.0177
ITA,05015,Fabro Scalo,TR,42.8774,12.0372
ITA,05016,Sala,TR,42.8175,12.0705
ITA,05017,Monteleone D'Orvieto,TR,42.9073,12.0457
ITA,05018,Canale,TR,42.7237,12.153
ITA,05020,Santa Restituta,TR,42.6448,12.3556
ITA,05021,Acquasparta,TR,42.6864,12.5385
ITA,05022,Porchiano Del Monte,TR,42.5521,12.4053
ITA,05023,Civitella Del Lago,TR,42.7056,12.2952
ITA,05024,Giove,TR,42.5099,12.3301
ITA,05025,Guardea,TR,42.6237,12.2993
ITA,05026,Farnetta,TR,42.6369,12.4485
ITA,05028,Penna In Teverina,TR,42.4934,12.3585
ITA,05029,San Gemini,TR,42.6138,12.5453
ITA,05030,Fontechiaruccia,TR,42.5261,12.6786
ITA,05031,Arrone,TR,42.5706,12.7769
ITA,05032,Santa Maria Della Neve,TR,42.4,12.5609
ITA,05034,Ferentillo,TR,42.6203,12.7873
ITA,05035,Nera Montoro,TR,42.489,12.5059
ITA,05039,Stroncone,TR,42.512,12.6477
ITA,05100,Gabelletta Di Cesi,TR,42.5833,12.6739
ITA,06010,Lippiano,PG,43.479,12.126
ITA,06012,Riosecco,PG,43.4328,12.2182
ITA,06014,Montone,PG,43.3608,12.3235
ITA,06016,Selci,PG,43.5213,12.1905
ITA,06018,Lugnano Citta' Di Castello,PG,43.3335,12.2662
ITA,06019,Montecastelli Umbro,PG,43.3105,12.2862
ITA,06020,Branca,PG,43.2733,12.681
ITA,06021,Villa Col Dei Canali,PG,43.3707,12.6993
ITA,06022,Fossato Di Vico Stazione,PG,43.2995,12.7545
ITA,06023,Morano,PG,43.2328,12.7356
ITA,06024,Padule,PG,43.3274,12.5531
ITA,06025,Gaifana,PG,43.1654,12.8132
ITA,06026,Pietralunga,PG,43.4361,12.4292
ITA,06027,Scheggia,PG,43.4099,12.7054
ITA,06028,Sigillo,PG,43.3311,12.7406
ITA,06029,Casa Castalda,PG,43.1578,12.602
ITA,06030,Orsano E Cammoro,PG,42.9085,12.7332
ITA,06031,Cantalupo,PG,42.9528,12.5978
ITA,06033,Cannara,PG,42.9954,12.582
ITA,06034,Scanzano,PG,42.9755,12.7729
ITA,06035,Pozzo,PG,42.9086,12.5101
ITA,06036,San Marco Di Montefalco,PG,42.8735,12.6665
ITA,06038,Capitan Loreto,PG,43.0048,12.6569
ITA,06039,Li Celli,PG,42.8858,12.7355
ITA,06040,Sant'Anatolia Di Narco,PG,42.7402,12.8579
ITA,06041,Cerreto Di Spoleto,PG,42.8281,12.9208
ITA,06042,Campello Sul Clitunno,PG,42.8269,12.7693
ITA,06043,Maltignano Di Cascia,PG,42.6943,13.0441
ITA,06044,Bruna,PG,42.8216,12.6814
ITA,06045,Monteleone Di Spoleto,PG,42.6505,12.9516
ITA,06046,Serravalle Di Norcia,PG,42.7837,13.1046
ITA,06047,Roccanolfi,PG,42.8571,13.0263
ITA,06049,Madonna Di Baiano,PG,42.7618,12.7151
ITA,06050,Collazzone,PG,42.9147,12.418
ITA,06051,Casalina,PG,42.9449,12.4016
ITA,06053,Sant'Angelo Di Celle,PG,43.0041,12.3994
ITA,06054,Fratta Todina,PG,42.8568,12.3637
ITA,06055,San Valentino Della Collina,PG,42.9023,12.3639
ITA,06056,Massa Martana,PG,42.7676,12.5326
ITA,06057,Monte Castello Di Vibio,PG,42.8404,12.3524
ITA,06059,Todi,PG,42.7958,12.4384
ITA,06060,Villastrada Umbra,PG,43.1349,12.1055
ITA,06061,Gioiella,PG,43.0907,12.0075
ITA,06062,Citta' Della Pieve,PG,42.9537,11.9882
ITA,06063,San Savino,PG,43.099,12.2139
ITA,06064,Panicale,PG,43.0283,12.0999
ITA,06065,Castel Rigone,PG,43.1944,12.179
ITA,06066,Castiglion Fosco,PG,42.9807,12.1548
ITA,06068,Tavernelle,PG,43.0033,12.1452
ITA,06069,Tuoro Sul Trasimeno,PG,43.19,12.0637
ITA,06070,Ellera Umbra,PG,43.086,12.3108
ITA,06072,Spina,PG,42.9875,12.273
ITA,06073,Mantignana,PG,43.1441,12.2877
ITA,06081,Petrignano D'Assisi,PG,43.0665,12.5807
ITA,06083,Bastia,PG,43.0668,12.5119
ITA,06084,Passaggio,PG,43.0187,12.5009
ITA,06089,Torgiano,PG,43.0268,12.4397
ITA,06100,Perugia,PG,43.1122,12.3888
ITA,06121,Perugia,PG,43.1122,12.3888
ITA,06122,Perugia,PG,43.1122,12.3888
ITA,06123,Perugia,PG,43.1122,12.3888
ITA,06124,Perugia Stazione,PG,43.1122,12.3888
ITA,06125,Perugia,PG,43.1122,12.3888
ITA,06126,Montebello,PG,43.1122,12.3888
ITA,06127,Perugia,PG,43.1088,12.3675
ITA,06128,Ponte Della Pietra,PG,43.1122,12.3888
ITA,06129,Prepo,PG,43.1122,12.3888
ITA,06131,San Marco,PG,43.1122,12.3888
ITA,06132,San Sisto,PG,43.099,12.3673
ITA,06134,Perugia,PG,43.1122,12.3888
ITA,07010,Foresta Di Burgos,SS,40.4692,8.8983
ITA,07011,Bono,SS,40.4139,9.0319
ITA,07012,Rebeccu,SS,40.473,8.917
ITA,07013,Mores,SS,40.5474,8.833
ITA,07014,Vigne,SS,40.6089,8.9787
ITA,07015,Padria,SS,40.3964,8.6299
ITA,07016,Pattada,SS,40.5807,9.1113
ITA,07017,Ploaghe,SS,40.6707,8.7496
ITA,07018,Pozzomaggiore,SS,40.3977,8.6593
ITA,07019,Villanova Monteleone,SS,40.5026,8.4711
ITA,07020,Loiri,SS,40.8834,9.3799
ITA,07021,Baia Sardinia,SS,41.1063,9.475
ITA,07022,Berchidda,SS,40.7848,9.1651
ITA,07023,Calangianus,SS,40.9203,9.1934
ITA,07024,La Maddalena,SS,41.2142,9.4083
ITA,07025,Luras,SS,40.9364,9.1748
ITA,07026,Olbia,SS,40.9547,9.4924
ITA,07027,Oschiri,SS,40.7198,9.101
ITA,07028,San Pasquale,SS,41.2033,9.234
ITA,07029,Nuchis,SS,40.9767,9.173
ITA,07030,Laerru,SS,40.8223,8.8452
ITA,07031,Lu Bagnu,SS,40.9072,8.7
ITA,07032,Nulvi,SS,40.7845,8.7436
ITA,07033,Santa Vittoria,SS,40.7585,8.6706
ITA,07034,Perfugas,SS,40.8323,8.8835
ITA,07035,Sedini,SS,40.8528,8.8167
ITA,07036,Sennori,SS,40.7878,8.5929
ITA,07037,Sorso,SS,40.8087,8.5218
ITA,07038,Trinita' D'Agultu E Vignola,SS,40.8327,8.7817
ITA,07039,Valledoria,SS,40.9224,8.8162
ITA,07040,Argentiera Nurra,SS,40.6742,8.4485
ITA,07041,Fertilia,SS,40.6003,8.2517
ITA,07043,Bonnanaro,SS,40.5326,8.7639
ITA,07044,Ittiri,SS,40.5915,8.5698
ITA,07045,Ossi,SS,40.6748,8.5925
ITA,07046,Asinara Cala D'Oliva,SS,40.8338,8.4053
ITA,07047,Thiesi,SS,40.524,8.72
ITA,07048,Torralba,SS,40.513,8.7653
ITA,07049,Usini,SS,40.6642,8.5392
ITA,07100,Macciadosa,SS,40.7695,8.537
ITA,08010,Sa Lumenera,NU,40.2504,8.682
ITA,08011,Bolotana,NU,40.3244,8.9611
ITA,08012,Mulargia,NU,40.2882,8.8165
ITA,08013,Turas,OR,40.2913,8.4908
ITA,08015,Macomer,NU,40.2623,8.7673
ITA,08016,Borore,NU,40.2158,8.8037
ITA,08017,Silanus,NU,40.2871,8.892
ITA,08018,Sindia,NU,40.2952,8.6571
ITA,08019,Modolo,OR,40.2754,8.53
ITA,08020,Mamone,NU,40.6487,9.3475
ITA,08021,Bitti,NU,40.4796,9.384
ITA,08022,Cala Gonone,NU,40.2866,9.6084
ITA,08023,Fonni,NU,40.1193,9.2535
ITA,08024,Mamoiada,NU,40.2149,9.2819
ITA,08025,Oliena,NU,40.2762,9.4019
ITA,08026,Orani,NU,40.252,9.1815
ITA,08027,Orgosolo,NU,40.2053,9.3545
ITA,08028,Cala Ginepro,NU,40.4211,9.7546
ITA,08029,Berchida,NU,40.5749,9.7523
ITA,08030,Serri,CA,39.5139,9.0904
ITA,08031,Aritzo,NU,39.959,9.1927
ITA,08032,Desulo,NU,40.0146,9.2306
ITA,08033,Isili,CA,39.2071,9.1074
ITA,08034,Laconi,OR,39.8533,9.052
ITA,08035,Nurri,CA,39.2071,9.1074
ITA,08036,Ortueri,NU,40.0355,8.9859
ITA,08037,Seui,NU,40.1817,9.3691
ITA,08038,Sorgono,NU,40.026,9.102
ITA,08039,Tonara,NU,40.0246,9.172
ITA,08040,S'Arridellu,NU,39.9268,9.5712
ITA,08042,Bari Sardo,NU,39.8414,9.6461
ITA,08043,Escalaplano,CA,39.2071,9.1074
ITA,08044,Jerzu,NU,39.7929,9.5179
ITA,08045,Lanusei,NU,39.8793,9.5402
ITA,08046,Perdasdefogu,NU,39.6796,9.4408
ITA,08047,Tertenia,NU,39.6952,9.5788
ITA,08048,Su Troccu,NU,39.9304,9.6806
ITA,08049,Villagrande Strisaili,NU,39.9598,9.4869
ITA,08100,Manasuddas,NU,40.3424,9.3291
ITA,09010,Riomurtas,CA,39.1699,8.7095
ITA,09011,Cussorgia,SU,39.1035,8.384
ITA,09012,San Leone,CA,39.1556,8.9852
ITA,09013,Sirai,SU,39.1939,8.4993
ITA,09014,Carloforte,SU,39.1408,8.3039
ITA,09015,Domusnovas,SU,39.324,8.6492
ITA,09016,Monteponi,SU,39.3165,8.4999
ITA,09017,Sant'Antioco,SU,39.0702,8.4524
ITA,09018,Sarroch,CA,39.089,9.0094
ITA,09019,Teulada,CA,39.2071,9.1074
ITA,09020,Villamar,CA,39.5746,8.9686
ITA,09021,Barumini,SU,39.7022,9.0034
ITA,09022,Lunamatrona,SU,39.6494,8.8997
ITA,09023,Monastir,CA,39.2071,9.1074
ITA,09024,Villagreca,CA,39.2071,9.1074
ITA,09025,Sanluri,SU,39.5618,8.8997
ITA,09026,San Sperate,CA,39.2071,9.1074
ITA,09027,Serrenti,SU,39.4928,8.9766
ITA,09028,Sestu,CA,39.2985,9.0925
ITA,09029,Tuili,SU,39.719,8.95
ITA,09030,Samassi,CA,39.503,8.8135
ITA,09031,Gennamari,SU,39.5863,8.532
ITA,09032,Assemini,CA,39.2616,8.988
ITA,09033,Decimomannu,CA,39.3103,8.9696
ITA,09034,Villasor,CA,39.2071,9.1074
ITA,09035,Gonnosfanadiga,SU,39.4943,8.662
ITA,09036,Guspini,SU,39.5395,8.635
ITA,09037,San Gavino Monreale,SU,39.5501,8.7907
ITA,09038,Serramanna,SU,39.4234,8.9224
ITA,09039,Villacidro,SU,39.4573,8.7411
ITA,09040,Castiadas,CA,39.2369,9.1119
ITA,09041,Dolianova,CA,39.2071,9.1074
ITA,09042,Monserrato,CA,39.2564,9.1444
ITA,09043,Muravera,CA,39.2071,9.1074
ITA,09044,Quartucciu,CA,39.2526,9.1776
ITA,09045,Quartu Sant'Elena,CA,39.2232,9.2672
ITA,09047,Selargius,CA,39.2564,9.1349
ITA,09048,Sinnai,CA,39.3029,9.2028
ITA,09049,Villasimius,CA,39.2071,9.1074
ITA,09070,Milis,OR,40.0363,8.616
ITA,09071,Abbasanta,OR,40.1281,8.8176
ITA,09072,Cabras,OR,39.9295,8.5429
ITA,09073,Santa Caterina Di Pittinurri,OR,40.1163,8.5119
ITA,09074,Ghilarza,OR,40.1205,8.8561
ITA,09075,San Leonardo,OR,40.1594,8.6598
ITA,09076,Sedilo,OR,40.1729,8.9199
ITA,09077,Solarussa,OR,39.955,8.6739
ITA,09078,Scano Di Montiferro,OR,40.2139,8.5713
ITA,09079,Tresnuraghes,OR,40.2524,8.5209
ITA,09080,Allai,OR,39.9675,8.8901
ITA,09081,Ardauli,OR,40.0844,8.9123
ITA,09082,Busachi,OR,40.0342,8.8885
ITA,09083,Fordongianus,OR,39.9944,8.8102
ITA,09084,Villanova Truschedu,OR,39.9884,8.7518
ITA,09085,Ruinas,OR,39.9063,8.8971
ITA,09086,Samugheo,OR,39.9485,8.9415
ITA,09088,Ollastra,OR,39.9411,8.712
ITA,09090,Curcuris,OR,39.7626,8.8161
ITA,09091,Ales,OR,39.7683,8.8152
ITA,09092,Arborea,OR,39.7728,8.5813
ITA,09093,Pompu,OR,39.7042,8.8146
ITA,09094,Sant'Anna,OR,39.7824,8.6433
ITA,09095,Mogoro,OR,39.6842,8.7766
ITA,09096,Santa Giusta,OR,39.8807,8.6092
ITA,09097,San Nicolo' D'Arcidano,OR,39.6842,8.6436
ITA,09098,Terralba,OR,39.7305,8.6211
ITA,09099,Uras,OR,39.698,8.7014
ITA,09100,Cagliari,CA,39.2305,9.1192
ITA,09121,Cagliari,CA,39.2305,9.1192
ITA,09122,Cagliari,CA,39.2305,9.1192
ITA,09123,Cagliari,CA,39.2305,9.1192
ITA,09124,Cagliari,CA,39.2305,9.1192
ITA,09125,Cagliari,CA,39.2305,9.1192
ITA,09126,San Bartolomeo,CA,39.2153,9.1392
ITA,09127,Cagliari,CA,39.2305,9.1192
ITA,09128,Cagliari,CA,39.2305,9.1192
ITA,09129,Cagliari,CA,39.2305,9.1192
ITA,09131,Cagliari,CA,39.2305,9.1192
ITA,09134,Pirri,CA,39.2383,9.1235
ITA,09170,Donigala Fenughedu,OR,39.9221,8.5868
ITA,10010,Banchette,TO,45.4432,7.8585
ITA,10011,Aglie',TO,45.368,7.768
ITA,10012,Bollengo,TO,45.4716,7.9413
ITA,10013,Borgofranco D'Ivrea,TO,45.5115,7.8434
ITA,10014,Rodallo,TO,45.2809,7.8835
ITA,10015,Ivrea,TO,45.4672,7.8762
ITA,10016,Montalto Dora,TO,45.4899,7.8625
ITA,10017,Montanaro,TO,45.2327,7.8549
ITA,10018,Pavone Canavese,TO,45.4419,7.8529
ITA,10019,Strambino,TO,45.3788,7.8959
ITA,10020,Pecetto Torinese,TO,45.0814,7.92
ITA,10022,San Bernardo Carmagnola,TO,44.8431,7.727
ITA,10023,Chieri,TO,44.9878,7.8312
ITA,10024,Colle Della Maddalena,TO,44.992,7.6893
ITA,10025,Pino Torinese,TO,45.0395,7.7771
ITA,10026,Santena,TO,44.9462,7.773
ITA,10028,Trofarello,TO,44.9824,7.7469
ITA,10029,Villastellone,TO,44.922,7.7436
ITA,10030,Vische,TO,45.339,7.9643
ITA,10031,Borgomasino,TO,45.362,7.9881
ITA,10032,Brandizzo,TO,45.1771,7.8358
ITA,10034,Torassi,TO,45.2084,7.9094
ITA,10035,Mazze',TO,45.3241,7.9598
ITA,10036,Olimpia,TO,45.1324,7.7503
ITA,10037,Torrazza Piemonte,TO,45.2154,7.9767
ITA,10038,Verolengo,TO,45.2013,7.9795
ITA,10040,Tedeschi,TO,45.0688,7.5372
ITA,10041,Ceretto Di Carignano,TO,44.9256,7.5832
ITA,10042,Stupinigi,TO,44.9978,7.6289
ITA,10043,Orbassano,TO,45.0055,7.5381
ITA,10044,Pianezza,TO,45.1042,7.55
ITA,10045,Garola,TO,44.9901,7.4766
ITA,10046,Poirino,TO,44.9187,7.8343
ITA,10048,Garino,TO,44.96,7.6249
ITA,10050,Zoie,TO,45.1097,7.0927
ITA,10051,Avigliana,TO,45.106,7.3262
ITA,10052,Bardonecchia,TO,45.0746,6.6989
ITA,10053,Foresto,TO,45.1422,7.2916
ITA,10054,Bousson,TO,44.9524,6.8211
ITA,10055,Condove,TO,45.1159,7.3086
ITA,10056,Beaulard,TO,45.0403,6.7964
ITA,10057,Sant'Ambrogio Di Torino,TO,45.0962,7.366
ITA,10058,Colle Sestriere,TO,44.958,6.8767
ITA,10059,Mompantero,TO,45.1437,7.0479
ITA,10060,Campiglione Fenile,TO,44.907,7.2776
ITA,10061,Cavour,TO,44.7929,7.3744
ITA,10062,Luserna,TO,44.8232,7.2712
ITA,10063,Perosa Argentina,TO,44.9575,7.1865
ITA,10064,Abbadia Alpina,TO,44.8726,7.3571
ITA,10065,San Germano Chisone,TO,44.9051,7.2137
ITA,10066,Torre Pellice,TO,44.821,7.2167
ITA,10067,Vigone,TO,44.8424,7.4977
ITA,10068,Villafranca Piemonte,TO,44.7882,7.5079
ITA,10069,Villar Perosa,TO,44.9185,7.2482
ITA,10070,Monasterolo Torinese,TO,45.2779,7.4487
ITA,10071,Borgaro Torinese,TO,45.1512,7.6554
ITA,10072,Mappano,TO,45.1746,7.6429
ITA,10073,Cirie',TO,45.2349,7.6013
ITA,10074,Lanzo Torinese,TO,45.2766,7.4823
ITA,10075,Mathi,TO,45.2552,7.542
ITA,10076,San Giovanni,TO,45.1294,7.4723
ITA,10077,Ceretta Di San Maurizio Canavese,TO,45.2088,7.6463
ITA,10078,Altessano,TO,45.1297,7.6407
ITA,10080,Chiesanuova,TO,45.4101,7.6483
ITA,10081,Campo Canavese,TO,45.4057,7.7145
ITA,10082,Salto Canavese,TO,45.3998,7.6549
ITA,10083,Favria,TO,45.331,7.6883
ITA,10084,Forno Canavese,TO,45.3429,7.5895
ITA,10085,Pont Canavese,TO,45.399,7.6556
ITA,10086,Argentera,TO,45.3102,7.7218
ITA,10087,Valperga,TO,45.37,7.6612
ITA,10088,Volpiano,TO,45.1994,7.7755
ITA,10090,Castiglione Torinese,TO,45.1507,7.6859
ITA,10091,Alpignano,TO,45.0935,7.5239
ITA,10092,Beinasco,TO,45.0144,7.5921
ITA,10093,Leumann,TO,45.0864,7.5886
ITA,10094,Pontepietra,TO,45.0327,7.2919
ITA,10095,Gerbido,TO,45.0546,7.6046
ITA,10098,Bruere,TO,45.0621,7.5277
ITA,10099,San Mauro Torinese,TO,45.1036,7.768
ITA,10100,Torino,TO,45.0705,7.6868
ITA,10121,Torino,TO,45.0705,7.6868
ITA,10122,Torino,TO,45.0705,7.6868
ITA,10123,Torino,TO,45.0705,7.6868
ITA,10124,Torino,TO,45.0705,7.6868
ITA,10125,Torino,TO,45.0705,7.6868
ITA,10126,Torino,TO,45.0705,7.6868
ITA,10127,Torino,TO,45.0705,7.6868
ITA,10128,Torino,TO,45.0705,7.6868
ITA,10129,Torino,TO,45.0705,7.6868
ITA,10131,Torino,TO,45.0705,7.6868
ITA,10132,Torino,TO,45.0769,7.7267
ITA,10133,Torino,TO,45.051,7.6895
ITA,10134,Torino,TO,45.0705,7.6868
ITA,10135,Torino,TO,45.0705,7.6868
ITA,10136,Torino,TO,45.0705,7.6868
ITA,10137,Torino,TO,45.0705,7.6868
ITA,10138,Torino,TO,45.0705,7.6868
ITA,10139,Torino,TO,45.0705,7.6868
ITA,10141,Torino,TO,45.0705,7.6868
ITA,10142,Torino,TO,45.0705,7.6868
ITA,10143,Torino,TO,45.0705,7.6868
ITA,10144,Torino,TO,45.0705,7.6868
ITA,10145,Torino,TO,45.0705,7.6868
ITA,10146,Torino,TO,45.0705,7.6868
ITA,10147,Torino,TO,45.0705,7.6868
ITA,10148,Torino,TO,45.0705,7.6868
ITA,10149,Torino,TO,45.0705,7.6868
ITA,10151,Torino,TO,45.0705,7.6868
ITA,10152,Torino,TO,45.0705,7.6868
ITA,10153,Torino,TO,45.0705,7.6868
ITA,10154,Torino,TO,45.0705,7.6868
ITA,10155,Torino,TO,45.0705,7.6868
ITA,10156,Bertolla Barca,TO,45.0936,7.6934
ITA,11010,Saint Nicolas,AO,45.746,7.2362
ITA,11011,Leverogne,AO,45.6917,7.1308
ITA,11012,Gimillian,AO,45.6181,7.3416
ITA,11013,La Saxe,AO,45.7991,6.9616
ITA,11014,Etroubles,AO,45.8226,7.2226
ITA,11015,La Salle,AO,45.7363,7.0806
ITA,11016,La Thuile,AO,45.7137,6.951
ITA,11017,Morgex,AO,45.7566,7.0412
ITA,11018,Villeneuve,AO,45.702,7.2068
ITA,11020,Challand Saint Victor,AO,45.7237,7.5771
ITA,11021,Breuil Cervinia,AO,45.9336,7.6326
ITA,11022,Brusson,AO,45.7596,7.7252
ITA,11023,Chambave,AO,45.7443,7.5493
ITA,11024,Chatillon,AO,45.7414,7.6056
ITA,11025,Gressoney Saint Jean,AO,45.7364,7.5927
ITA,11026,Pont Saint Martin,AO,45.7364,7.5927
ITA,11027,Moron,AO,45.7517,7.6663
ITA,11028,Paquier,AO,45.8775,7.625
ITA,11029,Verres,AO,45.671,7.681
ITA,11100,Signayes,AO,45.7586,7.3128
ITA,12010,Santa Croce Cervasca,CN,44.3406,7.3293
ITA,12011,Aradolo La Bruna,CN,44.3433,7.5033
ITA,12012,Boves,CN,44.3388,7.5625
ITA,12013,Chiusa Di Pesio,CN,44.2954,7.6688
ITA,12014,Demonte,CN,44.3083,7.3216
ITA,12015,Limone Piemonte,CN,44.2009,7.5786
ITA,12016,Santa Margherita,CN,44.3405,7.6111
ITA,12017,Robilante,CN,44.2929,7.5137
ITA,12018,Brignola Sottana,CN,44.3047,7.4653
ITA,12019,Vernante,CN,44.2445,7.5345
ITA,12020,Bellino,CN,44.5198,7.2919
ITA,12021,Acceglio,CN,44.4746,6.9909
ITA,12022,Busca,CN,44.4915,7.4757
ITA,12023,Caraglio,CN,44.4173,7.4328
ITA,12024,Costigliole Saluzzo,CN,44.5645,7.4854
ITA,12025,Montemale Di Cuneo,CN,44.4511,7.3689
ITA,12026,Piasco,CN,44.5611,7.4442
ITA,12027,Pradleves,CN,44.4179,7.2815
ITA,12028,Prazzo,CN,44.5001,7.0683
ITA,12029,Lottulo,CN,44.4943,7.2364
ITA,12030,Rifreddo Di Saluzzo,CN,44.6939,7.498
ITA,12031,Bagnolo Piemonte,CN,44.7603,7.3139
ITA,12032,Barge,CN,44.7279,7.3228
ITA,12033,Moretta,CN,44.7614,7.5363
ITA,12034,Paesana,CN,44.6833,7.2757
ITA,12035,Racconigi,CN,44.766,7.6789
ITA,12036,Staffarda,CN,44.6879,7.4132
ITA,12037,Saluzzo,CN,44.6618,7.4809
ITA,12038,Savigliano,CN,44.6028,7.6395
ITA,12039,Villanovetta,CN,44.5959,7.4979
ITA,12040,Sommariva Perno,CN,44.6761,7.8605
ITA,12041,Isola Di Bene Vagienna,CN,44.5218,7.8155
ITA,12042,Bra,CN,44.7024,7.8568
ITA,12043,Valpone,CN,44.7999,8.0076
ITA,12044,San Biagio,CN,44.4816,7.597
ITA,12045,San Sebastiano Della Comunia,CN,44.525,7.6709
ITA,12046,San Rocco Monta',CN,44.7862,7.9532
ITA,12047,Rocca De' Baldi,CN,44.4268,7.753
ITA,12048,Sommariva Del Bosco,CN,44.7726,7.7818
ITA,12049,Trinita',CN,44.739,7.9107
ITA,12050,Benevello,CN,44.644,8.0824
ITA,12051,Alba,CN,44.7088,8.0344
ITA,12052,Borgonuovo Di Neive,CN,44.7178,8.1259
ITA,12053,Castiglione Tinella,CN,44.7253,8.1901
ITA,12054,Cossano Belbo,CN,44.6688,8.1986
ITA,12055,Diano D'Alba,CN,44.6513,8.0326
ITA,12056,San Donato Di Mango,CN,44.6706,8.1533
ITA,12058,Valdivilla,CN,44.7099,8.2077
ITA,12060,Gallo,CN,44.5384,7.9463
ITA,12061,Carru',CN,44.4797,7.8724
ITA,12062,Roreto,CN,44.6559,7.8347
ITA,12063,Dogliani,CN,44.5333,7.9451
ITA,12064,Rivalta,CN,44.6507,7.9231
ITA,12065,Perno,CN,44.5978,7.9718
ITA,12066,Monticello D'Alba,CN,44.7139,7.9524
ITA,12068,Narzole,CN,44.5944,7.8676
ITA,12069,Cinzano,CN,44.7077,7.92
ITA,12070,Sale Delle Langhe,CN,44.387,8.0805
ITA,12071,Massimino,SV,44.3018,8.0583
ITA,12072,Camerana,CN,44.424,8.1414
ITA,12073,Ceva,CN,44.4011,8.025
ITA,12074,Cortemilia,CN,44.5641,8.1884
ITA,12075,Garessio Borgo Piave,CN,44.198,8.0095
ITA,12076,Lesegno,CN,44.4011,7.9694
ITA,12077,Prunetto,CN,44.4772,8.1314
ITA,12078,Ponte Di Nava,CN,44.137,7.8987
ITA,12079,Saliceto,CN,44.4133,8.1686
ITA,12080,Santuario Di Vicoforte,CN,44.3351,7.8645
ITA,12081,Beinette,CN,44.3639,7.6446
ITA,12082,Corsaglia,CN,44.2555,7.826
ITA,12083,Gosi Pianvignale,CN,44.3194,7.7878
ITA,12084,Breo,CN,44.4136,7.8201
ITA,12087,Pamparato,CN,44.2693,7.9056
ITA,12088,Prea Di Roccaforte,CN,44.2947,7.7321
ITA,12089,Villanova Mondovi',CN,44.348,7.7675
ITA,12100,Roata Rossi,CN,44.4467,7.5241
ITA,13010,Postua,VC,45.4303,8.4062
ITA,13011,Bettole Sesia,VC,45.7296,8.2668
ITA,13012,Borgo Vercelli,VC,45.3192,8.4712
ITA,13017,Quarona,VC,45.7633,8.2632
ITA,13018,Valduggia,VC,45.7353,8.3364
ITA,13019,Varallo,VC,45.813,8.2425
ITA,13020,Ca' Di Ianzo,VC,45.8221,8.1313
ITA,13021,Alagna Valsesia,VC,45.8518,7.9375
ITA,13022,Fervento,VC,45.8357,8.0975
ITA,13023,Campertogno,VC,45.7988,8.0321
ITA,13024,Cellio,VC,45.7551,8.3119
ITA,13025,Cervatto,VC,45.8865,8.1602
ITA,13026,Rima San Giuseppe,VC,45.8844,8.0569
ITA,13027,Scopa,VC,45.793,8.114
ITA,13028,Scopello,VC,45.7737,8.0943
ITA,13030,Collobiano,VC,45.3967,8.3628
ITA,13031,Arborio,VC,45.4959,8.3876
ITA,13032,Asigliano Vercellese,VC,45.2615,8.4085
ITA,13033,Costanzana,VC,45.2374,8.3694
ITA,13034,Desana,VC,45.2776,8.3509
ITA,13035,Lenta,VC,45.5569,8.384
ITA,13036,Ronsecco,VC,45.2528,8.2775
ITA,13037,Bornate Sesia,VC,45.6717,8.3228
ITA,13038,Tricerro,VC,45.2357,8.3275
ITA,13039,Trino,VC,45.1954,8.2962
ITA,13040,Fornace Crocicchio,VC,45.3408,8.1767
ITA,13041,Bianze',VC,45.3075,8.122
ITA,13043,Cigliano,VC,45.308,8.0232
ITA,13044,San Silvestro,VC,45.2021,8.1246
ITA,13045,Lozzolo,VC,45.616,8.3437
ITA,13046,Lamporo,VC,45.2568,8.0882
ITA,13047,San Germano Vercellese,VC,45.3572,8.2785
ITA,13048,Santhia',VC,45.3679,8.1701
ITA,13049,Tronzano Vercellese,VC,45.3423,8.1737
ITA,13060,Roasio,VC,45.6003,8.2818
ITA,13100,Cappuccini,VC,45.3003,8.4254
ITA,13811,Tavigliano,BI,45.6221,8.0517
ITA,13812,Balma Biellese,BI,45.6662,7.9931
ITA,13814,Pollone,BI,45.5798,8.0059
ITA,13815,Rosazza,BI,45.6758,7.9771
ITA,13816,Sagliano Micca,BI,45.6197,8.044
ITA,13817,Sordevolo,BI,45.5735,7.9734
ITA,13818,Tollegno,BI,45.5908,8.0509
ITA,13821,Camandona,BI,45.6236,8.0981
ITA,13822,Mosso,BI,45.6501,8.1376
ITA,13823,Fontanella Ozino,BI,45.6254,8.1448
ITA,13824,Veglio,BI,45.6406,8.1141
ITA,13825,Valle Mosso,BI,45.6189,8.132
ITA,13831,Mezzana Mortigliengo,BI,45.6266,8.1895
ITA,13833,Portula,BI,45.6751,8.1724
ITA,13834,Soprana,BI,45.6395,8.1989
ITA,13835,Giardino,BI,45.6575,8.1578
ITA,13836,Ponte Guelpa,BI,45.5514,8.1861
ITA,13841,Bioglio,BI,45.6175,8.1117
ITA,13843,Pettinengo,BI,45.6084,8.092
ITA,13844,Piatto,BI,45.5895,8.1245
ITA,13845,Ronco Biellese,BI,45.5785,8.0907
ITA,13847,Valle San Nicolao,BI,45.6052,8.1457
ITA,13848,Zumaglia,BI,45.5939,8.0894
ITA,13851,Castelletto Cervo,BI,45.5214,8.2254
ITA,13852,Cerreto Castello,BI,45.5645,8.1608
ITA,13853,Lessona,BI,45.5429,8.1672
ITA,13854,Quaregna,BI,45.5812,8.1637
ITA,13855,Valdengo,BI,45.5671,8.1383
ITA,13856,Vigliano Biellese,BI,45.5632,8.1051
ITA,13861,Ailoche,BI,45.6981,8.2213
ITA,13862,Brusnengo,BI,45.5901,8.2522
ITA,13863,Coggiola,BI,45.6864,8.1825
ITA,13864,Caprile,BI,45.6339,8.1693
ITA,13865,Curino,BI,45.6272,8.2362
ITA,13866,Masserano,BI,45.6056,8.209
ITA,13867,Pray,BI,45.6753,8.2067
ITA,13868,Villa Del Bosco,BI,45.6348,8.2738
ITA,13871,Benna,BI,45.5118,8.1196
ITA,13872,Borriana,BI,45.5078,8.0386
ITA,13873,Massazza,BI,45.4918,8.1649
ITA,13874,Gifflenga,BI,45.4967,8.2215
ITA,13875,Ponderano,BI,45.5385,8.0559
ITA,13876,Sandigliano,BI,45.522,8.0766
ITA,13877,Villanova Biellese,BI,45.4816,8.1943
ITA,13878,Candelo,BI,45.5409,8.1066
ITA,13881,Dorzano,BI,45.4161,8.095
ITA,13882,Magnonevolo,BI,45.4767,8.0821
ITA,13883,Roppolo,BI,45.4206,8.0697
ITA,13884,Sala Biellese,BI,45.5037,7.9561
ITA,13885,Salussola,BI,45.4443,8.1226
ITA,13886,Viverone,BI,45.4273,8.0494
ITA,13887,Zimone,BI,45.4563,8.0202
ITA,13888,Ceresane,BI,45.5174,8.0042
ITA,13891,Camburzano,BI,45.5439,8.0023
ITA,13893,Donato,BI,45.5263,7.9096
ITA,13894,Gaglianico,BI,45.5372,8.0784
ITA,13895,Graglia Bagni,BI,45.5603,7.9764
ITA,13896,Netro,BI,45.54,7.947
ITA,13897,Occhieppo Inferiore,BI,45.5501,8.021
ITA,13898,Occhieppo Superiore,BI,45.564,8.0062
ITA,13899,Pralungo,BI,45.59,8.0398
ITA,13900,Barazzetto,BI,45.5931,8.0275
ITA,14010,Dusino San Michele,AT,44.8872,8.0475
ITA,14011,Baldichieri D'Asti,AT,44.9059,8.0916
ITA,14012,Ferrere,AT,44.8761,7.9942
ITA,14013,Monale,AT,44.9406,8.0682
ITA,14014,Montafia,AT,44.9964,8.0168
ITA,14015,San Pietro,AT,44.8484,8.0519
ITA,14016,Pratomorone,AT,44.8788,8.0801
ITA,14017,Valfenera,AT,44.9017,7.9643
ITA,14018,Maretto,AT,44.9374,8.0292
ITA,14019,Villanova D'Asti,AT,44.9526,7.943
ITA,14020,Serravalle D'Asti,AT,45.0338,8.0609
ITA,14021,Buttigliera D'Asti,AT,45.0217,7.951
ITA,14022,Mondonio San Domenico Savio,AT,45.0431,7.9749
ITA,14023,Moransengo,AT,45.1051,8.0301
ITA,14024,Moncucco Torinese,AT,45.0674,7.9325
ITA,14025,Chiusano D'Asti,AT,44.9968,8.1157
ITA,14026,Montiglio Monferrato,AT,45.0487,8.0996
ITA,14030,Valenzani,AT,44.9398,8.2988
ITA,14031,San Desiderio,AT,44.9994,8.2788
ITA,14032,Casorzo,AT,45.0216,8.3384
ITA,14033,Castell'Alfero Stazione,AT,44.9748,8.2086
ITA,14034,Monfallito,AT,44.8912,8.3183
ITA,14035,Grazzano Badoglio,AT,45.04,8.311
ITA,14036,Moncalvo,AT,45.0506,8.2628
ITA,14037,Castiglione D'Asti,AT,44.9447,8.2712
ITA,14039,Tonco,AT,45.0234,8.1894
ITA,14040,Cortiglione,AT,44.7833,8.352
ITA,14041,Agliano Terme,AT,44.7909,8.2508
ITA,14042,Calamandrana,AT,44.7226,8.3413
ITA,14043,Castelnuovo Belbo,AT,44.8011,8.4124
ITA,14044,Castel Rocchero,AT,44.7356,8.4183
ITA,14045,Ghiare,AT,44.8277,8.3442
ITA,14046,Bruno,AT,44.7804,8.43
ITA,14047,Mombercelli,AT,44.8178,8.2947
ITA,14048,Montegrosso D'Asti Stazione,AT,44.8255,8.2483
ITA,14049,Vaglio Serra,AT,44.7853,8.3484
ITA,14050,Cessole,AT,44.6633,8.2645
ITA,14051,Bubbio,AT,44.6662,8.2768
ITA,14052,Calosso,AT,44.7399,8.2271
ITA,14053,Canelli Recapito Gancia,AT,44.7286,8.2782
ITA,14054,San Bartolomeo Lanze,AT,44.7472,8.1392
ITA,14055,Costigliole D'Asti,AT,44.7854,8.1773
ITA,14057,Piano,AT,44.8325,8.1805
ITA,14058,Sessame,AT,44.6596,8.3317
ITA,14059,Vesime,AT,44.6231,8.2346
ITA,14100,Valgera,AT,44.9182,8.1831
ITA,15010,Montechiaro Denice,AL,44.6535,8.4693
ITA,15011,Acqui Terme,AL,44.6874,8.4554
ITA,15012,Bistagno,AL,44.6606,8.3716
ITA,15013,Borgoratto Alessandrino,AL,44.8362,8.5385
ITA,15014,Cantalupo,AL,44.8669,8.5529
ITA,15015,Cartosio,AL,44.5748,8.4168
ITA,15016,Cassine,AL,44.7499,8.5264
ITA,15017,Castelnuovo Bormida,AL,44.7424,8.5506
ITA,15018,Spigno Monferrato,AL,44.5431,8.3339
ITA,15019,Strevi,AL,44.6999,8.5247
ITA,15020,Cerrina Monferrato,AL,45.0993,8.2551
ITA,15021,Alfiano Natta,AL,45.0476,8.2063
ITA,15022,Bergamasco,AL,44.8272,8.4547
ITA,15023,Felizzano,AL,44.8993,8.4358
ITA,15024,Abbazia,AL,44.8491,8.5355
ITA,15025,Morano Sul Po,AL,45.1662,8.3667
ITA,15026,Carentino,AL,44.845,8.4795
ITA,15027,Pontestura,AL,45.1425,8.3332
ITA,15028,Piepasso,AL,44.9114,8.3953
ITA,15029,Solero,AL,44.9184,8.5075
ITA,15030,Coniolo,AL,45.0695,8.4165
ITA,15031,Balzola,AL,45.1836,8.4028
ITA,15032,Borgo San Martino,AL,45.0926,8.5237
ITA,15033,Santa Maria Del Tempio,AL,45.0983,8.5015
ITA,15034,Cella Monte,AL,45.0741,8.3915
ITA,15035,Frassinello Monferrato,AL,45.0332,8.3867
ITA,15036,Giarole,AL,45.0615,8.5673
ITA,15038,Ottiglio,AL,45.0543,8.3398
ITA,15039,Ozzano Monferrato,AL,45.1059,8.3724
ITA,15040,Valmadonna,AL,45.004,8.6132
ITA,15041,Franchini,AL,44.979,8.382
ITA,15042,Mugarone,AL,44.9946,8.7082
ITA,15043,Fubine,AL,44.963,8.4281
ITA,15044,Quargnento,AL,44.9457,8.4882
ITA,15045,Sale,AL,44.9793,8.8096
ITA,15046,San Salvatore Monferrato,AL,44.9949,8.5664
ITA,15048,Monte,AL,45.0354,8.6079
ITA,15049,Vignale Monferrato,AL,45.01,8.397
ITA,15050,Brignano Frascata,AL,44.8679,8.9373
ITA,15051,Castellania,AL,44.7985,8.9304
ITA,15052,Casalnoceto,AL,44.9133,8.9838
ITA,15053,Castelnuovo Scrivia,AL,44.9793,8.8825
ITA,15054,Garadassi,AL,44.7556,9.15
ITA,15055,Pontecurone,AL,44.9588,8.9329
ITA,15056,San Sebastiano Curone,AL,44.7831,9.0738
ITA,15057,Passalacqua,AL,44.8685,8.8366
ITA,15058,Viguzzolo,AL,44.9057,8.9197
ITA,15059,Volpedo,AL,44.8867,8.9801
ITA,15060,Cosola Di Cabella,AL,44.6887,8.8785
ITA,15061,Arquata Scrivia,AL,44.6883,8.8868
ITA,15062,Donna,AL,44.8298,8.7227
ITA,15063,Cassano Spinola,AL,44.7708,8.8741
ITA,15064,Fresonara,AL,44.7829,8.6861
ITA,15065,Frugarolo,AL,44.8392,8.6816
ITA,15066,Gavi,AL,44.6863,8.8072
ITA,15067,Novi Ligure,AL,44.7771,8.8079
ITA,15068,Pozzolo Formigaro,AL,44.7993,8.7836
ITA,15069,Serravalle Scrivia,AL,44.7228,8.8564
ITA,15070,Cassinelle,AL,44.6514,8.6424
ITA,15071,Carpeneto,AL,44.6783,8.6055
ITA,15072,Casal Cermelli,AL,44.8349,8.6249
ITA,15073,Castellazzo Bormida,AL,44.8435,8.579
ITA,15074,Molare,AL,44.6181,8.5996
ITA,15075,Mornese,AL,44.6392,8.7562
ITA,15076,Ovada,AL,44.6111,8.6528
ITA,15077,Predosa,AL,44.7539,8.6381
ITA,15078,Rocca Grimalda,AL,44.6714,8.6485
ITA,15079,Sezzadio,AL,44.7848,8.5725
ITA,15100,Orti,AL,44.8941,8.7103
ITA,15121,Alessandria,AL,44.9092,8.6101
ITA,16010,Valbrevenna,GE,44.5171,8.8995
ITA,16011,Arenzano,GE,44.4052,8.6831
ITA,16012,Sarissola,GE,44.5765,8.9651
ITA,16013,Campo Ligure,GE,44.5366,8.699
ITA,16014,Santuario Della Guardia,GE,44.5073,8.8786
ITA,16015,Orero,GE,44.4718,9.1341
ITA,16016,Cogoleto,GE,44.3987,8.6374
ITA,16017,Isola Del Cantone,GE,44.6478,8.9575
ITA,16018,Mignanego,GE,44.5364,8.9247
ITA,16019,Pieve,GE,44.6015,8.9436
ITA,16020,Fontanarossa,GE,44.5823,9.2549
ITA,16021,Bargagli,GE,44.4475,9.0937
ITA,16022,Davagna,GE,44.4675,9.0916
ITA,16023,Canale Fontanigorda,GE,44.5359,9.2892
ITA,16024,Lumarzo,GE,44.4336,9.1396
ITA,16025,Montebruno,GE,44.5328,9.2214
ITA,16026,Montoggio,GE,44.5101,9.0396
ITA,16027,Propata,GE,44.5649,9.1859
ITA,16028,Casanova,GE,44.5647,9.2963
ITA,16029,Laccio,GE,44.5053,9.1298
ITA,16030,Colonia Arnaldi,GE,44.3438,9.2822
ITA,16031,Poggio Favaro,GE,44.358,9.1699
ITA,16032,San Rocco Di Camogli,GE,44.3334,9.1657
ITA,16033,Cavi,GE,44.2982,9.3671
ITA,16034,Portofino,GE,44.3035,9.2094
ITA,16035,Rapallo,GE,44.3505,9.2187
ITA,16036,Recco,GE,44.3623,9.1435
ITA,16038,Santa Margherita Ligure,GE,44.3282,9.2025
ITA,16039,Pila Sul Gromolo,GE,44.2755,9.4174
ITA,16040,Calvari,GE,44.3924,9.3145
ITA,16041,Prato Sopralacroce,GE,44.4346,9.395
ITA,16042,Rivarola,GE,44.3472,9.357
ITA,16043,Chiavari,GE,44.3272,9.3189
ITA,16044,Cicagna,GE,44.4071,9.2392
ITA,16045,Lorsica,GE,44.4341,9.2768
ITA,16046,Passo Del Bocco,GE,44.3911,9.3781
ITA,16047,Moconesi,GE,44.4238,9.2017
ITA,16048,Cabanne,GE,44.5097,9.3598
ITA,16049,Allegrezze,GE,44.5313,9.448
ITA,16100,Genova,GE,44.4048,8.9444
ITA,16121,Genova,GE,44.4048,8.9444
ITA,16122,Genova,GE,44.4048,8.9444
ITA,16123,Genova,GE,44.4048,8.9444
ITA,16124,Genova,GE,44.4048,8.9444
ITA,16125,Genova,GE,44.4048,8.9444
ITA,16126,Genova,GE,44.4048,8.9444
ITA,16127,Genova,GE,44.4048,8.9444
ITA,16128,Genova,GE,44.4048,8.9444
ITA,16129,Genova,GE,44.4048,8.9444
ITA,16131,Genova,GE,44.4048,8.9444
ITA,16132,Genova,GE,44.4048,8.9444
ITA,16133,Apparizione,GE,44.4167,8.994
ITA,16134,Genova,GE,44.4048,8.9444
ITA,16135,Genova,GE,44.4048,8.9444
ITA,16136,Genova,GE,44.4048,8.9444
ITA,16137,Staglieno,GE,44.4162,8.9468
ITA,16138,Molassana,GE,44.4301,8.9633
ITA,16139,Genova,GE,44.4048,8.9444
ITA,16141,Genova,GE,44.4241,8.9659
ITA,16142,Genova,GE,44.4048,8.9444
ITA,16143,Genova,GE,44.4048,8.9444
ITA,16144,Genova,GE,44.4048,8.9444
ITA,16145,Genova,GE,44.4048,8.9444
ITA,16146,Genova,GE,44.4048,8.9444
ITA,16147,Sturla,GE,44.3999,8.963
ITA,16148,Genova,GE,44.396,8.9744
ITA,16149,Genova,GE,44.408,8.92
ITA,16151,Campasso,GE,44.4125,8.9168
ITA,16152,Coronata,GE,44.4135,8.8978
ITA,16153,Borzoli,GE,44.4209,8.9089
ITA,16154,San Giovanni Battista,GE,44.4211,8.8816
ITA,16155,Multedo,GE,44.4188,8.8623
ITA,16156,Genova,GE,44.4048,8.9444
ITA,16157,Pra',GE,44.4204,8.8353
ITA,16158,Fabbriche,GE,44.4173,8.8465
ITA,16159,Certosa Di Rivarolo Ligure,GE,44.4238,8.9103
ITA,16161,Teglia,GE,44.4319,8.9074
ITA,16162,Genova,GE,44.4311,8.9231
ITA,16163,San Quirico In Val Polcevera,GE,44.4449,8.9225
ITA,16164,Pontedecimo,GE,44.4513,8.9242
ITA,16165,Genova,GE,44.427,8.9781
ITA,16166,Quinto Al Mare,GE,44.3946,8.9819
ITA,16167,Sant'Ilario Ligure,GE,44.3941,8.9889
ITA,17010,Osiglia,SV,44.3647,8.2974
ITA,17011,Albisola Capo,SV,44.3517,8.4879
ITA,17012,Albissola Marina,SV,44.3308,8.5096
ITA,17013,Murialdo,SV,44.345,8.1803
ITA,17014,Bragno,SV,44.3832,8.2967
ITA,17015,Celle Ligure,SV,44.3451,8.5468
ITA,17017,Millesimo,SV,44.3653,8.2096
ITA,17019,Pero,SV,44.3635,8.5141
ITA,17020,Balestrino,SV,44.1453,8.2071
ITA,17021,Alassio,SV,44.0039,8.1671
ITA,17022,Borgio,SV,44.1591,8.3083
ITA,17023,Ceriale,SV,44.0913,8.2289
ITA,17024,Finalborgo,SV,44.1946,8.3372
ITA,17025,Loano,SV,44.1278,8.2574
ITA,17026,Noli,SV,44.2061,8.4146
ITA,17027,Giustenice,SV,44.1611,8.2626
ITA,17028,Spotorno,SV,44.2347,8.4085
ITA,17030,Castelbianco,SV,44.1217,8.0705
ITA,17031,Leca,SV,44.0559,8.1887
ITA,17032,Vendone,SV,44.0776,8.0892
ITA,17033,Garlenda,SV,44.0328,8.0826
ITA,17034,Castelvecchio Di Rocca Barbena,SV,44.1298,8.1166
ITA,17035,Cisano Sul Neva,SV,44.071,8.1183
ITA,17037,Pogli,SV,44.06,8.0726
ITA,17038,Villanova D'Albenga,SV,44.0473,8.1434
ITA,17039,Zuccarello,SV,44.1097,8.1181
ITA,17040,Mioglia,SV,44.4921,8.4143
ITA,17041,Cadibona,SV,44.3333,8.3565
ITA,17042,Pontinvrea,SV,44.442,8.4362
ITA,17043,Piani,SV,44.3466,8.2683
ITA,17044,Santa Giustina,SV,44.3602,8.4251
ITA,17045,Bormida,SV,44.2837,8.2646
ITA,17046,Palo,SV,44.478,8.541
ITA,17047,Valleggia,SV,44.2807,8.4259
ITA,17048,Vara,SV,44.4794,8.6
ITA,17051,Andora,SV,43.9543,8.1479
ITA,17052,Borghetto Santo Spirito,SV,44.1119,8.2413
ITA,17053,Laigueglia,SV,43.9759,8.1582
ITA,17054,Boissano,SV,44.1358,8.2216
ITA,17055,Toirano,SV,44.1273,8.2072
ITA,17056,Cengio,SV,44.3844,8.1976
ITA,17057,Calizzano,SV,44.2297,8.124
ITA,17058,Piana Crixia,SV,44.4648,8.3078
ITA,17100,Zinola,SV,44.3141,8.4543
ITA,18010,Pietrabruna,IM,43.929,7.9081
ITA,18011,Castellaro,IM,43.8644,7.8688
ITA,18012,Piani Di Borghetto,IM,43.806,7.6717
ITA,18013,Diano Castello,IM,43.9286,8.0651
ITA,18014,Ospedaletti,IM,43.8022,7.7183
ITA,18015,Riva Ligure,IM,43.8459,7.8838
ITA,18016,San Bartolomeo Al Mare,IM,43.9231,8.1048
ITA,18017,Costarainera,IM,43.8616,7.9439
ITA,18018,Arma Di Taggia,IM,43.8397,7.8511
ITA,18019,Vallecrosia,IM,43.7974,7.6452
ITA,18020,Prela',IM,43.9892,7.9615
ITA,18021,Borgomaro,IM,43.9753,7.9441
ITA,18022,Arzeno D'Oneglia,IM,44.0148,7.9653
ITA,18023,Cosio Di Arroscia,IM,44.0774,7.8324
ITA,18024,Case Di Nava,IM,44.0844,7.8708
ITA,18025,Mendatica,IM,44.0772,7.7801
ITA,18026,Pieve Di Teco,IM,44.0436,7.9158
ITA,18027,Chiusanico,IM,43.9595,7.997
ITA,18030,Rocchetta Nervina,IM,43.8918,7.5861
ITA,18031,Bajardo,IM,43.904,7.7253
ITA,18032,Perinaldo,IM,43.8669,7.6719
ITA,18033,Camporosso,IM,43.8131,7.6283
ITA,18034,Ceriana,IM,43.8809,7.7748
ITA,18035,Isolabona,IM,43.8703,7.6412
ITA,18036,Soldano,IM,43.8237,7.6538
ITA,18037,Pigna,IM,43.932,7.6612
ITA,18038,Verezzo,IM,43.838,7.767
ITA,18039,Sant'Antonio,IM,43.8116,7.5666
ITA,18100,Prela',IM,43.8973,7.998
ITA,19010,Maissana,SP,44.3189,9.5509
ITA,19011,Bonassola,SP,44.1832,9.5842
ITA,19012,Castello,SP,44.2775,9.605
ITA,19013,Deiva Marina,SP,44.2193,9.5206
ITA,19014,Framura,SP,44.2095,9.554
ITA,19015,Montale,SP,44.1805,9.6214
ITA,19016,Monterosso Al Mare,SP,44.1467,9.6549
ITA,19017,Riomaggiore,SP,44.1035,9.7339
ITA,19018,Vernazza,SP,44.1275,9.6958
ITA,19020,Beverino,SP,44.1963,9.7898
ITA,19021,Romito Magra,SP,44.1081,9.9218
ITA,19025,Le Grazie Varignano,SP,44.0661,9.8314
ITA,19028,Porciorasco,SP,44.3752,9.5591
ITA,19030,Fiumaretta,SP,44.0528,9.9894
ITA,19031,Montemarcello,SP,44.0577,9.979
ITA,19032,San Terenzo,SP,44.1055,9.8939
ITA,19033,Molicciara,SP,44.0915,10.0126
ITA,19034,Serravalle,SP,44.0743,10.0258
ITA,19037,Ponzano Magra,SP,44.1552,9.9369
ITA,19038,Sarzana,SP,44.1157,9.9363
ITA,19100,La Spezia,SP,44.103,9.8238
ITA,19121,Laspezia,SP,44.1188,9.8192
ITA,19122,Laspezia,SP,44.1188,9.8192
ITA,19123,Laspezia,SP,44.1167,9.8083
ITA,19124,La Spezia,SP,44.103,9.8238
ITA,19125,Migliarina,SP,44.1188,9.8192
ITA,19126,Isola,SP,44.1388,9.8364
ITA,19131,Laspezia,SP,44.1017,9.8336
ITA,19132,Campiglia,SP,44.0746,9.7952
ITA,19133,Biassa,SP,44.0967,9.7753
ITA,19134,La Foce,SP,44.1253,9.7881
ITA,19135,San Venerio,SP,44.1017,9.8336
ITA,19136,Termo,SP,44.1182,9.8827
ITA,19137,Pitelli,SP,44.0946,9.8849
ITA,19138,San Bartolomeo,SP,44.0888,9.8743
ITA,19139,Muggiano,SP,44.0902,9.88
ITA,20010,Casorezzo,MI,45.5086,8.918
ITA,20011,Corbetta,MI,45.4672,8.9187
ITA,20012,Cuggiono,MI,45.5068,8.8155
ITA,20013,Magenta,MI,45.4646,8.8845
ITA,20014,Nerviano,MI,45.5534,8.9792
ITA,20015,Parabiago,MI,45.55,8.95
ITA,20016,Pero,MI,45.5102,9.087
ITA,20017,Lucernate,MI,45.5402,9.0422
ITA,20018,Sedriano,MI,45.491,8.9716
ITA,20019,Vighignolo,MI,45.4866,9.0494
ITA,20020,Bienate,MI,45.5589,8.9253
ITA,20021,Cassina Nuova,MI,45.5368,9.1189
ITA,20022,Castano Primo,MI,45.5518,8.7756
ITA,20023,Cantalupo,MI,45.5859,8.9685
ITA,20024,Villaggio Garbagnate,MI,45.5744,9.0754
ITA,20025,Legnano,MI,45.5979,8.9151
ITA,20026,Novate Milanese,MI,45.5305,9.1395
ITA,20027,Rescalda,MI,45.62,8.9488
ITA,20028,San Vittore Olona,MI,45.5858,8.9413
ITA,20029,Turbigo,MI,45.5308,8.7367
ITA,20030,Senago,MI,45.5756,9.1262
ITA,20032,Cormano,MI,45.5404,9.1623
ITA,20037,Paderno Dugnano,MI,45.569,9.1648
ITA,20040,Velate Milanese,MI,45.5692,9.4117
ITA,20056,Concesa,MI,45.5982,9.5057
ITA,20060,Vigliano,MI,45.4978,9.4125
ITA,20061,Carugate,MI,45.5498,9.3404
ITA,20062,Groppello D'Adda,MI,45.5161,9.5236
ITA,20063,Cernusco Sul Naviglio,MI,45.5253,9.333
ITA,20064,Gorgonzola,MI,45.5307,9.4053
ITA,20065,Inzago,MI,45.5399,9.4834
ITA,20066,Melzo,MI,45.4981,9.4204
ITA,20067,Tribiano,MI,45.4158,9.3886
ITA,20068,Linate Paese,MI,45.4253,9.2638
ITA,20069,Vaprio D'Adda,MI,45.5764,9.5241
ITA,20070,Vizzolo Predabissi,MI,45.348,9.3465
ITA,20077,Melegnano,MI,45.3578,9.3236
ITA,20078,San Colombano Al Lambro,MI,45.1832,9.4903
ITA,20080,San Pietro Cusico,MI,45.3548,9.0537
ITA,20081,Abbiategrasso,MI,45.3915,8.9264
ITA,20082,Santa Corinna,MI,45.3434,9.0784
ITA,20083,Gaggiano,MI,45.4014,9.026
ITA,20084,Lacchiarella,MI,45.3229,9.1378
ITA,20085,Locate Di Triulzi,MI,45.3569,9.2252
ITA,20086,Motta Visconti,MI,45.2877,8.9925
ITA,20087,Robecco Sul Naviglio,MI,45.4365,8.8848
ITA,20088,Rosate,MI,45.3619,9.0084
ITA,20089,Rozzano,MI,45.3883,9.1626
ITA,20090,Zingone,MI,45.4385,9.2341
ITA,20091,Bresso,MI,45.5379,9.1892
ITA,20092,Cinisello Balsamo,MI,45.5582,9.2149
ITA,20093,Cologno Monzese,MI,45.53,9.278
ITA,20094,Corsico,MI,45.431,9.1109
ITA,20095,Cusano Milanino,MI,45.5519,9.1837
ITA,20096,Seggiano,MI,45.4907,9.3273
ITA,20097,Metanopoli,MI,45.4047,9.2511
ITA,20098,Borgo Lombardo,MI,45.395,9.2702
ITA,20099,Sesto San Giovanni,MI,45.5333,9.2258
ITA,20121,Milano,MI,45.4643,9.1895
ITA,20122,Milano,MI,45.4643,9.1895
ITA,20123,Milano,MI,45.4643,9.1895
ITA,20124,Milano,MI,45.4643,9.1895
ITA,20125,Gorla,MI,45.4833,9.2002
ITA,20126,Milano,MI,45.4643,9.1895
ITA,20127,Milano,MI,45.486,9.2187
ITA,20128,Milano,MI,45.4643,9.1895
ITA,20129,Milano,MI,45.4643,9.1895
ITA,20131,Milano,MI,45.4643,9.1895
ITA,20132,Milano,MI,45.4643,9.1895
ITA,20133,Milano,MI,45.4643,9.1895
ITA,20134,Milano,MI,45.4733,9.2152
ITA,20135,Milano,MI,45.4643,9.1895
ITA,20136,Milano,MI,45.4643,9.1895
ITA,20137,Milano,MI,45.4643,9.1895
ITA,20138,Rogoredo,MI,45.4478,9.2172
ITA,20139,Chiaravalle Milanese,MI,45.4643,9.1895
ITA,20141,Milano,MI,45.4643,9.1895
ITA,20142,Milano,MI,45.4383,9.1805
ITA,20143,Barona,MI,45.4507,9.1719
ITA,20144,Milano,MI,45.4643,9.1895
ITA,20145,Milano,MI,45.4643,9.1895
ITA,20146,Milano,MI,45.4643,9.1895
ITA,20147,Milano,MI,45.4643,9.1895
ITA,20148,Milano,MI,45.4643,9.1895
ITA,20149,Milano,MI,45.4643,9.1895
ITA,20151,Musocco,MI,45.4846,9.158
ITA,20152,Baggio,MI,45.4618,9.1406
ITA,20153,Trenno,MI,45.4784,9.1336
ITA,20154,Milano,MI,45.4643,9.1895
ITA,20155,Milano,MI,45.4643,9.1895
ITA,20156,Milano,MI,45.4643,9.1895
ITA,20157,Vialba,MI,45.4905,9.163
ITA,20158,Milano,MI,45.4643,9.1895
ITA,20159,Milano,MI,45.4643,9.1895
ITA,20161,Affori,MI,45.4959,9.1815
ITA,20162,Niguarda,MI,45.4643,9.1895
ITA,20811,Villaggio Snia,MB,45.6206,9.1291
ITA,20812,Mombello,MB,45.612,9.1177
ITA,20813,Bovisio-Masciago,MB,45.6102,9.153
ITA,20814,Varedo,MB,45.6077,9.1424
ITA,20815,Cogliate,MB,45.646,9.0788
ITA,20816,Ceriano Laghetto,MB,45.6304,9.0675
ITA,20821,Meda,MB,45.6612,9.1534
ITA,20822,Seveso,MB,45.6558,9.1287
ITA,20823,Lentate Sul Seveso,MB,45.6779,9.1247
ITA,20824,Lazzate,MB,45.6721,9.0842
ITA,20825,Barlassina,MB,45.6556,9.1288
ITA,20826,Misinto,MB,45.6572,9.0729
ITA,20831,Seregno,MB,45.65,9.2055
ITA,20832,Desio,MB,45.6183,9.2025
ITA,20833,Robbiano Di Giussano,MB,45.6928,9.2251
ITA,20834,Nova Milanese,MB,45.5888,9.1979
ITA,20835,Taccona,MB,45.6337,9.2304
ITA,20836,Fornaci,MB,45.7198,9.2456
ITA,20837,Veduggio Con Colzano,MB,45.7339,9.2702
ITA,20838,Renate,MB,45.7244,9.2799
ITA,20841,Carate Brianza,MB,45.6806,9.2378
ITA,20842,Villa Raverio,MB,45.6972,9.2703
ITA,20843,Verano Brianza,MB,45.6887,9.2245
ITA,20844,Canonica,MB,45.665,9.2808
ITA,20845,Sovico,MB,45.646,9.2627
ITA,20846,Macherio,MB,45.6397,9.2739
ITA,20847,Albiate,MB,45.6554,9.2504
ITA,20851,Santa Margherita,MB,45.6232,9.235
ITA,20852,Villasanta,MB,45.6063,9.308
ITA,20853,Biassono,MB,45.6286,9.2712
ITA,20854,Vedano Al Lambro,MB,45.6088,9.2678
ITA,20855,Lesmo,MB,45.6406,9.2946
ITA,20856,Correzzana,MB,45.6666,9.3075
ITA,20857,Camparada,MB,45.6549,9.3233
ITA,20861,Brugherio,MB,45.5769,9.3225
ITA,20862,Arcore,MB,45.6267,9.3245
ITA,20863,Concorezzo,MB,45.5885,9.3339
ITA,20864,Omate,MB,45.5876,9.347
ITA,20865,Usmate Velate,MB,45.6244,9.3542
ITA,20866,Carnate,MB,45.6484,9.3781
ITA,20867,Caponago,MB,45.5665,9.3758
ITA,20871,Vimercate,MB,45.6207,9.3821
ITA,20872,Cornate D'Adda,MB,45.6352,9.4575
ITA,20873,Cavenago Di Brianza,MB,45.583,9.4126
ITA,20874,Busnago,MB,45.6165,9.4637
ITA,20875,Burago Di Molgora,MB,45.5965,9.3816
ITA,20876,Ornago,MB,45.5999,9.421
ITA,20877,Roncello,MB,45.6024,9.455
ITA,20881,Villanova,MB,45.6441,9.3984
ITA,20882,Bellusco,MB,45.6196,9.419
ITA,20883,Mezzago,MB,45.629,9.4449
ITA,20884,Sulbiate,MB,45.6405,9.4276
ITA,20885,Ronco Briantino,MB,45.6663,9.4053
ITA,20886,Aicurzio,MB,45.64,9.4149
ITA,20900,Monza,MB,45.5801,9.2725
ITA,21010,Nasca,VA,45.8681,8.7424
ITA,21011,Casorate Sempione,VA,45.6708,8.7451
ITA,21012,Cassano Magnago,VA,45.6721,8.8269
ITA,21013,Gallarate,VA,45.7084,8.7864
ITA,21014,Laveno Mombello,VA,45.792,8.8028
ITA,21015,Sant'Antonino Ticino,VA,45.5875,8.7334
ITA,21016,Creva,VA,46.0082,8.7549
ITA,21017,Verghera,VA,45.6201,8.7782
ITA,21018,Sesto Calende,VA,45.7514,8.6292
ITA,21019,Malpensa Aeroporto,VA,45.6665,8.6882
ITA,21020,Lomnago,VA,45.789,8.7193
ITA,21021,Angera,VA,45.7755,8.5786
ITA,21022,Azzate,VA,45.778,8.7941
ITA,21023,Besozzo,VA,45.8489,8.6652
ITA,21024,Biandronno,VA,45.8128,8.7088
ITA,21025,Comerio,VA,45.8419,8.7421
ITA,21026,Oltrona Al Lago,VA,45.8371,8.7262
ITA,21027,Ispra Centro Euratom,VA,45.8068,8.6174
ITA,21028,Travedona Monate,VA,45.8043,8.6714
ITA,21029,Cuirone,VA,45.7362,8.7027
ITA,21030,Brissago Valtravaglia,VA,45.9189,8.7617
ITA,21031,Cadegliano Viconago,VA,45.9595,8.8434
ITA,21032,Caravate,VA,45.8786,8.6543
ITA,21033,Cittiglio,VA,45.8959,8.6655
ITA,21034,Trevisago,VA,45.8672,8.6904
ITA,21035,Cunardo,VA,45.9343,8.8077
ITA,21036,Gemonio,VA,45.8788,8.6748
ITA,21037,Lavena Ponte Tresa,VA,45.9671,8.8573
ITA,21038,Sangiano,VA,45.8755,8.627
ITA,21039,Valganna,VA,45.9101,8.8167
ITA,21040,Rovate,VA,45.711,8.8744
ITA,21041,Albizzate,VA,45.727,8.8031
ITA,21042,Caronno Pertusella,VA,45.5978,9.0463
ITA,21043,Gornate Superiore,VA,45.7533,8.8667
ITA,21044,Cavaria Con Premezzo,VA,45.6925,8.803
ITA,21045,Schianno,VA,45.7734,8.8251
ITA,21046,San Salvatore,VA,45.8494,8.885
ITA,21047,Saronno,VA,45.6251,9.0352
ITA,21048,Monte,VA,45.7173,8.818
ITA,21049,Tradate,VA,45.7084,8.9076
ITA,21050,Cantello,VA,45.8128,8.888
ITA,21051,Brenno Useria,VA,45.8587,8.8731
ITA,21052,Sacconago,VA,45.5973,8.8496
ITA,21053,Castellanza,VA,45.6108,8.8962
ITA,21054,Bergoro,VA,45.6698,8.8599
ITA,21055,Gorla Minore,VA,45.6412,8.9026
ITA,21056,Induno Olona,VA,45.8457,8.8406
ITA,21057,Olgiate Olona,VA,45.6371,8.8815
ITA,21058,Solbiate Olona,VA,45.6503,8.882
ITA,21059,Baraggia,VA,45.8392,8.8924
ITA,21061,Maccagno,VA,46.0436,8.7341
ITA,21100,Santa Maria Del Monte,VA,45.8251,8.8085
ITA,22010,Valsolda,CO,46.0498,9.2095
ITA,22011,Griante,CO,45.992,9.2359
ITA,22012,Cernobbio,CO,45.8431,9.0719
ITA,22013,Vercana,CO,46.1562,9.3333
ITA,22014,Dongo,CO,46.13,9.2817
ITA,22015,Gravedona,CO,46.0474,9.2115
ITA,22016,Lenno,CO,45.973,9.1908
ITA,22017,Menaggio,CO,46.0207,9.2391
ITA,22018,Cima,CO,46.0311,9.1102
ITA,22019,Tremezzo,CO,45.9842,9.2161
ITA,22020,Pellio,CO,45.8765,9.0756
ITA,22021,San Giovanni Di Bellagio,CO,45.9877,9.2618
ITA,22022,Casasco D'Intelvi,CO,45.9437,9.0757
ITA,22023,Castiglione D'Intelvi,CO,45.9575,9.0899
ITA,22024,Lanzo D'Intelvi,CO,45.9794,9.0217
ITA,22025,Lezzeno,CO,45.9441,9.1849
ITA,22026,Maslianico,CO,45.843,9.0484
ITA,22027,Ronago,CO,45.8323,8.9836
ITA,22028,Blessagno,CO,45.9634,9.0891
ITA,22029,Uggiate Trevano,CO,45.8234,8.9596
ITA,22030,Eupilio,CO,45.8445,9.2372
ITA,22031,Albavilla,CO,45.8004,9.185
ITA,22032,Albese Con Cassano,CO,45.7949,9.1636
ITA,22033,Asso,CO,45.8606,9.2673
ITA,22034,Brunate,CO,45.821,9.0987
ITA,22035,Canzo,CO,45.8487,9.2706
ITA,22036,Erba,CO,45.8088,9.2261
ITA,22037,Ponte Lambro,CO,45.8254,9.2245
ITA,22038,Tavernerio,CO,45.8007,9.1405
ITA,22039,Valbrona,CO,45.8764,9.2972
ITA,22040,Monguzzo,CO,45.7635,9.2015
ITA,22041,Gironico,CO,45.8014,9.0031
ITA,22044,Romano' Brianza,CO,45.738,9.2184
ITA,22045,Lambrugo,CO,45.7588,9.2395
ITA,22046,Merone,CO,45.7872,9.244
ITA,22060,Montesolaro,CO,45.7384,9.1246
ITA,22063,Mirabello Di Cantu',CO,45.7271,9.1206
ITA,22066,Mariano Comense,CO,45.6965,9.1818
ITA,22069,Rovellasca,CO,45.6666,9.0488
ITA,22070,Casnate,CO,45.7478,8.9969
ITA,22071,Cadorago,CO,45.7258,9.0465
ITA,22072,Cermenate,CO,45.702,9.0836
ITA,22073,Andrate,CO,45.7436,9.0677
ITA,22074,Manera,CO,45.6851,9.0375
ITA,22075,Lurate Caccivio,CO,45.767,8.999
ITA,22076,Mozzate,CO,45.6747,8.9564
ITA,22077,Olgiate Comasco,CO,45.7844,8.9682
ITA,22078,Turate,CO,45.6573,9.0042
ITA,22079,Villa Guardia,CO,45.775,9.0232
ITA,22100,Camerlata,CO,45.806,9.0892
ITA,23010,Sant'Antonio Morignone,SO,46.156,9.6662
ITA,23011,Ardenno,SO,46.1671,9.6473
ITA,23012,Castione Andevenno,SO,46.1728,9.8002
ITA,23013,Cosio Stazione,SO,46.128,9.5512
ITA,23014,Delebio,SO,46.1363,9.4677
ITA,23015,Dubino,SO,46.1671,9.4305
ITA,23016,Mantello,SO,46.1553,9.4985
ITA,23017,Campovico,SO,46.1417,9.5819
ITA,23018,Talamona,SO,46.1385,9.6129
ITA,23019,Traona,SO,46.1474,9.5326
ITA,23020,San Cassiano Valchiavenna,SO,46.2586,9.6354
ITA,23021,Campodolcino,SO,46.4037,9.3587
ITA,23022,Chiavenna,SO,46.3206,9.3982
ITA,23023,Primolo,SO,46.2854,9.8267
ITA,23024,Isola,SO,46.4497,9.3434
ITA,23025,Novate Mezzola,SO,46.215,9.4541
ITA,23026,Arigna,SO,46.1584,9.9839
ITA,23027,Era,SO,46.2502,9.3958
ITA,23029,Dogana,SO,46.3322,9.502
ITA,23030,Valfurva,SO,46.3279,10.2382
ITA,23031,Aprica,SO,46.1522,10.1488
ITA,23032,Bormio,SO,46.4973,10.4111
ITA,23033,Ravoledo,SO,46.3063,10.2884
ITA,23034,Grosotto,SO,46.282,10.2591
ITA,23035,Pineta Di Sortenna Vallesana,SO,46.341,10.3456
ITA,23036,Teglio,SO,46.1634,10.0486
ITA,23037,Madonna Di Tirano,SO,46.2158,10.1567
ITA,23038,Bagni Nuovi,SO,46.4842,10.2767
ITA,23100,Sondrio,SO,46.1681,9.865
ITA,23801,Calolziocorte,LC,45.7954,9.4376
ITA,23802,Carenno,LC,45.8016,9.463
ITA,23804,Monte Marenzo,LC,45.7721,9.4548
ITA,23805,Erve,LC,45.8216,9.4528
ITA,23806,Torre De' Busi,LC,45.7794,9.4782
ITA,23807,Cassina Fra Martino,LC,45.7032,9.4268
ITA,23808,Vercurago,LC,45.8094,9.4221
ITA,23811,Ballabio,LC,45.8856,9.4526
ITA,23813,Bindo,LC,46.0044,9.3828
ITA,23814,Maggio,LC,45.9306,9.4651
ITA,23815,Introbio,LC,45.9739,9.45
ITA,23816,Barzio,LC,45.9435,9.4669
ITA,23817,Cassina Valsassina,LC,45.9323,9.4825
ITA,23818,Pasturo,LC,45.9517,9.4441
ITA,23819,Cortabbio,LC,45.9838,9.4376
ITA,23821,Crebbio,LC,45.9061,9.3345
ITA,23822,Bellano,LC,46.0638,9.316
ITA,23823,Colico,LC,46.1321,9.3771
ITA,23824,Dorio,LC,46.0886,9.3127
ITA,23825,Esino Lario,LC,45.9944,9.334
ITA,23826,Mandello Del Lario,LC,45.922,9.3197
ITA,23827,Lierna,LC,45.9582,9.3051
ITA,23828,Perledo,LC,46.0153,9.2956
ITA,23829,Fiumelatte,LC,46.0028,9.2886
ITA,23831,Casargo,LC,46.0395,9.3872
ITA,23832,Margno,LC,46.0272,9.3803
ITA,23833,Pagnona,LC,46.0597,9.4027
ITA,23834,Premana,LC,46.0524,9.4213
ITA,23835,Introzzo,LC,46.0835,9.3373
ITA,23836,Tremenico,LC,46.0759,9.366
ITA,23837,Parlasco,LC,46.0202,9.3544
ITA,23838,Vendrogno,LC,46.0344,9.3294
ITA,23841,Annone Di Brianza,LC,45.8022,9.3312
ITA,23842,Bosisio Parini,LC,45.8008,9.29
ITA,23843,Dolzago,LC,45.767,9.3393
ITA,23844,Sirone,LC,45.7727,9.3221
ITA,23845,Camisasca,LC,45.7683,9.2659
ITA,23846,Brongio,LC,45.7694,9.307
ITA,23847,Molteno,LC,45.7816,9.2996
ITA,23848,Ello,LC,45.7885,9.3568
ITA,23849,Casletto,LC,45.7824,9.274
ITA,23851,Galbiate,LC,45.8104,9.3719
ITA,23852,Garlate,LC,45.8121,9.3996
ITA,23854,Olginate,LC,45.7913,9.4187
ITA,23855,Pescate,LC,45.8335,9.3939
ITA,23857,Valgreghentino,LC,45.7793,9.4134
ITA,23861,Cesana Brianza,LC,45.8168,9.2995
ITA,23862,Civate,LC,45.8281,9.3429
ITA,23864,Malgrate,LC,45.8489,9.3763
ITA,23865,Oliveto Lario,LC,45.9316,9.2834
ITA,23867,Suello,LC,45.8168,9.3115
ITA,23868,Caserta,LC,45.8463,9.3582
ITA,23870,Cernusco Lombardone,LC,45.6909,9.3992
ITA,23871,Lomagna,LC,45.6664,9.3765
ITA,23873,Maresso,LC,45.6971,9.3453
ITA,23874,Quattro Strade,LC,45.7005,9.3788
ITA,23875,Osnago,LC,45.6755,9.3919
ITA,23876,Monticello Brianza,LC,45.7095,9.3156
ITA,23877,Paderno D'Adda,LC,45.6788,9.4449
ITA,23878,Verderio Superiore,LC,45.6678,9.4403
ITA,23879,Verderio,LC,45.6656,9.4334
ITA,23880,Galgiana,LC,45.6906,9.3147
ITA,23881,Airuno,LC,45.7535,9.4277
ITA,23883,Brivio,LC,45.7372,9.4425
ITA,23884,Cologna,LC,45.7572,9.3456
ITA,23885,Arlate,LC,45.7239,9.4275
ITA,23886,Colle Brianza,LC,45.7623,9.3637
ITA,23887,Olgiate Molgora,LC,45.707,9.3746
ITA,23888,La Valletta Brianza,LC,45.7373,9.367
ITA,23889,Santa Maria Hoe',LC,45.7443,9.3744
ITA,23890,Barzago,LC,45.7555,9.3142
ITA,23891,Barzano',LC,45.7326,9.3136
ITA,23892,Bulciago,LC,45.7506,9.2853
ITA,23893,Cassago Brianza,LC,45.7381,9.2934
ITA,23894,Cremella,LC,45.7386,9.3006
ITA,23895,Tabiago,LC,45.7531,9.2675
ITA,23896,Bevera Di Sirtori,LC,45.7366,9.3308
ITA,23897,Vigano',LC,45.7247,9.3249
ITA,23898,Imbersago,LC,45.7059,9.4444
ITA,23899,Robbiate,LC,45.6883,9.4371
ITA,23900,Lecco,LC,45.8559,9.397
ITA,24010,Petosino,BG,45.9124,9.6574
ITA,24011,Alme',BG,45.7388,9.6156
ITA,24012,Val Brembilla,BG,45.8355,9.6415
ITA,24013,Oltre Il Colle,BG,45.8895,9.7693
ITA,24014,Piazza Brembana,BG,45.9477,9.6733
ITA,24015,San Giovanni Bianco,BG,45.8734,9.6542
ITA,24016,San Pellegrino Terme,BG,45.8388,9.6783
ITA,24017,Cornalba,BG,45.86,9.7385
ITA,24018,Villa D'Alme',BG,45.8941,9.6608
ITA,24019,Spino,BG,45.7956,9.6763
ITA,24020,Valbondione,BG,45.8704,9.9108
ITA,24021,Comenduno,BG,45.7601,9.8127
ITA,24022,Alzano Lombardo,BG,45.7506,9.7153
ITA,24023,Clusone,BG,45.8866,9.9465
ITA,24024,Gandino,BG,45.8109,9.8977
ITA,24025,Gazzaniga,BG,45.7994,9.8259
ITA,24026,Cazzano Sant'Andrea,BG,45.8046,9.8846
ITA,24027,Gavarno Rinnovata,BG,45.7343,9.7623
ITA,24028,Ponte Nossa,BG,45.8661,9.8836
ITA,24029,Vertova,BG,45.81,9.8494
ITA,24030,Capizzone,BG,45.746,9.5429
ITA,24031,Almenno San Salvatore,BG,45.7497,9.597
ITA,24033,Calusco D'Adda,BG,45.6884,9.4711
ITA,24034,Cisano Bergamasco,BG,45.742,9.4715
ITA,24035,Curno,BG,45.6888,9.6087
ITA,24036,Ponte San Pietro,BG,45.706,9.5905
ITA,24037,Calchera,BG,45.8375,9.5093
ITA,24038,Mazzoleni,BG,45.8149,9.522
ITA,24039,Piazza Caduti,BG,45.7054,9.503
ITA,24040,Zingonia,BG,45.5906,9.6048
ITA,24041,Grignano,BG,45.6115,9.5486
ITA,24042,San Gervasio D'Adda,BG,45.6019,9.5341
ITA,24043,Vidalengo,BG,45.5109,9.6528
ITA,24044,Sabbio Bergamasco,BG,45.6497,9.6031
ITA,24045,Badalasco,BG,45.5494,9.5458
ITA,24046,Osio Sotto,BG,45.6161,9.5891
ITA,24047,Geromina,BG,45.536,9.5815
ITA,24048,Treviolo,BG,45.6737,9.612
ITA,24049,Verdello,BG,45.6037,9.6285
ITA,24050,Ghisalba,BG,45.5682,9.7563
ITA,24051,Antegnate,BG,45.4865,9.7915
ITA,24052,Azzano San Paolo,BG,45.658,9.6731
ITA,24053,Brignano Gera D'Adda,BG,45.5432,9.6442
ITA,24054,Calcio,BG,45.5083,9.849
ITA,24055,Cologno Al Serio,BG,45.576,9.7089
ITA,24056,Fontanella,BG,45.469,9.8025
ITA,24057,Martinengo,BG,45.5722,9.7675
ITA,24058,Sola,BG,45.5015,9.7504
ITA,24059,Basella,BG,45.6067,9.7117
ITA,24060,Endine Gaiano,BG,45.7159,9.916
ITA,24061,Albano Sant'Alessandro,BG,45.6876,9.7665
ITA,24062,Costa Volpino,BG,45.8277,10.1008
ITA,24063,Castro,BG,45.8038,10.0659
ITA,24064,Grumello Del Monte,BG,45.6354,9.8753
ITA,24065,Lovere,BG,45.8138,10.07
ITA,24066,Pedrengo,BG,45.696,9.735
ITA,24067,Sarnico,BG,45.671,9.9615
ITA,24068,Cassinone,BG,45.6667,9.6257
ITA,24069,Cenate Sotto,BG,45.7028,9.8497
ITA,24100,Bergamo,BG,45.696,9.6672
ITA,24121,Bergamo,BG,45.696,9.6672
ITA,24122,Bergamo,BG,45.696,9.6672
ITA,24123,Valtesse,BG,45.7064,9.667
ITA,24124,Redona,BG,45.703,9.7693
ITA,24125,Boccaleone,BG,45.696,9.6672
ITA,24126,Malpensata,BG,45.7227,9.7697
ITA,24127,Bergamo,BG,45.696,9.6672
ITA,24128,Loreto,BG,45.696,9.6672
ITA,24129,Longuelo,BG,45.696,9.6672
ITA,25010,Isorella,BS,45.4702,10.4788
ITA,25011,Calcinatello,BS,45.4671,10.4113
ITA,25012,Calvisano,BS,45.3578,10.3489
ITA,25013,Carpenedolo,BS,45.3617,10.4312
ITA,25014,Capodimonte,BS,45.4707,10.2784
ITA,25015,Desenzano Del Garda,BS,45.4713,10.5356
ITA,25016,Ghedi,BS,45.402,10.2768
ITA,25017,Centenaro,BS,45.4546,10.4768
ITA,25018,Montichiari,BS,45.4099,10.3869
ITA,25019,Sirmione,BS,45.4974,10.6051
ITA,25020,Bassano Bresciano,BS,45.3548,10.1508
ITA,25021,Bagnolo Mella,BS,45.4277,10.1864
ITA,25022,Padernello,BS,45.355,9.9882
ITA,25023,Gottolengo,BS,45.2928,10.2685
ITA,25024,Leno,BS,45.3584,10.22
ITA,25025,Manerbio,BS,45.3539,10.138
ITA,25026,Pontevico,BS,45.2732,10.0925
ITA,25027,Quinzano D'Oglio,BS,45.3143,10.0079
ITA,25028,Cadignano,BS,45.3448,10.0683
ITA,25029,Verolavecchia,BS,45.3286,10.0549
ITA,25030,Cossirano,BS,45.4958,10.0036
ITA,25031,Capriolo,BS,45.6333,9.9319
ITA,25032,Chiari,BS,45.5376,9.927
ITA,25033,Cologne,BS,45.5786,9.9418
ITA,25034,Coniolo,BS,45.3926,9.9497
ITA,25035,Ospitaletto,BS,45.5522,10.0756
ITA,25036,Palazzolo Sull'Oglio,BS,45.6054,9.9118
ITA,25037,Pontoglio,BS,45.5694,9.8535
ITA,25038,Sant'Anna,BS,45.5449,10.0104
ITA,25039,Travagliato,BS,45.5239,10.0801
ITA,25040,Forno D'Allione,BS,45.9298,10.2416
ITA,25041,Boario Terme,BS,45.8944,10.2187
ITA,25042,Borno,BS,45.9475,10.2024
ITA,25043,Pescarzo,BS,45.9502,10.3139
ITA,25044,Capo Di Ponte,BS,46.03,10.3428
ITA,25045,Castegnato,BS,45.5613,10.1145
ITA,25046,Calino,BS,45.5742,10.0331
ITA,25047,Gorzone,BS,45.8847,10.185
ITA,25048,Edolo,BS,46.1728,10.3203
ITA,25049,Iseo,BS,45.6651,10.0436
ITA,25050,Camignone,BS,45.8767,10.2257
ITA,25051,Cedegolo,BS,46.074,10.3514
ITA,25052,Piancogno,BS,45.8642,10.2375
ITA,25053,Malegno,BS,45.9508,10.2741
ITA,25054,Marone,BS,45.7372,10.0958
ITA,25055,Pisogne,BS,45.808,10.1095
ITA,25056,Ponte Di Legno,BS,45.8677,10.2115
ITA,25057,Sale Marasino,BS,45.7064,10.1122
ITA,25058,Sulzano,BS,45.6873,10.0999
ITA,25059,Vezza D'Oglio,BS,45.8677,10.2115
ITA,25060,Tavernole Sul Mella,BS,45.7068,10.2296
ITA,25061,Bovegno,BS,45.7813,10.2774
ITA,25062,San Vigilio,BS,45.6067,10.2057
ITA,25063,Magno,BS,45.6991,10.1929
ITA,25064,Gussago,BS,45.5791,10.146
ITA,25065,Lumezzane Sant'Apollonio,BS,45.65,10.2471
ITA,25068,Sarezzo,BS,45.6607,10.1969
ITA,25069,Carcina,BS,45.6562,10.2343
ITA,25070,Barghe,BS,45.7014,10.4039
ITA,25071,Agnosine,BS,45.6497,10.3527
ITA,25072,Bagolino,BS,45.8252,10.4618
ITA,25073,Bovezzo,BS,45.59,10.2418
ITA,25074,Idro,BS,45.7373,10.4626
ITA,25075,Nave,BS,45.5848,10.2795
ITA,25076,Odolo,BS,45.6455,10.3831
ITA,25077,Roe' Volciano,BS,45.6189,10.4941
ITA,25078,Pertica Bassa,BS,45.7291,10.3812
ITA,25079,Pompegnino,BS,45.6449,10.483
ITA,25080,Ciliverghe,BS,45.5886,10.4864
ITA,25081,Campagnola,BS,45.5493,10.4544
ITA,25082,Botticino Mattina,BS,45.5462,10.3095
ITA,25083,Fasano Del Garda,BS,45.6747,10.6055
ITA,25084,Bogliaco,BS,45.6848,10.6458
ITA,25085,San Biagio,BS,45.5902,10.4563
ITA,25086,Virle Treponti,BS,45.5118,10.3173
ITA,25087,Salo',BS,45.6068,10.5205
ITA,25088,Maderno,BS,45.6366,10.5954
ITA,25089,Villanuova Sul Clisi,BS,45.5994,10.4527
ITA,25100,Brescia,BS,45.5356,10.2147
ITA,25121,Brescia,BS,45.5356,10.2147
ITA,25122,Brescia,BS,45.5356,10.2147
ITA,25123,Brescia,BS,45.5356,10.2147
ITA,25124,Brescia,BS,45.5356,10.2147
ITA,25125,Brescia,BS,45.5356,10.2147
ITA,25126,Brescia,BS,45.5356,10.2147
ITA,25127,Brescia,BS,45.5356,10.2147
ITA,25128,Brescia,BS,45.5356,10.2147
ITA,25129,Bettole Di Buffalora,BS,45.5162,10.245
ITA,25131,Brescia,BS,45.5226,10.1724
ITA,25132,Brescia,BS,45.5426,10.1756
ITA,25133,Mompiano,BS,45.5356,10.2147
ITA,25134,San Polo,BS,45.4885,10.3521
ITA,25135,Sant'Eufemia Della Fonte,BS,45.5356,10.2147
ITA,25136,Brescia,BS,45.5356,10.2147
ITA,26010,Casale Cremasco Vidolasco,CR,45.3375,9.7471
ITA,26011,Casalbuttano,CR,45.2519,9.9617
ITA,26012,Castelleone,CR,45.2958,9.7609
ITA,26013,Santa Maria Della Croce,CR,45.3066,9.7849
ITA,26014,Casaletto Di Sopra,CR,45.3987,9.7852
ITA,26015,Soresina,CR,45.2882,9.8586
ITA,26016,Spino D'Adda,CR,45.4009,9.4867
ITA,26017,Quintano,CR,45.4168,9.6116
ITA,26018,Trigolo,CR,45.33,9.8142
ITA,26019,Vailate,CR,45.4623,9.6033
ITA,26020,San Bassano,CR,45.2888,9.8167
ITA,26021,Barzaniga,CR,45.2539,9.8844
ITA,26022,Castelverde,CR,45.1898,9.9826
ITA,26023,Grumello Cremonese Ed Uniti,CR,45.2087,9.869
ITA,26024,Paderno Ponchielli,CR,45.238,9.9288
ITA,26025,Nosadello,CR,45.4042,9.5413
ITA,26026,Roggione,CR,45.192,9.8048
ITA,26027,Rivolta D'Adda,CR,45.4696,9.5125
ITA,26028,Sesto Cremonese,CR,45.1717,9.9304
ITA,26029,Soncino,CR,45.419,9.853
ITA,26030,Gabbioneta Binanuova,CR,45.1436,10.2793
ITA,26031,Isola Dovarese,CR,45.1729,10.3088
ITA,26032,Ostiano,CR,45.2226,10.2545
ITA,26033,Pescarolo Ed Uniti,CR,45.1906,10.1982
ITA,26034,Piadena,CR,45.1354,10.3607
ITA,26035,Pieve San Giacomo,CR,45.132,10.1878
ITA,26036,Rivarolo Del Re,CR,45.0312,10.4725
ITA,26037,San Giovanni In Croce,CR,45.074,10.3732
ITA,26038,Torre De' Picenardi,CR,45.1439,10.2974
ITA,26039,Vescovato,CR,45.1742,10.1645
ITA,26040,Cella Dati,CR,45.0664,10.2433
ITA,26041,Agoiolo,CR,44.9799,10.4472
ITA,26042,Cingia De' Botti,CR,45.0851,10.2755
ITA,26043,Persichello,CR,45.1853,10.1044
ITA,26044,Levata,CR,45.2005,10.144
ITA,26045,Motta Baluffi,CR,45.0557,10.2585
ITA,26046,San Daniele Po,CR,45.0673,10.1764
ITA,26047,Scandolara Ripa D'Oglio,CR,45.2217,10.1572
ITA,26048,Sospiro,CR,45.102,10.1688
ITA,26049,Stagno Lombardo,CR,45.0746,10.0889
ITA,26100,Cava Tigozzi,CR,45.1509,10.0375
ITA,26811,Boffalora D'Adda,LO,45.3585,9.4963
ITA,26812,Casoni,LO,45.2037,9.4984
ITA,26813,Graffignana,LO,45.2065,9.4544
ITA,26814,Livraga,LO,45.1923,9.5465
ITA,26815,Motta Vigana,LO,45.265,9.4902
ITA,26816,Ossago Lodigiano,LO,45.2421,9.5372
ITA,26817,San Martino In Strada,LO,45.275,9.5264
ITA,26818,Bargano,LO,45.2392,9.4644
ITA,26821,Bertonico,LO,45.2331,9.6681
ITA,26822,Brembio,LO,45.2123,9.5724
ITA,26823,Camairago,LO,45.2112,9.7102
ITA,26824,Cavenago D'Adda,LO,45.2825,9.5987
ITA,26825,Mairago,LO,45.2584,9.584
ITA,26826,Secugnago,LO,45.2313,9.5939
ITA,26827,Terranova Dei Passerini,LO,45.2153,9.6619
ITA,26828,Melegnanello,LO,45.2425,9.6213
ITA,26831,Cologno,LO,45.3583,9.3662
ITA,26832,Galgagnano,LO,45.366,9.4348
ITA,26833,Merlino,LO,45.4377,9.4463
ITA,26834,Terraverde,LO,45.3167,9.5661
ITA,26835,Crespiatica,LO,45.3514,9.5766
ITA,26836,Montanaso Lombardo,LO,45.3352,9.4655
ITA,26837,Mulazzano,LO,45.3742,9.4021
ITA,26838,Tavazzano Con Villavesco,LO,45.332,9.4053
ITA,26839,Zelo Buon Persico,LO,45.4117,9.4317
ITA,26841,Casalpusterlengo,LO,45.1898,9.6322
ITA,26842,Cornovecchio,LO,45.1197,9.7975
ITA,26843,Meleti,LO,45.126,9.8513
ITA,26844,Cavacurta,LO,45.1898,9.7419
ITA,26845,Codogno,LO,45.1619,9.7022
ITA,26846,Corno Giovine,LO,45.1341,9.7577
ITA,26847,Maleo,LO,45.1663,9.7624
ITA,26848,San Fiorano,LO,45.1382,9.7206
ITA,26849,Santo Stefano Lodigiano,LO,45.1186,9.7353
ITA,26851,Borgo San Giovanni,LO,45.2779,9.435
ITA,26852,Mairano,LO,45.3018,9.3605
ITA,26853,Caselle Lurani,LO,45.2804,9.3602
ITA,26854,Muzza Sant'Angelo,LO,45.2747,9.4732
ITA,26855,Lodi Vecchio,LO,45.3042,9.4176
ITA,26856,Mirabello,LO,45.1501,9.6038
ITA,26857,Salerano Sul Lambro,LO,45.2966,9.3852
ITA,26858,Sordio,LO,45.3422,9.3639
ITA,26859,Valera Fratta,LO,45.2572,9.3362
ITA,26861,Fombio,LO,45.1454,9.6894
ITA,26862,Guardamiglio,LO,45.1074,9.6848
ITA,26863,Orio Litta,LO,45.1624,9.5545
ITA,26864,Ospedaletto Lodigiano,LO,45.1688,9.5787
ITA,26865,San Rocco Al Porto,LO,45.082,9.6972
ITA,26866,Vidardo,LO,45.2506,9.3977
ITA,26867,Somaglia,LO,45.1566,9.6274
ITA,26900,Lodi,LO,45.3099,9.5009
ITA,27010,Santa Cristina E Bissone,PV,45.2142,9.2824
ITA,27011,Torre De' Negri,PV,45.1545,9.3241
ITA,27012,Certosa Di Pavia,PV,45.2567,9.1286
ITA,27013,Chignolo Po,PV,45.1533,9.5045
ITA,27014,Genzone,PV,45.1688,9.3602
ITA,27015,Landriano,PV,45.3115,9.2605
ITA,27016,Lardirago,PV,45.2291,9.2294
ITA,27017,Pieve Porto Morone,PV,45.1102,9.4182
ITA,27018,Vidigulfo,PV,45.2925,9.235
ITA,27019,Villanterio,PV,45.2178,9.361
ITA,27020,Gravellona Lomellina,PV,45.2011,8.8948
ITA,27021,Bereguardo,PV,45.2571,9.0273
ITA,27022,Casorate Primo,PV,45.3114,9.017
ITA,27023,Cassolnovo,PV,45.3611,8.8123
ITA,27024,Cilavegna,PV,45.3107,8.7447
ITA,27025,Gambolo',PV,45.2621,8.8582
ITA,27026,Madonna Delle Bozzole,PV,45.2057,8.9402
ITA,27027,Gropello Cairoli,PV,45.1771,8.9935
ITA,27028,Bivio Cava Manara,PV,45.1528,9.1306
ITA,27029,Vigevano,PV,45.3016,8.8705
ITA,27030,Torre Beretti E Castellaro,PV,45.1598,8.7817
ITA,27031,Candia Lomellina,PV,45.1767,8.5955
ITA,27032,Ferrera Erbognone,PV,45.1146,8.8645
ITA,27033,Garbana,PV,45.2556,8.8011
ITA,27034,Galliavola,PV,45.1088,8.8075
ITA,27035,Villa Biscossi,PV,45.0938,8.762
ITA,27036,Mortara,PV,45.2494,8.733
ITA,27037,Pieve Del Cairo,PV,45.0492,8.8032
ITA,27038,Robbio,PV,45.289,8.5929
ITA,27039,Sannazzaro De' Burgondi,PV,45.1023,8.9063
ITA,27040,Casenove,PV,45.0282,9.2338
ITA,27041,Barbianello,PV,45.0851,9.2097
ITA,27042,Bressana Bottarone,PV,45.0711,9.1314
ITA,27043,San Cipriano Po,PV,45.0865,9.2704
ITA,27044,Canneto,PV,45.0509,9.2799
ITA,27045,Casteggio,PV,45.014,9.1253
ITA,27046,Santa Giuletta,PV,45.034,9.1813
ITA,27047,Golferenzo,PV,44.9687,9.2972
ITA,27048,Sommo,PV,45.1332,9.0866
ITA,27049,Stradella,PV,45.0642,9.3142
ITA,27050,Val Di Nizza,PV,44.9502,9.1116
ITA,27051,Mezzana Corti,PV,45.1304,9.1174
ITA,27052,Rocca Susella,PV,44.9078,9.0765
ITA,27053,Lungavilla,PV,45.0407,9.0958
ITA,27054,Montebello Della Battaglia,PV,44.9621,9.1008
ITA,27055,Rivanazzano,PV,44.9291,9.0137
ITA,27056,Cornale E Bastida,PV,45.0416,8.9163
ITA,27057,Varzi,PV,44.8306,9.2189
ITA,27058,Oriolo,PV,45.0123,9.017
ITA,27059,Zavattarello,PV,44.8677,9.2666
ITA,27100,Mirabello Di Pavia,PV,45.1974,9.1906
ITA,28010,Veruno,NO,45.6943,8.4874
ITA,28011,Coiromonte,NO,45.8249,8.4634
ITA,28012,Cressa,NO,45.6476,8.5094
ITA,28013,Gattico,NO,45.7072,8.52
ITA,28014,Maggiora,NO,45.6894,8.4223
ITA,28015,Momo,NO,45.5742,8.5539
ITA,28016,Orta Novarese,NO,45.7968,8.4071
ITA,28017,San Maurizio D'Opaglio,NO,45.773,8.396
ITA,28019,Suno,NO,45.6475,8.5082
ITA,28021,Santa Cristina Di Borgomanero,NO,45.6994,8.4622
ITA,28024,Gozzano,NO,45.7427,8.4366
ITA,28028,Pratolungo,NO,45.6901,8.4806
ITA,28040,Dormelletto,NO,45.7204,8.5756
ITA,28041,Mercurago,NO,45.7707,8.5462
ITA,28043,Bellinzago Novarese,NO,45.5688,8.6432
ITA,28045,Invorio,NO,45.7568,8.4874
ITA,28046,Meina,NO,45.7865,8.5201
ITA,28047,Oleggio,NO,45.6478,8.5299
ITA,28050,Pombia,NO,45.6555,8.6285
ITA,28053,Castelletto Sopra Ticino,NO,45.72,8.6336
ITA,28060,Granozzo,NO,45.4592,8.511
ITA,28061,Biandrate,NO,45.4527,8.464
ITA,28062,Cameri,NO,45.5016,8.6624
ITA,28064,Sillavengo,NO,45.517,8.4268
ITA,28065,Cerano,NO,45.4091,8.7835
ITA,28066,Galliate,NO,45.4794,8.6982
ITA,28068,Romentino,NO,45.463,8.7181
ITA,28069,Trecate,NO,45.434,8.7364
ITA,28070,Garbagna Novarese,NO,45.4141,8.6333
ITA,28071,Borgolavezzaro,NO,45.3192,8.6993
ITA,28072,San Bernardino,NO,45.5304,8.5121
ITA,28073,Fara Novarese,NO,45.5544,8.4566
ITA,28074,Ghemme,NO,45.5986,8.4201
ITA,28075,Grignasco,NO,45.6798,8.3444
ITA,28076,Pogno,NO,45.7581,8.3856
ITA,28077,Prato Sesia,NO,45.6507,8.3729
ITA,28078,Romagnano Sesia,NO,45.6328,8.387
ITA,28079,Vespolate,NO,45.3495,8.6688
ITA,28100,Bicocca Di Novara,NO,45.4408,8.616
ITA,28801,Cossogno,VB,45.9641,8.5096
ITA,28802,Mergozzo,VB,45.9623,8.454
ITA,28803,Cuzzago,VB,45.9965,8.3697
ITA,28804,San Bernardino Verbano,VB,45.954,8.5158
ITA,28805,Vogogna,VB,46.01,8.2914
ITA,28811,Cresseglio,VB,45.9555,8.5815
ITA,28812,Aurano,VB,46.0004,8.5882
ITA,28813,Bee,VB,45.9633,8.5754
ITA,28814,Cambiasca,VB,45.9624,8.5446
ITA,28815,Caprezzo,VB,45.982,8.5628
ITA,28816,Intragna,VB,45.9947,8.5739
ITA,28817,Miazzina,VB,45.9757,8.5231
ITA,28818,Premeno,VB,45.9782,8.5959
ITA,28819,Vignone,VB,45.9612,8.5637
ITA,28821,Cannero Riviera,VB,46.022,8.6793
ITA,28822,Cannobio,VB,46.0623,8.6963
ITA,28823,Ghiffa,VB,45.953,8.6043
ITA,28824,Gonte,VB,45.9931,8.6482
ITA,28825,Ponte Di Falmenta,VB,46.0722,8.6033
ITA,28826,Trarego Viggiona,VB,46.0317,8.6296
ITA,28827,Falmenta,VB,46.0731,8.5894
ITA,28828,Gurro,VB,46.085,8.5677
ITA,28831,Feriolo,VB,45.923,8.4864
ITA,28832,Belgirate,VB,45.8412,8.5706
ITA,28833,Brovello Carpugnino,VB,45.8873,8.5208
ITA,28836,Vezzo,VB,45.8664,8.518
ITA,28838,Carciano,VB,45.8808,8.5405
ITA,28841,Antronapiana,VB,46.0607,8.1149
ITA,28842,Bognanco,VB,46.1229,8.2061
ITA,28843,Montescheno,VB,46.0666,8.2319
ITA,28844,Villadossola,VB,46.0708,8.2671
ITA,28845,Domodossola,VB,46.1165,8.2931
ITA,28846,Viganella,VB,46.055,8.2051
ITA,28851,Beura,VB,46.0702,8.2919
ITA,28852,Craveggia,VB,46.1412,8.4891
ITA,28853,Druogno,VB,46.1342,8.4328
ITA,28854,Zornasco,VB,46.1173,8.5164
ITA,28855,Masera,VB,46.1389,8.3253
ITA,28856,Re,VB,46.1317,8.54
ITA,28857,Santa Maria Maggiore,VB,46.1368,8.4611
ITA,28858,Toceno,VB,46.1447,8.469
ITA,28859,Trontano,VB,46.1225,8.3332
ITA,28861,Baceno,VB,46.2606,8.3187
ITA,28862,Crodo,VB,46.2173,8.3224
ITA,28863,Formazza,VB,46.3769,8.4257
ITA,28864,Roldo,VB,46.156,8.3229
ITA,28865,Crevoladossola,VB,46.1467,8.2958
ITA,28866,San Rocco,VB,46.2859,8.3531
ITA,28868,Trasquera,VB,46.2087,8.2192
ITA,28871,Bannio Anzino,VB,45.9767,8.1259
ITA,28873,Castiglione,VB,46.0225,8.2164
ITA,28875,Ceppo Morelli,VB,45.9711,8.0669
ITA,28876,Borca Di Macugnaga,VB,45.963,7.9892
ITA,28877,Ornavasso,VB,45.9785,8.3806
ITA,28879,Vanzone Con San Carlo,VB,45.988,8.1315
ITA,28881,Gabbio Con Monte Ossolano,VB,45.956,8.3974
ITA,28883,Gravellona Toce,VB,45.9209,8.4274
ITA,28884,Pallanzeno,VB,46.042,8.2595
ITA,28885,Piedimulera,VB,46.0241,8.259
ITA,28886,Pieve Vergonte,VB,46.013,8.2608
ITA,28887,Bagnella,VB,45.8762,8.4016
ITA,28891,Cesara,VB,45.8398,8.3726
ITA,28893,Loreglia,VB,45.9069,8.3713
ITA,28894,Madonna Del Sasso,VB,45.7922,8.3695
ITA,28895,Massiola,VB,45.924,8.3047
ITA,28896,Quarna Sotto,VB,45.8692,8.3633
ITA,28897,Fornero,VB,45.9087,8.3327
ITA,28898,Quarna Sopra,VB,45.8731,8.3736
ITA,28899,Arola,VB,45.8087,8.3581
ITA,28922,Verbania,VB,45.9214,8.5518
ITA,29010,Mezzano Chitantolo,PC,44.974,9.6787
ITA,29011,Castelnovo Val Tidone,PC,45.0011,9.4428
ITA,29012,Caorso,PC,45.0491,9.8746
ITA,29013,Rezzano,PC,44.8925,9.7849
ITA,29014,Castell'Arquato,PC,44.8671,9.8589
ITA,29015,Castel San Giovanni,PC,45.0469,9.4167
ITA,29016,Cortemaggiore,PC,44.9918,9.9284
ITA,29017,Fiorenzuola D'Arda,PC,44.9304,9.9052
ITA,29018,Lugagnano Val D'Arda,PC,44.8181,9.7966
ITA,29019,Godi,PC,44.9237,9.7263
ITA,29020,Pej,PC,44.8319,9.5364
ITA,29021,Groppoducale,PC,44.859,9.6647
ITA,29022,Passo Penice,PC,44.8131,9.4053
ITA,29023,Farini,PC,44.6919,9.5641
ITA,29024,Torrio Sopra E Sotto E Casetta,PC,44.6347,9.4692
ITA,29025,Gropparello,PC,44.8273,9.7236
ITA,29026,Orezzoli,PC,44.6154,9.3558
ITA,29027,San Polo,PC,44.9668,9.7119
ITA,29028,Ponte Dell'Olio,PC,44.8606,9.652
ITA,29029,Ancarano Di Sopra,PC,44.9303,9.6131
ITA,29100,Gerbido Di Mortizza,PC,45.018,9.7312
ITA,29121,Piacenza,PC,45.0524,9.6934
ITA,29122,Piacenza,PC,45.0524,9.6934
ITA,30010,Bojon,VE,45.2935,12.08
ITA,30013,Cavallino Treporti,VE,45.4646,12.4918
ITA,30014,Villaggio Busonera,VE,45.1345,12.1005
ITA,30015,Sant'Anna Di Chioggia,VE,45.1843,12.2513
ITA,30016,Iesolo,VE,45.52,12.6458
ITA,30020,Ponte Crepaldo,VE,45.6764,12.6148
ITA,30021,Ca' Corniani,VE,45.6191,12.8531
ITA,30022,Ceggia,VE,45.687,12.6423
ITA,30023,Sindacale,VE,45.7324,12.8503
ITA,30024,Croce,VE,45.6265,12.5322
ITA,30025,Fratta,VE,45.7998,12.8894
ITA,30026,Portogruaro,VE,45.7669,12.8392
ITA,30027,San Dona' Di Piave,VE,45.6276,12.5939
ITA,30028,Pozzi,VE,45.7096,13.0036
ITA,30029,Santo Stino Di Livenza,VE,45.7096,12.7203
ITA,30030,Olmo Di Martellago,VE,45.4519,12.0716
ITA,30031,Dolo,VE,45.4247,12.0806
ITA,30032,Fiesso D'Artico,VE,45.4214,12.0294
ITA,30033,Moniego Di Noale,VE,45.5597,12.0751
ITA,30034,Borbiago,VE,45.444,12.1371
ITA,30035,Zianigo,VE,45.4696,12.0904
ITA,30036,Santa Maria Di Sala,VE,45.5103,12.0372
ITA,30037,Scorze',VE,45.576,12.1342
ITA,30038,Spinea,VE,45.486,12.1576
ITA,30039,San Pietro Di Stra',VE,45.4088,12.0266
ITA,30100,Venezia,VE,45.4371,12.3327
ITA,30121,Venezia,VE,45.4412,12.3327
ITA,30122,Castello,VE,45.5167,12.473
ITA,30123,Dorsoduro,VE,45.4342,12.329
ITA,30124,San Marco,VE,45.4358,12.335
ITA,30125,San Polo,VE,45.4376,12.3315
ITA,30126,Vianelli,VE,45.3766,12.3342
ITA,30131,Venezia,VE,45.4371,12.3327
ITA,30132,Venezia,VE,45.5591,12.5316
ITA,30133,Sacca Fisola,VE,45.4667,12.383
ITA,30135,Venezia,VE,45.4384,12.3256
ITA,30141,Venezia,VE,45.4479,12.3447
ITA,30142,Mazzorbo,VE,45.4831,12.4104
ITA,30170,Venezia Mestre,VE,45.4917,12.2454
ITA,30171,Mestre,VE,45.4917,12.2454
ITA,30172,Mestre,VE,45.4917,12.2454
ITA,30173,Villaggio San Marco,VE,45.4698,12.2885
ITA,30174,Gazzera,VE,45.5034,12.2266
ITA,30175,Ca' Emiliani,VE,45.4856,12.2443
ITA,31010,Ponte Della Priula,TV,45.8625,12.1936
ITA,31011,Casella D'Asolo,TV,45.7898,11.9019
ITA,31012,Cappella Maggiore,TV,45.9803,12.3439
ITA,31013,Cimetta,TV,45.867,12.434
ITA,31014,Colle Umberto,TV,45.936,12.3406
ITA,31015,Conegliano,TV,45.9052,12.297
ITA,31016,Cordignano,TV,45.9579,12.4154
ITA,31017,Crespano Del Grappa,TV,45.8283,11.8456
ITA,31018,Gaiarine,TV,45.8718,12.4914
ITA,31020,Rua,TV,45.884,12.234
ITA,31021,Mogliano Veneto,TV,45.5673,12.2553
ITA,31022,Preganziol,TV,45.6107,12.233
ITA,31023,San Marco,TV,45.6401,11.971
ITA,31024,Roncadelle,TV,45.7678,12.4173
ITA,31025,Santa Lucia Di Piave,TV,45.8616,12.2939
ITA,31026,Montaner,TV,45.9873,12.3823
ITA,31027,Lovadina,TV,45.7689,12.2514
ITA,31028,Vazzola,TV,45.8327,12.3925
ITA,31029,Nove,TV,45.9928,12.3034
ITA,31030,Breda Di Piave,TV,45.7442,12.1377
ITA,31031,Caerano Di San Marco,TV,45.7816,11.9985
ITA,31032,Lughignano,TV,45.6129,12.3112
ITA,31033,Salvarosa,TV,45.6681,11.9263
ITA,31034,Cavaso Del Tomba,TV,45.8607,11.8984
ITA,31035,Ciano,TV,45.8282,12.0473
ITA,31036,Pezzan,TV,45.6839,12.0928
ITA,31037,Castione,TV,45.7235,11.8555
ITA,31038,Porcellengo,TV,45.6936,12.1536
ITA,31039,Poggiana,TV,45.7327,11.8926
ITA,31040,Nervesa Della Battaglia,TV,45.7849,12.2612
ITA,31041,Cornuda,TV,45.8315,12.006
ITA,31042,Fagare',TV,45.7069,12.4277
ITA,31043,Lutrano,TV,45.8484,12.4221
ITA,31044,Montebelluna,TV,45.7818,12.0494
ITA,31045,Motta Di Livenza,TV,45.7755,12.6041
ITA,31046,Rustigne',TV,45.7652,12.4924
ITA,31047,Negrisia,TV,45.7164,12.4124
ITA,31048,Olmi Di Treviso,TV,45.684,12.3665
ITA,31049,San Pietro Di Barbozza,TV,45.9004,12.0216
ITA,31050,Camalo',TV,45.727,12.1311
ITA,31051,Follina,TV,45.9496,12.1331
ITA,31052,Maserada Sul Piave,TV,45.7414,12.3336
ITA,31053,Pieve Di Soligo,TV,45.8991,12.1751
ITA,31054,Possagno,TV,45.8479,11.8847
ITA,31055,Quinto Di Treviso,TV,45.6435,12.1521
ITA,31056,San Cipriano,TV,45.6182,12.3687
ITA,31057,Cendon,TV,45.6393,12.319
ITA,31058,Susegana,TV,45.856,12.2574
ITA,31059,Sant'Alberto,TV,45.6091,12.1328
ITA,31100,Monigo,TV,45.6518,12.2145
ITA,32010,Podenzoi,BL,46.2697,12.2889
ITA,32012,Dozza Di Zoldo,BL,46.3532,12.1555
ITA,32013,Igne,BL,46.2537,12.289
ITA,32014,Col Di Cugnan,BL,46.1744,12.3008
ITA,32015,Puos D'Alpago,BL,46.1413,12.3714
ITA,32016,Farra D'Alpago,BL,46.1045,12.3556
ITA,32020,San Tomaso Agordino,BL,46.2833,11.9894
ITA,32021,Agordo,BL,46.282,12.0361
ITA,32022,Alleghe,BL,46.4225,12.0089
ITA,32023,Rocca Pietore,BL,46.4339,11.9768
ITA,32026,Villa Di Villa,BL,46.0531,12.0767
ITA,32027,Taibon Agordino,BL,46.2984,12.0131
ITA,32028,Sant'Antonio Tortal,BL,46.0609,12.152
ITA,32030,Rocca D'Arsie',BL,46.0368,11.8693
ITA,32031,Fener,BL,45.9044,11.9264
ITA,32032,Foen,BL,46.0282,11.9143
ITA,32033,Arina,BL,46.0403,11.7368
ITA,32034,Facen,BL,46.037,11.8689
ITA,32035,Santa Giustina,BL,46.0895,12.0373
ITA,32036,Roe Alte,BL,46.1226,12.1076
ITA,32037,Sospirolo,BL,46.1477,12.0802
ITA,32038,Quero Vas,BL,45.9295,11.9336
ITA,32040,Villaggio Turistico Di Borca Di Cadore,BL,46.5074,12.4463
ITA,32041,Auronzo Di Cadore,BL,46.5738,12.3465
ITA,32042,Calalzo Di Cadore,BL,46.4464,12.3818
ITA,32043,Verocai,BL,46.522,12.1484
ITA,32044,Sottocastello,BL,46.4306,12.3646
ITA,32045,Santo Stefano Di Cadore,BL,46.5649,12.5594
ITA,32046,Chiapuzza,BL,46.4736,12.2011
ITA,32047,Sappada,BL,46.5671,12.6867
ITA,32100,Fiammoi,BL,46.1386,12.2059
ITA,33010,La Carnia,UD,46.2643,13.2099
ITA,33011,Artegna,UD,46.2393,13.154
ITA,33013,Gemona Piovega,UD,46.2861,13.1231
ITA,33015,Moggio Di Sotto,UD,46.4081,13.1949
ITA,33016,Pontebba,UD,46.5054,13.3062
ITA,33017,Bulfons,UD,46.2037,13.2067
ITA,33018,Tarvisio,UD,46.488,13.5873
ITA,33019,Leonacco,UD,46.1519,13.2088
ITA,33020,Enemonzo,UD,46.4739,12.894
ITA,33021,Ampezzo,UD,46.4146,12.7963
ITA,33022,Piano D'Arta,UD,46.484,13.0181
ITA,33023,Comeglians,UD,46.5161,12.8662
ITA,33024,Forni Di Sopra,UD,46.4203,12.5831
ITA,33025,Ovaro,UD,46.4841,12.867
ITA,33026,Cleulis,UD,46.5608,13.009
ITA,33027,Dierico,UD,46.5177,13.1214
ITA,33028,Terzo Di Tolmezzo,UD,46.426,13.0234
ITA,33029,Trava,UD,46.4257,12.9086
ITA,33030,Ragogna,UD,46.0865,13.0454
ITA,33031,Vissandone,UD,46.0169,13.0964
ITA,33032,Pozzecco,UD,45.9515,13.0735
ITA,33033,Goricizza E Pozzo,UD,45.9634,12.9963
ITA,33034,Fagagna,UD,46.1094,13.0834
ITA,33035,Martignacco,UD,46.0914,13.1431
ITA,33036,Tomba,UD,46.0497,13.0614
ITA,33037,Pasian Di Prato,UD,46.0556,13.1736
ITA,33038,Villanova Di San Daniele,UD,46.1406,12.983
ITA,33039,Sedegliano,UD,46.0144,12.9728
ITA,33040,Grimacco,UD,46.0831,13.3877
ITA,33041,Aiello Del Friuli,UD,45.8728,13.3604
ITA,33042,Buttrio,UD,46.011,13.3335
ITA,33043,Sanguarzo,UD,46.0998,13.4541
ITA,33044,Manzano,UD,45.9884,13.3767
ITA,33045,Nimis,UD,46.2066,13.2678
ITA,33046,Pulfero,UD,46.1738,13.4836
ITA,33047,Remanzacco,UD,46.0791,13.3304
ITA,33048,Chiopris Viscone,UD,45.9555,13.4074
ITA,33049,San Pietro Al Natisone,UD,46.1144,13.483
ITA,33050,Gonars,UD,45.9048,13.2398
ITA,33051,Belvedere,UD,45.7424,13.3831
ITA,33052,Strassoldo,UD,45.8389,13.3306
ITA,33053,Gorgo,UD,45.7458,13.0246
ITA,33054,Lignano Pineta,UD,45.6731,13.112
ITA,33055,Muzzana Del Turgnano,UD,45.818,13.1275
ITA,33056,Palazzolo Dello Stella,UD,45.7982,13.0878
ITA,33057,Jalmicco,UD,45.91,13.3268
ITA,33058,San Giorgio Di Nogaro,UD,45.8275,13.2109
ITA,33059,Villa Vicentina,UD,45.8138,13.3933
ITA,33061,Rivignano Teor,UD,45.8505,13.0597
ITA,33070,Stevena',PN,45.9853,12.52
ITA,33072,San Giovanni Di Casarsa,PN,45.948,12.8387
ITA,33074,Vigonovo,PN,45.9837,12.555
ITA,33075,Morsano Al Tagliamento,PN,45.8503,12.9261
ITA,33076,Barco,PN,45.8193,12.6832
ITA,33077,Cavolano,PN,45.9353,12.5046
ITA,33078,Savorgnano,PN,45.903,12.8626
ITA,33079,Bagnarola,PN,45.8629,12.8591
ITA,33080,Cimpello,PN,46.0388,12.6532
ITA,33081,Glera,PN,46.0944,12.609
ITA,33082,Tiezzo,PN,45.8933,12.6701
ITA,33083,Chions,PN,45.8836,12.6861
ITA,33084,Cordenons,PN,45.9839,12.6872
ITA,33085,Maniago,PN,46.1563,12.7241
ITA,33086,Montereale Valcellina,PN,46.1236,12.6607
ITA,33087,Pasiano Di Pordenone,PN,45.901,12.6663
ITA,33090,Castelnovo Del Friuli,PN,46.2167,12.8565
ITA,33092,Cavasso Nuovo,PN,46.198,12.7743
ITA,33094,Valeriano,PN,46.1747,12.9329
ITA,33095,San Giorgio Della Richinvelda,PN,46.0455,12.8499
ITA,33097,Istrago,PN,46.1145,12.8796
ITA,33098,Valvasone Arzene,PN,45.9978,12.8546
ITA,33099,Vivaro,PN,46.0766,12.7791
ITA,33100,Gervasutta,UD,46.0664,13.2569
ITA,33170,Borgo Meduna,PN,45.9476,12.6526
ITA,34010,Sgonico,TS,45.7358,13.7471
ITA,34011,Duino Aurisina,TS,45.7695,13.6395
ITA,34012,Basovizza,TS,45.6417,13.8632
ITA,34014,Santa Croce Di Trieste,TS,45.7259,13.7001
ITA,34015,Muggia,TS,45.6007,13.7831
ITA,34016,Monrupino,TS,45.7228,13.791
ITA,34017,Prosecco,TS,45.7081,13.7338
ITA,34018,Bagnoli Della Rosandra,TS,45.6146,13.8477
ITA,34070,Giasbana,GO,45.9071,13.511
ITA,34071,Cormons,GO,45.9541,13.4546
ITA,34072,Farra D'Isonzo,GO,45.9003,13.5091
ITA,34073,Fossalon,GO,45.6796,13.4164
ITA,34074,Monfalcone,GO,45.7907,13.531
ITA,34075,San Canzian D'Isonzo,GO,45.7995,13.454
ITA,34076,Fratta,GO,45.9035,13.4309
ITA,34077,Ronchi Dei Legionari,GO,45.8313,13.5083
ITA,34078,Poggio Terzarmata,GO,45.8791,13.513
ITA,34079,Staranzano,GO,45.7978,13.502
ITA,34100,Trieste,TS,45.6495,13.7768
ITA,34121,Trieste,TS,45.6495,13.7768
ITA,34122,Trieste,TS,45.6495,13.7768
ITA,34123,Trieste,TS,45.6495,13.7768
ITA,34124,Trieste,TS,45.6495,13.7768
ITA,34125,Trieste,TS,45.6495,13.7768
ITA,34126,Trieste,TS,45.6495,13.7768
ITA,34127,Trieste,TS,45.6495,13.7768
ITA,34128,Trieste,TS,45.6495,13.7768
ITA,34129,Trieste,TS,45.6495,13.7768
ITA,34131,Trieste,TS,45.6495,13.7768
ITA,34132,Trieste,TS,45.6495,13.7768
ITA,34133,Trieste,TS,45.6495,13.7768
ITA,34134,Trieste,TS,45.6495,13.7768
ITA,34135,Trieste,TS,45.6495,13.7768
ITA,34136,Trieste,TS,45.6719,13.7573
ITA,34137,Trieste,TS,45.6495,13.7768
ITA,34138,Trieste,TS,45.6495,13.7768
ITA,34139,Trieste,TS,45.6495,13.7768
ITA,34141,Trieste,TS,45.6495,13.7768
ITA,34142,Trieste,TS,45.6495,13.7768
ITA,34143,Trieste,TS,45.6495,13.7768
ITA,34144,Trieste,TS,45.6495,13.7768
ITA,34145,Trieste,TS,45.6495,13.7768
ITA,34146,Trieste,TS,45.6495,13.7768
ITA,34147,Trieste,TS,45.6274,13.7926
ITA,34148,Trieste,TS,45.6495,13.7768
ITA,34149,Cattinara,TS,45.6421,13.8024
ITA,34151,Trieste,TS,45.6495,13.7768
ITA,34170,Piedimonte Del Calvario,GO,45.9519,13.6058
ITA,35010,Massanzago,PD,45.5293,11.8762
ITA,35011,Campodarsego,PD,45.4981,11.9219
ITA,35012,Camposampiero,PD,45.5665,11.9557
ITA,35013,Laghi,PD,45.6594,11.7483
ITA,35014,Fontaniva,PD,45.6352,11.7538
ITA,35015,Galliera Veneta,PD,45.6675,11.8222
ITA,35016,Piazzola Sul Brenta,PD,45.532,11.792
ITA,35017,Piombino Dese,PD,45.5967,12.0137
ITA,35018,San Martino Di Lupari,PD,45.6513,11.86
ITA,35019,Tombolo,PD,45.628,11.8205
ITA,35020,Vigorovea,PD,45.2897,11.9428
ITA,35021,Agna,PD,45.1705,11.9563
ITA,35022,Borgoforte,PD,45.1445,11.9134
ITA,35023,San Siro,PD,45.1817,11.9109
ITA,35024,Bovolenta,PD,45.2689,11.9358
ITA,35025,Cagnola,PD,45.2754,11.8625
ITA,35026,Conselve,PD,45.2315,11.875
ITA,35027,Oltre Brenta,PD,45.4121,11.998
ITA,35028,Piove Di Sacco,PD,45.2991,12.0385
ITA,35029,Pontelongo,PD,45.2459,12.0258
ITA,35030,Galzignano Terme,PD,45.371,11.7277
ITA,35031,Monteortone,PD,45.3575,11.7872
ITA,35032,Arqua' Petrarca,PD,45.2691,11.7205
ITA,35034,Lozzo Atestino,PD,45.3037,11.6042
ITA,35035,Mestrino,PD,45.4514,11.7394
ITA,35036,Montegrotto Terme,PD,45.3312,11.7863
ITA,35037,Bresseo,PD,45.3589,11.6987
ITA,35038,Torreglia,PD,45.3362,11.7361
ITA,35040,Valli Moceniche,PD,45.1621,11.5866
ITA,35041,Battaglia Terme,PD,45.2853,11.7838
ITA,35042,Deserto,PD,45.2581,11.7204
ITA,35043,Costa Calcinara,PD,45.2313,11.7709
ITA,35044,Montagnana,PD,45.2323,11.4648
ITA,35045,Ospedaletto Euganeo,PD,45.2184,11.6035
ITA,35046,Saletto,PD,45.2289,11.5378
ITA,35047,Solesino,PD,45.1792,11.7465
ITA,35048,Ponte Gorzone,PD,45.1499,11.7576
ITA,35100,Padova,PD,45.408,11.8859
ITA,35121,Padova,PD,45.408,11.8859
ITA,35122,Padova,PD,45.408,11.8859
ITA,35123,Padova,PD,45.408,11.8859
ITA,35124,Salboro,PD,45.408,11.8859
ITA,35125,Padova,PD,45.3787,11.8468
ITA,35126,Padova,PD,45.408,11.8859
ITA,35127,Terranegra,PD,45.404,11.9179
ITA,35128,Padova,PD,45.408,11.8859
ITA,35129,Mortise,PD,45.4123,11.9096
ITA,35131,Padova,PD,45.408,11.8859
ITA,35132,Padova,PD,45.408,11.8859
ITA,35133,Padova,PD,45.408,11.8859
ITA,35134,Padova,PD,45.408,11.8859
ITA,35135,Padova,PD,45.408,11.8859
ITA,35136,Padova,PD,45.408,11.8859
ITA,35137,Padova,PD,45.408,11.8859
ITA,35138,Monta',PD,45.408,11.8859
ITA,35139,Padova,PD,45.408,11.8859
ITA,35141,Padova,PD,45.408,11.8859
ITA,35142,Mandria,PD,45.2874,11.7761
ITA,35143,Brusegana,PD,45.408,11.8859
ITA,36010,Cavazzale,VI,45.7961,11.4452
ITA,36011,Arsiero,VI,45.8106,11.3329
ITA,36012,Sasso,VI,45.8852,11.514
ITA,36013,Piovene Rocchette,VI,45.756,11.4327
ITA,36014,Santorso,VI,45.7338,11.3878
ITA,36015,Magre' Di Schio,VI,45.7212,11.3555
ITA,36016,Rozzampia,VI,45.7096,11.4701
ITA,36020,Cismon Del Grappa,VI,45.6204,11.6263
ITA,36021,Barbarano Vicentino,VI,45.4013,11.5522
ITA,36022,San Giuseppe,VI,45.7093,11.6987
ITA,36023,Longare,VI,45.4769,11.5947
ITA,36024,Nanto,VI,45.4258,11.5752
ITA,36025,Noventa Vicentina,VI,45.2944,11.5484
ITA,36026,Cagnano,VI,45.3026,11.5031
ITA,36027,Rosa',VI,45.702,11.7614
ITA,36028,Rossano Veneto,VI,45.7031,11.8037
ITA,36030,Leva' Di Montecchio Precalcino,VI,45.6924,11.4489
ITA,36031,Dueville,VI,45.6356,11.5513
ITA,36032,Gallio,VI,45.8851,11.5342
ITA,36033,Isola Vicentina,VI,45.6225,11.4528
ITA,36034,Malo,VI,45.6665,11.4533
ITA,36035,Marano Vicentino,VI,45.696,11.4324
ITA,36036,Torrebelvicino,VI,45.7158,11.3187
ITA,36040,Lerino,VI,45.5941,11.4756
ITA,36042,Mirabella,VI,45.6926,11.5777
ITA,36043,Camisano Vicentino,VI,45.5216,11.7082
ITA,36045,Alonte,VI,45.3941,11.4342
ITA,36046,Santa Caterina,VI,45.764,11.4405
ITA,36047,Montegalda,VI,45.4417,11.6726
ITA,36050,Ospedaletto,VI,45.5891,11.5698
ITA,36051,Olmo,VI,45.6027,11.4843
ITA,36052,Enego,VI,45.9281,11.6907
ITA,36053,Gambellara,VI,45.4598,11.3401
ITA,36054,Montebello Vicentino,VI,45.4592,11.3827
ITA,36055,Nove,VI,45.7216,11.6783
ITA,36056,Belvedere,VI,45.6653,11.6795
ITA,36057,Torri D'Arcugnano,VI,45.497,11.543
ITA,36060,Villa Di Molvena,VI,45.7221,11.6357
ITA,36061,Campese,VI,45.7866,11.7098
ITA,36062,Conco,VI,45.7985,11.6206
ITA,36063,Vallonara,VI,45.7623,11.6455
ITA,36064,Mason Vicentino,VI,45.7184,11.6166
ITA,36065,Casoni,VI,45.7028,11.7018
ITA,36066,Sandrigo,VI,45.6608,11.5892
ITA,36070,Molino,VI,45.596,11.3139
ITA,36071,Arzignano,VI,45.5358,11.3417
ITA,36072,Chiampo,VI,45.5475,11.2829
ITA,36073,Cereda,VI,45.584,11.3307
ITA,36075,Alte Di Montecchio Maggiore,VI,45.5126,11.409
ITA,36076,Recoaro Terme,VI,45.7037,11.2222
ITA,36077,Tavernelle Vicentina,VI,45.5069,11.4799
ITA,36078,Novale,VI,45.64,11.2822
ITA,36100,Longara,VI,45.6584,11.4957
ITA,37010,Albare' Stazione,VR,45.5885,10.7635
ITA,37011,Cisano,VR,45.5284,10.7381
ITA,37012,Bussolengo,VR,45.4703,10.873
ITA,37013,Boi,VR,45.618,10.8056
ITA,37014,Castelnuovo Del Garda,VR,45.4357,10.756
ITA,37015,Sant'Ambrogio Di Valpolicella,VR,45.5377,10.8403
ITA,37016,Garda,VR,45.5789,10.7176
ITA,37017,Cola',VR,45.4803,10.7365
ITA,37018,Cassone,VR,45.7614,10.8086
ITA,37019,Peschiera Del Garda,VR,45.4391,10.6861
ITA,37020,Cerna,VR,45.6128,10.9206
ITA,37021,Corbiolo,VR,45.6057,11.0218
ITA,37022,Cavalo,VR,45.5785,10.8864
ITA,37023,Grezzana,VR,45.5439,11.0199
ITA,37024,Arbizzano Di Valpolicella,VR,45.5063,10.9385
ITA,37026,Pescantina,VR,45.4898,10.8731
ITA,37028,Rovere' Veronese,VR,45.5933,11.07
ITA,37029,San Floriano,VR,45.5234,10.9151
ITA,37030,Cazzano Di Tramigna,VR,45.4914,11.1799
ITA,37031,Cellore,VR,45.4766,11.18
ITA,37032,Brognoligo,VR,45.4344,11.2891
ITA,37035,San Giovanni Ilarione,VR,45.5193,11.2371
ITA,37036,San Martino Buon Albergo,VR,45.4287,11.0985
ITA,37038,Castelletto,VR,45.3421,11.3317
ITA,37039,Centro,VR,45.5286,11.1515
ITA,37040,Sabbion,VR,45.2711,11.3546
ITA,37041,Coriano Veronese,VR,45.3014,11.2968
ITA,37042,Caldierino,VR,45.4153,11.1672
ITA,37043,Mena' Vallestrema,VR,45.1034,11.4215
ITA,37044,Cologna Veneta,VR,45.3052,11.3808
ITA,37045,Vangadizza,VR,45.1912,11.3128
ITA,37046,Minerbe,VR,45.232,11.3525
ITA,37047,Prova,VR,45.4028,11.2879
ITA,37049,Spinimbecco,VR,45.1447,11.3735
ITA,37050,Concamarise,VR,45.2815,11.1916
ITA,37051,Bovolone,VR,45.2772,11.1014
ITA,37052,Casaleone,VR,45.1682,11.194
ITA,37053,Cherubine,VR,45.2046,11.1996
ITA,37054,Nogara,VR,45.1811,11.0601
ITA,37055,Ronco All'Adige,VR,45.3348,11.2286
ITA,37056,Crosarol,VR,45.2135,11.0941
ITA,37057,Pozzo Camacici,VR,45.3656,11.0413
ITA,37058,Sanguinetto,VR,45.1857,11.1441
ITA,37059,Zevio,VR,45.3626,11.1186
ITA,37060,Castel D'Azzano,VR,45.2826,10.9566
ITA,37062,Alpo,VR,45.3851,10.9152
ITA,37063,Isola Della Scala,VR,45.2562,11.0279
ITA,37064,Povegliano Veronese,VR,45.3473,10.8806
ITA,37066,Sommacampagna,VR,45.3987,10.8454
ITA,37067,Salionze,VR,45.3791,10.7295
ITA,37068,Forette,VR,45.3324,10.937
ITA,37069,Villafranca Di Verona,VR,45.3469,10.8308
ITA,37100,Verona,VR,45.4299,10.9844
ITA,37121,Verona,VR,45.4299,10.9844
ITA,37122,Verona,VR,45.4299,10.9844
ITA,37123,Verona,VR,45.4299,10.9844
ITA,37124,Verona,VR,45.4299,10.9844
ITA,37125,Quinzano,VR,45.4299,10.9844
ITA,37126,Verona,VR,45.4299,10.9844
ITA,37127,Avesa,VR,45.4483,10.9922
ITA,37128,Verona,VR,45.4299,10.9844
ITA,37129,Verona,VR,45.4299,10.9844
ITA,37131,Verona,VR,45.4299,10.9844
ITA,37132,Verona,VR,45.4305,11.0178
ITA,37133,Verona,VR,45.4299,10.9844
ITA,37134,Verona,VR,45.4299,10.9844
ITA,37135,Verona,VR,45.4299,10.9844
ITA,37136,Verona,VR,45.4299,10.9844
ITA,37137,Verona,VR,45.4299,10.9844
ITA,37138,Verona,VR,45.4299,10.9844
ITA,37139,San Massimo All'Adige,VR,45.4465,10.9497
ITA,37142,Verona,VR,45.4299,10.9844
ITA,38010,Vigo Anaunia,TN,46.2876,11.088
ITA,38011,Cavareno,TN,46.406,11.1382
ITA,38012,Predaia,TN,46.3228,11.0863
ITA,38013,Fondo,TN,46.4464,11.1364
ITA,38015,Pressano,TN,46.1524,11.1087
ITA,38016,Mezzocorona,TN,46.2116,11.1225
ITA,38017,Mezzolombardo,TN,46.2077,11.0964
ITA,38018,Molveno,TN,46.1424,10.963
ITA,38019,Tuenno,TN,46.3287,11.0387
ITA,38020,Rabbi,TN,46.3836,10.9385
ITA,38021,Brez,TN,46.4322,11.1058
ITA,38022,Cavizzana,TN,46.3743,10.9619
ITA,38023,Cles,TN,46.3614,11.0261
ITA,38024,Celedizzo,TN,46.3531,10.6904
ITA,38025,Monclassico,TN,46.3299,10.8797
ITA,38026,Ossana,TN,46.3101,10.7367
ITA,38027,Male',TN,46.3532,10.9138
ITA,38028,Revo',TN,46.4056,11.0546
ITA,38029,Vermiglio,TN,46.2848,10.6569
ITA,38030,Castello Di Fiemme,TN,46.2839,11.4324
ITA,38031,Campitello Di Fassa,TN,46.4758,11.7411
ITA,38032,Sass Pordoi,TN,46.433,11.734
ITA,38033,Cavalese,TN,46.288,11.4609
ITA,38034,Cembra,TN,46.1678,11.2047
ITA,38035,Forno Di Fiemme,TN,46.3635,11.6437
ITA,38036,Pera Di Fassa,TN,46.4367,11.6912
ITA,38037,Bellamonte,TN,46.3052,11.6955
ITA,38038,Tesero,TN,46.2918,11.5095
ITA,38039,Costalunga,TN,46.419,11.6742
ITA,38040,Lona Lases,TN,46.1058,11.2397
ITA,38041,Albiano,TN,46.1445,11.1946
ITA,38042,Faida Di Pine',TN,46.107,11.2474
ITA,38043,Bedollo,TN,46.1676,11.3123
ITA,38045,Civezzano,TN,46.091,11.1911
ITA,38046,Lavarone,TN,45.977,11.232
ITA,38047,Quaras,TN,46.1856,11.2768
ITA,38048,Sover,TN,46.2217,11.3157
ITA,38049,Vattaro,TN,45.9948,11.2199
ITA,38050,Monte Di Mezzo,TN,46.0905,11.5117
ITA,38051,Borgo,TN,46.0512,11.4576
ITA,38052,Caldonazzo,TN,45.9937,11.2643
ITA,38053,Castello Tesino,TN,46.063,11.6325
ITA,38054,Siror,TN,46.1971,11.8264
ITA,38055,Tezze Val Sugana,TN,46.0096,11.6242
ITA,38056,Barco,TN,46.0081,11.3214
ITA,38057,San Cristoforo Al Lago,TN,46.0658,11.2394
ITA,38059,Strigno,TN,46.0641,11.5233
ITA,38060,Ronzo Chienis,TN,45.8822,10.9657
ITA,38061,Serravalle All'Adige,TN,45.7903,11.0106
ITA,38062,Oltresarca,TN,45.9109,10.8901
ITA,38063,Borghetto All'Adige,TN,45.7377,10.9484
ITA,38064,Mezzomonte,TN,45.9175,11.1853
ITA,38065,Manzano,TN,45.8582,10.9549
ITA,38066,Riva Del Garda,TN,45.8973,10.8415
ITA,38067,Biacesa Di Ledro,TN,45.8743,10.8485
ITA,38068,Mori Ferrovia,TN,45.8731,11.0358
ITA,38069,Torbole,TN,45.8759,10.8911
ITA,38070,Villa Banale,TN,46.0468,10.8749
ITA,38071,Bleggio Inferiore,TN,46.0259,10.8248
ITA,38073,Cavedine,TN,45.9891,10.9798
ITA,38074,Dro,TN,45.9755,10.9255
ITA,38075,Ballino,TN,45.985,10.8268
ITA,38076,Madruzzo,TN,46.0386,10.9769
ITA,38077,Bagni Di Comano,TN,46.0228,10.8772
ITA,38078,San Lorenzo Dorsino,TN,46.0779,10.9099
ITA,38079,Bolbeno,TN,46.0468,10.7413
ITA,38080,Iavre' Vigo Rendena,TN,46.0256,10.6862
ITA,38082,Castel Condino,TN,45.9144,10.6028
ITA,38083,Brione,TN,45.8962,10.599
ITA,38085,Creto,TN,45.9393,10.6379
ITA,38086,Sant'Antonio Di Mavignola,TN,46.1736,10.7832
ITA,38087,Roncone,TN,45.9898,10.6798
ITA,38088,Spiazzo Rendena,TN,46.1036,10.7394
ITA,38089,Darzo,TN,45.8402,10.555
ITA,38091,Valdaone,TN,45.9472,10.6302
ITA,38092,Valda,TN,46.21,11.2735
ITA,38093,Flavon,TN,46.2981,11.0292
ITA,38094,Iavre',TN,46.0682,10.7152
ITA,38095,Preore,TN,46.0531,10.7632
ITA,38096,Vezzano,TN,46.0735,10.9863
ITA,38100,Baselga Di Vezzano,TN,46.0788,11.1126
ITA,38121,Trento,TN,46.0679,11.1211
ITA,39010,Unsere Liebe Frau Im Wald,BZ,46.6286,11.1873
ITA,39011,Monte San Vigilio,BZ,46.6214,11.1376
ITA,39012,Meran Sinic,BZ,46.6541,11.1644
ITA,39013,Ulfas,BZ,46.803,11.1777
ITA,39014,Postal,BZ,46.6095,11.1931
ITA,39015,Walte,BZ,46.7623,11.2287
ITA,39016,Santa Geltrude In Ultimo,BZ,46.5783,10.9206
ITA,39017,Scena,BZ,46.6763,11.1845
ITA,39018,Siebeneich,BZ,46.5336,11.2455
ITA,39019,Tirolo,BZ,46.6686,11.1622
ITA,39020,Montefranco In Venosta,BZ,46.6525,10.7739
ITA,39021,Coldrano,BZ,46.6181,10.836
ITA,39022,Vellau,BZ,46.6619,10.8693
ITA,39023,Tschengel,BZ,46.6276,10.6838
ITA,39024,Mazia,BZ,46.6856,10.6034
ITA,39025,Stabe,BZ,46.6494,11.0028
ITA,39026,Prato Allo Stelvio,BZ,46.6295,10.6133
ITA,39027,Curon Venosta,BZ,46.8069,10.5297
ITA,39028,Schlanders,BZ,46.6345,10.7664
ITA,39029,Trafo,BZ,46.5563,10.5552
ITA,39030,St.Vigi,BZ,46.7894,11.9195
ITA,39031,Dietenheim,BZ,46.7707,11.9409
ITA,39032,Molini Di Tures,BZ,46.8952,11.9143
ITA,39033,Kolfusch,BZ,46.5516,11.8677
ITA,39034,Toblach,BZ,46.7369,12.2203
ITA,39035,Monguelfo,BZ,46.7633,12.1098
ITA,39036,Badia,BZ,46.6105,11.9136
ITA,39037,Spinges,BZ,46.7953,11.8605
ITA,39038,Winnebach,BZ,46.7614,12.0518
ITA,39039,Villabassa,BZ,46.7378,12.1727
ITA,39040,Naz Sciaves,BZ,46.6034,11.442
ITA,39041,Gossensas,BZ,46.9833,11.485
ITA,39042,Albes,BZ,46.6767,11.573
ITA,39043,Chiusa,BZ,46.6446,11.5499
ITA,39044,Neumarkt,BZ,46.3852,11.3138
ITA,39045,Mittewald,BZ,46.6941,11.5255
ITA,39046,Ortisei,BZ,46.6032,11.5706
ITA,39047,Santa Cristina Val Gardena,BZ,46.5968,11.6008
ITA,39048,Selva,BZ,46.5547,11.7604
ITA,39049,Prati,BZ,46.8242,11.4706
ITA,39050,Untereggen,BZ,46.4979,11.4053
ITA,39051,Vadena,BZ,46.4086,11.3129
ITA,39052,Mitterdorf,BZ,46.4839,11.3638
ITA,39053,Bluma,BZ,46.4848,11.4239
ITA,39054,Soprabolzano,BZ,46.5412,11.42
ITA,39055,Seit Bei Leifer,BZ,46.4458,11.3418
ITA,39056,Karersee,BZ,46.4185,11.5687
ITA,39057,Cornaiano,BZ,46.465,11.2827
ITA,39058,Campolasta,BZ,46.6544,11.4118
ITA,39059,Wolfsgruben,BZ,46.5041,11.3975
ITA,39100,Bozen,BZ,46.4907,11.3398
ITA,40010,Interporto Bentivoglio,BO,44.6174,11.3418
ITA,40011,Anzola Dell'Emilia,BO,44.5615,11.2042
ITA,40012,Lippo,BO,44.5653,11.2658
ITA,40013,Trebbo Di Reno,BO,44.5642,11.3489
ITA,40014,Palata Pepoli,BO,44.6651,11.2683
ITA,40015,Galliera Frazione,BO,44.7411,11.4564
ITA,40016,San Giorgio Di Piano,BO,44.6472,11.3745
ITA,40017,San Matteo Della Decima,BO,44.6474,11.1906
ITA,40018,Maccaretolo,BO,44.7096,11.4175
ITA,40019,Sant'Agata Bolognese,BO,44.6602,11.1329
ITA,40020,Casalfiumanese,BO,44.2969,11.624
ITA,40021,Tossignano,BO,44.2774,11.6005
ITA,40022,Moraduccio Di Valsalva,BO,44.2378,11.4935
ITA,40023,Castel Guelfo Di Bologna,BO,44.4317,11.6759
ITA,40024,Gallo,BO,44.4105,11.5583
ITA,40025,Carseggio,BO,44.2463,11.5376
ITA,40026,Sasso Morelli,BO,44.4023,11.7228
ITA,40027,Mordano,BO,44.4052,11.795
ITA,40030,Piano Di Setta,BO,44.1988,11.0732
ITA,40032,Camugnano,BO,44.1657,11.0684
ITA,40033,Casalecchio Di Reno,BO,44.4756,11.2749
ITA,40034,Santa Maria Di Labante,BO,44.2888,11.0055
ITA,40035,Creda,BO,44.1702,11.1782
ITA,40036,Monzuno,BO,44.2897,11.2414
ITA,40037,Sasso Marconi,BO,44.4135,11.2567
ITA,40038,Susano,BO,44.2894,11.0767
ITA,40041,Bombiana,BO,44.2128,10.9847
ITA,40042,Farneto Di Lizzano,BO,44.1666,10.8809
ITA,40043,Marzabotto,BO,44.3462,11.2201
ITA,40046,Capugnano,BO,44.1231,10.9573
ITA,40048,Madonna Dei Fornelli,BO,44.1919,11.2471
ITA,40050,Gavignano,BO,44.4658,11.2815
ITA,40051,Altedo,BO,44.6773,11.496
ITA,40052,Mondonuovo,BO,44.6683,11.5654
ITA,40053,Valsamoggia,BO,44.5018,11.0868
ITA,40054,Riccardina,BO,44.558,11.5384
ITA,40055,Castenaso,BO,44.5084,11.4608
ITA,40056,Pragatto,BO,44.5228,11.125
ITA,40057,Granarolo Dell'Emilia,BO,44.5588,11.4218
ITA,40059,Ganzanigo,BO,44.505,11.6684
ITA,40060,Gallo Bolognese,BO,44.3699,11.3656
ITA,40061,Ca' De' Fabbri,BO,44.6189,11.4638
ITA,40062,Selva Malvezzi,BO,44.6063,11.6533
ITA,40063,Monghidoro,BO,44.2233,11.3233
ITA,40064,Ozzano Dell'Emilia,BO,44.418,11.4528
ITA,40065,Pianoro Vecchio,BO,44.3567,11.3378
ITA,40066,Pieve Di Cento,BO,44.7129,11.3092
ITA,40067,Rastignano,BO,44.4362,11.3569
ITA,40068,Pulce,BO,44.451,11.4064
ITA,40069,Zola Predosa,BO,44.4911,11.2149
ITA,40100,Bologna,BO,44.4938,11.3387
ITA,40121,Bologna,BO,44.4938,11.3387
ITA,40122,Bologna,BO,44.4938,11.3387
ITA,40123,Bologna,BO,44.4938,11.3387
ITA,40124,Bologna,BO,44.4938,11.3387
ITA,40125,Bologna,BO,44.4938,11.3387
ITA,40126,Bologna,BO,44.4938,11.3387
ITA,40127,San Donnino,BO,44.4623,11.3432
ITA,40128,Corticella,BO,44.5214,11.3469
ITA,40129,Bologna,BO,44.4938,11.3387
ITA,40131,Bertalia,BO,44.4938,11.3387
ITA,40132,Borgo Panigale,BO,44.5053,11.3027
ITA,40133,Bologna,BO,44.4938,11.3387
ITA,40134,Bologna,BO,44.4938,11.3387
ITA,40135,Casaglia,BO,44.4623,11.3432
ITA,40136,Roncrio,BO,44.471,11.3274
ITA,40137,Bologna,BO,44.4938,11.3387
ITA,40138,Roveri,BO,44.4623,11.3432
ITA,40139,Bologna,BO,44.4938,11.3387
ITA,40141,Monte Donato,BO,44.4719,11.3527
ITA,41011,Saliceto Buzzalino,MO,44.6699,10.9171
ITA,41012,Carpi,MO,44.7661,10.8831
ITA,41013,Gaggio Di Piano,MO,44.5995,11.0833
ITA,41014,Castelvetro Di Modena,MO,44.5118,10.9343
ITA,41015,Nonantola,MO,44.6803,11.0498
ITA,41016,Rovereto Sulla Secchia,MO,44.877,10.9251
ITA,41017,Ravarino,MO,44.7391,11.1074
ITA,41018,San Cesario Sul Panaro,MO,44.5635,11.0351
ITA,41019,Soliera,MO,44.7421,10.9304
ITA,41020,Castellino Brocco,MO,44.2583,10.6578
ITA,41021,Fanano,MO,44.2263,10.788
ITA,41022,Dogana Nuova,MO,44.1689,10.6469
ITA,41023,Lama Mocogno,MO,44.2996,10.709
ITA,41025,Acquaria,MO,44.2624,10.7407
ITA,41026,Iddiano,MO,44.332,10.8311
ITA,41027,Sant'Anna Pelago,MO,44.1974,10.6046
ITA,41028,Selva Nel Frignano,MO,44.4339,10.7994
ITA,41029,Castellaro Nel Frignano,MO,44.2591,10.7821
ITA,41030,San Pietro In Elda,MO,44.787,11.0385
ITA,41031,Camposanto,MO,44.7901,11.1405
ITA,41032,Motta Sulla Secchia,MO,44.8286,11.0079
ITA,41033,Concordia Sulla Secchia,MO,44.9131,10.9817
ITA,41034,Finale Emilia,MO,44.8336,11.3075
ITA,41035,Massa Finalese,MO,44.8524,11.2143
ITA,41036,Villafranca Di Medolla,MO,44.8477,11.0683
ITA,41037,Mirandola,MO,44.8675,11.0932
ITA,41038,Confine,MO,44.8419,11.1591
ITA,41039,San Possidonio,MO,44.874,10.9809
ITA,41040,San Martino Vallata,MO,44.3787,10.7164
ITA,41042,Spezzano,MO,44.5449,10.8343
ITA,41043,Formigine,MO,44.5765,10.8539
ITA,41044,Riccovolto,MO,44.2755,10.543
ITA,41045,Vitriola,MO,44.369,10.6334
ITA,41046,Monchio Nel Frignano,MO,44.3425,10.6486
ITA,41048,Sasso Morello,MO,44.445,10.6916
ITA,41049,Montegibbio,MO,44.5258,10.766
ITA,41051,Montale Rangone,MO,44.5626,10.9163
ITA,41052,Castellino Delle Formiche,MO,44.3948,10.9503
ITA,41053,Gorzano,MO,44.5182,10.8786
ITA,41054,Ospitaletto,MO,44.4589,10.9137
ITA,41055,Salto,MO,44.2819,10.9285
ITA,41056,Magazzino,MO,44.475,11.0239
ITA,41057,Spilamberto,MO,44.5455,10.9957
ITA,41058,Vignola,MO,44.4838,11.011
ITA,41059,Ciano Nel Frignano,MO,44.358,10.9917
ITA,41100,Vaciglio,MO,44.6429,10.9017
ITA,42010,San Cassiano,RE,44.4629,10.6073
ITA,42011,Bagnolo In Piano,RE,44.7644,10.6736
ITA,42012,Campagnola Emilia,RE,44.8393,10.7651
ITA,42013,Veggia,RE,44.5764,10.7541
ITA,42014,Castellarano,RE,44.5173,10.7228
ITA,42015,Correggio,RE,44.7576,10.7627
ITA,42016,Guastalla,RE,44.8239,10.6057
ITA,42017,Vezzola,RE,44.7199,10.6206
ITA,42018,San Martino In Rio,RE,44.7337,10.7849
ITA,42019,Pratissolo,RE,44.5981,10.6695
ITA,42020,Roncolo,RE,44.5781,10.483
ITA,42021,Bibbiano,RE,44.6756,10.4848
ITA,42022,Boretto,RE,44.9016,10.5515
ITA,42023,Argine,RE,44.7807,10.6164
ITA,42024,Meletole,RE,44.8307,10.5745
ITA,42025,Cavriago,RE,44.6946,10.5259
ITA,42026,Compiano D'Enza,RE,44.5876,10.4329
ITA,42027,Montecchio Emilia,RE,44.6994,10.4521
ITA,42028,Poviglio,RE,44.8423,10.5394
ITA,42030,San Giovanni Di Querciola,RE,44.4572,10.509
ITA,42031,Baiso,RE,44.5313,10.636
ITA,42032,Collagna,RE,44.3665,10.2773
ITA,42033,Carpineti,RE,44.4633,10.5235
ITA,42034,Casina,RE,44.5301,10.4739
ITA,42035,Villaberza,RE,44.4236,10.4232
ITA,42040,Campegine,RE,44.778,10.52
ITA,42041,Lentigione,RE,44.881,10.498
ITA,42042,Fabbrico,RE,44.8721,10.8089
ITA,42043,Gattatico,RE,44.7906,10.4573
ITA,42044,Gualtieri,RE,44.8761,10.6244
ITA,42045,Casoni,RE,44.9517,10.725
ITA,42046,Reggiolo,RE,44.9201,10.7863
ITA,42047,Rolo,RE,44.8848,10.8596
ITA,42048,Rubiera,RE,44.6516,10.7794
ITA,42049,Sant'Ilario D'Enza,RE,44.7539,10.4667
ITA,42100,San Pellegrino,RE,44.6913,10.6404
ITA,43010,Valditacca,PR,44.6972,10.1629
ITA,43011,Roncole Verdi,PR,44.9659,10.0583
ITA,43012,Parola,PR,44.869,10.1424
ITA,43013,Langhirano,PR,44.6161,10.2443
ITA,43014,Felegara,PR,44.7269,10.1139
ITA,43015,Noceto,PR,44.8095,10.1773
ITA,43016,Zibello,PR,45.016,10.125
ITA,43017,San Secondo Parmense,PR,44.9222,10.2304
ITA,43018,Sissa Trecasali,PR,44.9367,10.2682
ITA,43019,Soragna,PR,44.9269,10.1201
ITA,43021,Beduzzo,PR,44.4801,10.0839
ITA,43022,Basilicagoiano,PR,44.7107,10.3934
ITA,43024,Mozzano,PR,44.5449,10.2795
ITA,43025,Vairo,PR,44.4595,10.2205
ITA,43028,Carpaneto,PR,44.5143,10.2083
ITA,43029,Traversetolo,PR,44.6384,10.3709
ITA,43030,Ravarano,PR,44.6333,10.0415
ITA,43032,Bardi,PR,44.6339,9.7539
ITA,43035,Felino,PR,44.6794,10.2369
ITA,43036,Pieve Di Cusignano,PR,44.8991,10.054
ITA,43037,Mulazzano,PR,44.6214,10.2871
ITA,43038,San Vitale Di Baganza,PR,44.701,10.2036
ITA,43039,Congelasio,PR,44.7926,9.9914
ITA,43040,Selva Del Bocchetto,PR,44.6288,10.0333
ITA,43041,Molino Dell'Anzola,PR,44.5296,9.6015
ITA,43042,Castellonchio,PR,44.5363,9.979
ITA,43043,Tiedoli,PR,44.5096,9.8061
ITA,43044,Collecchio,PR,44.746,10.2001
ITA,43045,Piantonia,PR,44.6737,10.1182
ITA,43047,Iggio,PR,44.7048,9.8879
ITA,43048,Varano Dei Marchesi,PR,44.7375,10.0602
ITA,43049,Carpadasco,PR,44.6456,9.8588
ITA,43050,Valmozzola,PR,44.5732,9.9172
ITA,43051,San Quirico D'Albareto,PR,44.4588,9.7029
ITA,43052,Colorno,PR,44.6338,9.9599
ITA,43053,Strela,PR,44.528,9.6773
ITA,43055,Mezzano Rondani,PR,44.8544,10.3767
ITA,43056,Torrile,PR,44.9074,10.3403
ITA,43058,Sorbolo,PR,44.8377,10.4177
ITA,43059,Casale Di Tornolo,PR,44.4563,9.5807
ITA,43100,San Leonardo,PR,44.7589,10.311
ITA,43122,Parma,PR,44.7994,10.3262
ITA,43126,Parma,PR,44.7994,10.3262
ITA,44011,Argenta,FE,44.6256,11.8319
ITA,44012,Burana,FE,44.9133,11.363
ITA,44014,Madonna Boschi,FE,44.5575,12.0682
ITA,44015,Portomaggiore,FE,44.7143,11.8036
ITA,44019,Voghiera,FE,44.7513,11.7427
ITA,44020,Rovereto Ferrarese,FE,44.7739,12.0552
ITA,44021,Pontelangorino,FE,44.8556,12.1361
ITA,44022,Comacchio,FE,44.7363,12.1779
ITA,44023,Marozzo,FE,44.7733,12.1319
ITA,44026,Monticelli,FE,44.9135,12.1833
ITA,44027,Fiscaglia,FE,44.793,11.9716
ITA,44028,Poggio Renatico,FE,44.769,11.4972
ITA,44029,Lido Degli Estensi,FE,44.6655,12.2453
ITA,44030,Alberone Di Guarda,FE,44.9482,11.7823
ITA,44033,Berra,FE,44.9703,11.9731
ITA,44034,Zenzalino,FE,44.8833,11.8257
ITA,44035,Formignana,FE,44.8528,11.8747
ITA,44037,Jolanda Di Savoia,FE,44.8832,11.9791
ITA,44039,Tresigallo,FE,44.816,11.8947
ITA,44041,Casumaro,FE,44.8169,11.3347
ITA,44042,Penzale,FE,44.7742,11.3045
ITA,44043,Mirabello,FE,44.823,11.4567
ITA,44045,Renazzo,FE,44.7788,11.2886
ITA,44047,Sant'Agostino,FE,44.788,11.3782
ITA,44049,Vigarano Pieve,FE,44.8511,11.5015
ITA,44100,Chiesuol Del Fosso,FE,44.8208,11.6668
ITA,44121,Ferrara,FE,44.838,11.6206
ITA,44122,Ferrara,FE,44.838,11.6206
ITA,44123,Ferrara,FE,44.838,11.6206
ITA,44124,Ferrara,FE,44.838,11.6206
ITA,45010,Lama Polesine,RO,45.0566,12.0191
ITA,45011,Adria,RO,45.0603,12.0392
ITA,45012,Crociara,RO,44.9594,12.1676
ITA,45014,Contarina,RO,45.0122,12.2394
ITA,45015,Corbola,RO,45.0027,12.0857
ITA,45017,Loreo,RO,45.0621,12.1881
ITA,45018,Ivica,RO,44.9358,12.3885
ITA,45019,Mazzorno Destro,RO,44.9648,12.2357
ITA,45020,Villanova Del Ghebbo,RO,45.0579,11.548
ITA,45021,Badia Polesine,RO,45.0978,11.4908
ITA,45022,Bagnolo Di Po,RO,45.0155,11.5009
ITA,45023,Costa Di Rovigo,RO,45.0518,11.6956
ITA,45024,Fiesso Umbertiano,RO,44.9607,11.6058
ITA,45025,Fratta Polesine,RO,45.0282,11.6427
ITA,45026,Saguedo,RO,45.0913,11.5829
ITA,45027,Trecenta,RO,45.0283,11.4493
ITA,45030,Trona Di Sopra,RO,45.0046,11.6354
ITA,45031,Corne',RO,45.0179,11.7422
ITA,45032,Bergantino,RO,45.0614,11.2524
ITA,45033,Bosaro,RO,44.9988,11.7647
ITA,45034,Canaro,RO,44.9245,11.6698
ITA,45035,Castelmassa,RO,45.0183,11.3151
ITA,45036,Ficarolo,RO,44.9543,11.4366
ITA,45037,Santo Stefano,RO,45.0747,11.1981
ITA,45038,Polesella,RO,44.961,11.7392
ITA,45039,Stienta,RO,44.98,11.5767
ITA,45100,Cantonazzo,RO,45.0777,11.7787
ITA,46010,Villaggio Eremo,MN,45.1128,10.6071
ITA,46011,Mosio,MN,45.157,10.4569
ITA,46012,Bozzolo,MN,45.1032,10.4799
ITA,46013,Canneto Sull'Oglio,MN,45.1516,10.3828
ITA,46014,Ospitaletto Mantovano,MN,45.1623,10.634
ITA,46017,Cividale Mantovano,MN,45.0705,10.4628
ITA,46018,Sabbioneta,MN,45.0005,10.4995
ITA,46019,Bellaguarda,MN,44.9896,10.5916
ITA,46020,Quingentole,MN,45.011,11.0234
ITA,46022,Felonica,MN,44.979,11.3537
ITA,46023,Gonzaga,MN,44.9532,10.8196
ITA,46024,Bondanello,MN,44.9474,10.9304
ITA,46025,Poggio Rusco,MN,44.9669,11.1042
ITA,46026,Quistello,MN,45.0195,10.9949
ITA,46027,San Benedetto Po,MN,45.0512,10.9408
ITA,46028,Santa Croce,MN,44.9914,11.2249
ITA,46029,Sailetto,MN,44.9985,10.7495
ITA,46030,Villanova De Bellis,MN,45.0635,10.8434
ITA,46031,San Biagio,MN,45.0794,10.8527
ITA,46032,Castelbelforte,MN,45.2121,10.8925
ITA,46033,Castel D'Ario,MN,45.188,10.9745
ITA,46034,Borgo Virgilio,MN,45.0867,10.7803
ITA,46035,Correggioli,MN,45.068,11.1517
ITA,46036,Revere,MN,45.0521,11.1306
ITA,46037,Borgo Castelletto,MN,45.1181,10.9363
ITA,46039,Villimpenta,MN,45.1411,11.0317
ITA,46040,Ceresara,MN,45.2619,10.5557
ITA,46041,Castelnuovo Asolano,MN,45.2206,10.4312
ITA,46042,Castel Goffredo,MN,45.294,10.473
ITA,46043,Castiglione Delle Stiviere,MN,45.3746,10.4863
ITA,46044,Goito,MN,45.2557,10.636
ITA,46045,Marengo,MN,45.2595,10.7362
ITA,46046,Medole,MN,45.3259,10.5136
ITA,46047,Porto Mantovano,MN,45.194,10.7578
ITA,46048,Roverbella,MN,45.2563,10.7565
ITA,46049,Volta Mantovana,MN,45.3135,10.6501
ITA,46100,Frassino Mantovano,MN,45.1497,10.8287
ITA,47010,Portico E San Benedetto,FC,44.0061,11.7956
ITA,47011,Terra Del Sole,FC,44.1684,11.9434
ITA,47012,Nespoli,FC,44.0279,11.992
ITA,47013,San Ruffillo,FC,44.0795,11.9624
ITA,47014,San Colombano,FC,44.1082,12.056
ITA,47015,Modigliana,FC,44.1595,11.7929
ITA,47016,Rocca Delle Caminate,FC,44.101,11.9688
ITA,47017,Calbola,FC,44.0587,11.8427
ITA,47018,Biserno,FC,43.9189,11.8492
ITA,47019,Tredozio,FC,44.0796,11.7414
ITA,47020,Oriola,FC,44.0745,12.3189
ITA,47021,Monte Guidi,FC,43.8656,12.0011
ITA,47023,San Mauro In Valle,FC,44.1248,12.2363
ITA,47025,Cella,FC,43.9914,12.1761
ITA,47027,Quarto Di Sarsina,FC,43.9415,12.107
ITA,47028,Alfero,FC,43.8064,12.0515
ITA,47030,San Martino In Converseto,FC,44.0137,12.3163
ITA,47032,Collinello Polenta,FC,44.1515,12.1503
ITA,47034,Forlimpopoli,FC,44.1826,12.1189
ITA,47035,Gambettola,FC,44.1175,12.337
ITA,47039,Fiumicino Di Savignano,FC,44.1058,12.3999
ITA,47042,Villalta,FC,44.1751,12.3749
ITA,47043,Sant'Angelo In Salute,FC,44.1413,12.4134
ITA,47100,Cava,FC,44.2274,12.0381
ITA,47121,Forlì,FC,44.2218,12.0414
ITA,47122,Forlì,FC,44.2218,12.0414
ITA,47814,Bellaria Igea Marina,RN,44.1418,12.4715
ITA,47822,Ciola Corniale,RN,44.0485,12.4438
ITA,47824,Poggio Torriana,RN,44.0095,12.3996
ITA,47826,Villa Verucchio,RN,43.9934,12.4295
ITA,47832,San Clemente,RN,43.933,12.6385
ITA,47833,Morciano Di Romagna,RN,43.9144,12.651
ITA,47834,Serbadone,RN,43.8938,12.6237
ITA,47835,Saludecio,RN,43.8839,12.67
ITA,47836,Mondaino,RN,43.858,12.6685
ITA,47837,Montegridolfo,RN,43.8583,12.69
ITA,47838,Riccione,RN,43.9994,12.6569
ITA,47841,Cattolica,RN,43.9618,12.7363
ITA,47842,Pianventena,RN,43.9493,12.7141
ITA,47843,Villaggio Argentina,RN,43.9657,12.6795
ITA,47853,Ospedaletto,RN,43.9816,12.5784
ITA,47854,Taverna Di Monte Colombo,RN,43.9259,12.5652
ITA,47855,Onferno,RN,43.8882,12.5635
ITA,47861,Casteldelci,RN,43.7912,12.1551
ITA,47862,Maiolo,RN,43.873,12.3113
ITA,47863,Ponte Molino Baffoni,RN,43.885,12.2691
ITA,47864,Maciano,RN,43.8443,12.2688
ITA,47865,San Leo,RN,43.9067,12.3296
ITA,47866,Sant'Agata Feltria,RN,43.8662,12.2399
ITA,47867,Talamello,RN,43.9057,12.2848
ITA,47900,Santa Aquilina,RN,44.0499,12.5461
ITA,47921,Rimini,RN,44.0575,12.5653
ITA,47922,Rimini,RN,44.0575,12.5653
ITA,47923,Rimini,RN,44.0575,12.5653
ITA,47924,Rimini,RN,44.0575,12.5653
ITA,48010,Casal Borsetti,RA,44.3237,11.9914
ITA,48011,Alfonsine,RA,44.4563,12.08
ITA,48012,Abbatesse,RA,44.4198,12.0259
ITA,48013,San Martino In Gattara,RA,44.1998,11.7646
ITA,48014,Castel Bolognese,RA,44.3198,11.799
ITA,48015,Madonna Degli Angeli,RA,44.2562,12.3133
ITA,48017,Conselice,RA,44.5216,11.8431
ITA,48018,Santa Lucia Delle Spianate,RA,44.3011,11.9136
ITA,48020,Savarna,RA,44.4964,12.043
ITA,48022,Ascensione,RA,44.4851,11.8992
ITA,48024,Massa Lombarda,RA,44.447,11.8209
ITA,48025,Borgo Rivola,RA,44.2689,11.6994
ITA,48026,Godo,RA,44.3754,12.0623
ITA,48027,Solarolo,RA,44.3509,11.8441
ITA,48031,Bagnara Di Romagna,RA,44.3893,11.8273
ITA,48032,Casola Valsenio,RA,44.2244,11.6249
ITA,48033,San Severo,RA,44.3813,11.9088
ITA,48034,Fusignano,RA,44.4666,11.9564
ITA,48100,Santo Stefano,RA,44.374,12.1858
ITA,50010,Trespiano,FI,43.8343,11.2886
ITA,50012,Bagno A Ripoli,FI,43.7456,11.3264
ITA,50013,Capalle,FI,43.8144,11.1233
ITA,50014,San Domenico Di Fiesole,FI,43.817,11.2984
ITA,50018,Le Bagnese San Giusto,FI,43.7421,11.1509
ITA,50019,Colonnata,FI,43.8232,11.2132
ITA,50020,Mercatale Val Di Pesa,FI,43.6368,11.2279
ITA,50021,Marcialla,FI,43.5432,11.1374
ITA,50022,Greve In Chianti,FI,43.5851,11.3471
ITA,50023,Pozzolatico,FI,43.7108,11.2391
ITA,50025,Martignana,FI,43.6393,11.1
ITA,50026,San Casciano In Val Di Pesa,FI,43.6569,11.1789
ITA,50027,Chiocchio,FI,43.6398,11.2988
ITA,50028,Sambuca,FI,43.5615,11.2086
ITA,50031,Cafaggiolo,FI,44.0133,11.2632
ITA,50032,Borgo San Lorenzo,FI,43.9684,11.3951
ITA,50033,Pietramala,FI,44.1407,11.35
ITA,50034,Marradi,FI,44.0569,11.5957
ITA,50035,Misileo,FI,44.1365,11.565
ITA,50036,Fontebuona,FI,43.8859,11.2976
ITA,50037,San Piero A Sieve,FI,43.9625,11.3243
ITA,50038,Sant'Agata Mugello,FI,44.0043,11.3488
ITA,50039,Rupecanina,FI,43.9529,11.4801
ITA,50041,Settimello,FI,43.8899,11.2252
ITA,50050,Capraia,FI,43.6747,10.9357
ITA,50051,Dogana,FI,43.6208,10.961
ITA,50052,Certaldo,FI,43.5682,11.0783
ITA,50053,Osteria Bianca,FI,43.6844,10.9752
ITA,50054,San Pierino,FI,43.7169,10.8403
ITA,50055,Ponte A Signa,FI,43.7475,11.0796
ITA,50056,Samminiatello,FI,43.7259,11.0119
ITA,50058,San Mauro A Signa,FI,43.7942,11.1179
ITA,50059,Orbignano,FI,43.7612,10.9327
ITA,50060,Borselli,FI,43.8201,11.5539
ITA,50061,Compiobbi,FI,43.7849,11.3591
ITA,50062,Dicomano,FI,43.8792,11.5271
ITA,50063,Figline Valdarno,FI,43.62,11.4719
ITA,50064,Incisa In Val D'Arno,FI,43.6548,11.449
ITA,50065,Molino Del Piano,FI,43.8112,11.4219
ITA,50066,Matassino,FI,43.7084,11.5155
ITA,50067,Troghi,FI,43.7315,11.4133
ITA,50068,Contea,FI,43.8342,11.5211
ITA,50100,Firenze,FI,43.7793,11.2463
ITA,50121,Firenze,FI,43.7793,11.2463
ITA,50122,Firenze,FI,43.7793,11.2463
ITA,50123,Firenze,FI,43.7793,11.2463
ITA,50124,Galluzzo,FI,43.7585,11.2358
ITA,50125,Poggio Imperiale,FI,43.7646,11.2398
ITA,50126,Sorgane,FI,43.7563,11.2731
ITA,50127,Firenze,FI,43.7863,11.2334
ITA,50129,Firenze,FI,43.7793,11.2463
ITA,50131,Firenze,FI,43.7793,11.2463
ITA,50132,Firenze,FI,43.7793,11.2463
ITA,50133,Firenze,FI,43.7793,11.2463
ITA,50134,Careggi,FI,43.7961,11.2486
ITA,50135,Settignano,FI,43.8835,11.2996
ITA,50136,Varlungo,FI,43.7729,11.2785
ITA,50137,Firenze,FI,43.7793,11.2463
ITA,50139,Firenze,FI,43.7793,11.2463
ITA,50141,Rifredi,FI,43.7982,11.2397
ITA,50142,Isolotto,FI,43.7806,11.2079
ITA,50143,Firenze,FI,43.7793,11.2463
ITA,50144,Firenze,FI,43.7793,11.2463
ITA,50145,Peretola,FI,43.7901,11.2027
ITA,51010,Santa Lucia Uzzanese,PT,43.9195,10.7618
ITA,51011,Borgo A Buggiano,PT,43.8752,10.7348
ITA,51012,Castellare Di Pescia,PT,43.8899,10.6605
ITA,51013,Chiesanuova,PT,43.8464,10.7128
ITA,51015,Pozzarello,PT,43.8519,10.8301
ITA,51016,Montecatini Val Di Nievole,PT,43.895,10.7858
ITA,51017,Castelvecchio Di Vellano,PT,43.9523,10.7033
ITA,51018,Pieve A Nievole,PT,43.8812,10.7999
ITA,51019,Ponte Buggianese,PT,43.8361,10.7532
ITA,51020,Castello,PT,44.0537,10.8867
ITA,51021,Abetone,PT,44.1388,10.6756
ITA,51024,Pianosinatico,PT,44.1082,10.735
ITA,51028,Lizzano Pistoiese,PT,44.0483,10.8261
ITA,51030,Montagnana Pistoiese,PT,43.9542,10.8262
ITA,51031,San Michele,PT,43.9461,10.9011
ITA,51034,Stazione Masotti,PT,43.8952,10.8555
ITA,51035,Orbignano,PT,43.8222,10.9069
ITA,51036,Castelmartini,PT,43.8284,10.8756
ITA,51037,Fognano,PT,43.9435,11.029
ITA,51039,Ferruccia,PT,43.8508,10.9723
ITA,51100,Masiano,PT,43.9896,10.9032
ITA,52010,Corsalone,AR,43.6767,11.8204
ITA,52011,Bibbiena Stazione,AR,43.7343,11.8309
ITA,52014,Avena,AR,43.7514,11.7854
ITA,52015,Pratovecchio,AR,43.7869,11.7235
ITA,52016,Pieve A Socana,AR,43.6417,11.8159
ITA,52017,Papiano,AR,43.8087,11.7106
ITA,52018,Strada,AR,43.7459,11.7153
ITA,52020,Laterina Stazione,AR,43.498,11.6788
ITA,52021,Capannole,AR,43.4406,11.6063
ITA,52022,Monastero,AR,43.5161,11.5076
ITA,52024,Loro Ciuffenna,AR,43.5705,11.6669
ITA,52025,Mercatale Valdarno,AR,43.4975,11.5656
ITA,52026,Castelfranco Piandiscò,AR,43.6342,11.5318
ITA,52027,San Giovanni Valdarno,AR,43.5676,11.5299
ITA,52028,Penna,AR,43.5657,11.5966
ITA,52029,Castiglion Fibocchi,AR,43.5274,11.7615
ITA,52031,San Leo Di Anghiari,AR,43.5378,12.0751
ITA,52032,Badia Tedalda,AR,43.7397,12.177
ITA,52033,Caprese Michelangelo,AR,43.6403,11.9855
ITA,52035,Le Ville,AR,43.4865,12.0948
ITA,52036,Madonnuccia,AR,43.6356,12.059
ITA,52037,Santa Fiora,AR,43.5585,12.1211
ITA,52038,Sestino,AR,43.7133,12.2903
ITA,52041,Badia Al Pino,AR,43.4035,11.7606
ITA,52043,Castiglion Fiorentino,AR,43.3307,11.9105
ITA,52044,Terontola Stazione,AR,43.2632,12.0314
ITA,52045,Foiano Della Chiana,AR,43.273,11.8083
ITA,52046,Lucignano,AR,43.2726,11.746
ITA,52047,Marciano,AR,43.3092,11.7969
ITA,52048,Montagnano Alberoro,AR,43.3494,11.7474
ITA,52100,Giovi D'Arezzo,AR,43.4801,11.8766
ITA,53011,Fonterutoli,SI,43.4502,11.2982
ITA,53012,Chiusdino,SI,43.1749,11.0947
ITA,53013,Castagnoli,SI,43.4407,11.4391
ITA,53014,Monteroni D'Arbia,SI,43.2179,11.3977
ITA,53015,Iesa,SI,43.1222,11.2222
ITA,53016,Murlo,SI,43.165,11.3684
ITA,53017,Radda In Chianti,SI,43.5016,11.3434
ITA,53018,Sovicille,SI,43.2616,11.2453
ITA,53019,Pianella,SI,43.3604,11.4128
ITA,53020,Montisi,SI,43.1564,11.6512
ITA,53021,Abbadia San Salvatore,SI,42.8812,11.6722
ITA,53022,Buonconvento,SI,43.1331,11.4836
ITA,53023,Campiglia D'Orcia,SI,42.9572,11.6676
ITA,53024,Castelnuovo Dell'Abate,SI,43.021,11.5125
ITA,53025,Saragiolo,SI,42.8431,11.6668
ITA,53026,Monticchiello,SI,43.0726,11.7007
ITA,53027,Bagno Vignoni,SI,43.0431,11.6124
ITA,53030,Castel San Giminiano,SI,43.2777,11.0284
ITA,53031,Casole D'Elsa,SI,43.3164,11.0626
ITA,53034,Gracciano Di Colle Val D'Elsa,SI,43.4062,11.0988
ITA,53035,Castellina In Chianti Stazione,SI,43.3801,11.277
ITA,53036,Bellavista,SI,43.4448,11.164
ITA,53037,Ulignano,SI,43.506,11.0479
ITA,53040,Contignano,SI,42.9908,11.7979
ITA,53041,Monte Oliveto Maggiore,SI,43.234,11.5118
ITA,53042,Chianciano Terme,SI,43.0418,11.812
ITA,53043,Chiusi Stazione,SI,43.0052,11.951
ITA,53045,Abbadia Di Montepulciano,SI,43.1429,11.7807
ITA,53047,Sarteano,SI,42.9919,11.8647
ITA,53048,Rigaiolo,SI,43.2254,11.7486
ITA,53049,Torrita Stazione,SI,43.1495,11.7641
ITA,53100,Taverne D'Arbia,SI,43.2856,11.3681
ITA,54010,Podenzana,MS,44.2047,9.9064
ITA,54011,Aulla,MS,44.2026,9.9876
ITA,54012,Tresana,MS,44.2504,9.9164
ITA,54013,Soliera Apuana,MS,44.1984,10.0975
ITA,54014,Regnano,MS,44.1831,10.1593
ITA,54015,Comano,MS,44.2907,10.1144
ITA,54016,Monti,MS,44.2596,10.018
ITA,54021,Bagnone,MS,44.3182,10.0034
ITA,54023,Ponticello,MS,44.343,9.9205
ITA,54026,Mulazzo,MS,44.332,9.8829
ITA,54027,Grondola,MS,44.407,9.8629
ITA,54028,Virgoletta,MS,44.2925,9.9688
ITA,54029,Chiesa Di Rossano,MS,44.341,9.7771
ITA,54033,Fossone,MS,44.08,10.0946
ITA,54035,Fosdinovo,MS,44.1246,10.0185
ITA,54038,San Vito,MS,44.0129,10.1659
ITA,54100,Mirteto,MS,44.0691,10.1505
ITA,55010,Camigliano Santa Gemma,LU,43.8822,10.6426
ITA,55011,Badia Pozzeveri,LU,43.8217,10.6944
ITA,55012,Pieve San Paolo,LU,43.9864,10.4389
ITA,55013,Lammari,LU,43.8667,10.5667
ITA,55014,Marlia,LU,43.8924,10.5571
ITA,55015,Turchetto,LU,43.8521,10.6794
ITA,55016,Porcari,LU,43.8415,10.6163
ITA,55018,Segromigno In Monte,LU,43.8921,10.5879
ITA,55019,Botticino,LU,43.936,10.652
ITA,55020,San Pellegrinetto,LU,44.0698,10.4024
ITA,55021,Fabbriche Di Vallico,LU,43.9976,10.4279
ITA,55022,Bagni Di Lucca Villa,LU,44.041,10.5967
ITA,55023,Anchiano,LU,43.9775,10.5308
ITA,55025,Calavorno,LU,44.0463,10.5303
ITA,55027,Gallicano,LU,44.0563,10.4463
ITA,55030,Careggine,LU,44.1512,10.3185
ITA,55031,Poggio Garfagnana,LU,44.1476,10.3519
ITA,55032,Palleroso,LU,44.1112,10.4239
ITA,55033,Chiozza,LU,44.1336,10.4302
ITA,55034,Minucciano,LU,44.1785,10.2254
ITA,55035,Piazza Al Serchio,LU,44.192,10.2912
ITA,55036,Pieve Fosciana,LU,44.1307,10.4095
ITA,55038,San Romano In Garfagnana,LU,44.1694,10.3469
ITA,55039,Sillano Giuncugnano,LU,44.2168,10.2748
ITA,55040,Pontestazzemese,LU,44.0019,10.2854
ITA,55041,Pieve,LU,43.9336,10.3188
ITA,55042,Forte Dei Marmi,LU,43.9639,10.1748
ITA,55045,Valdicastello Carducci,LU,43.9487,10.2207
ITA,55047,Seravezza,LU,43.9923,10.2183
ITA,55049,Torre Del Lago Puccini,LU,43.8479,10.2697
ITA,55051,Tiglio,LU,44.0652,10.4781
ITA,55054,Corsanico,LU,43.8907,10.3469
ITA,55060,Guamo,LU,43.8426,10.4878
ITA,55061,San Ginese,LU,43.911,10.5101
ITA,55062,Ruota,LU,43.7744,10.5764
ITA,55064,San Rocco In Turrite,LU,43.9523,10.4282
ITA,55100,Fagnano,LU,43.8648,10.4873
ITA,56010,Arena Metato,PI,43.7078,10.5098
ITA,56011,Castelmaggiore,PI,43.723,10.5169
ITA,56012,Calcinaia,PI,43.6769,10.6008
ITA,56017,Rigoli,PI,43.7688,10.4327
ITA,56019,Vecchiano,PI,43.7882,10.384
ITA,56020,Castel Del Bosco,PI,43.6642,10.7146
ITA,56021,Latignano,PI,43.6547,10.5556
ITA,56022,Villa Campanile,PI,43.758,10.698
ITA,56023,Musigliano,PI,43.6308,10.551
ITA,56024,La Serra,PI,43.6493,10.828
ITA,56025,Il Romito,PI,43.6447,10.6521
ITA,56028,La Scala,PI,43.6971,10.8629
ITA,56029,Santa Croce Sull'Arno,PI,43.7171,10.7724
ITA,56030,Terricciola,PI,43.5139,10.689
ITA,56031,Bientina,PI,43.6568,10.5957
ITA,56032,Cascine,PI,43.7287,10.5996
ITA,56033,Capannoli,PI,43.5794,10.6696
ITA,56034,Rivalto,PI,43.5009,10.6321
ITA,56035,Casciana Terme Lari,PI,43.5824,10.591
ITA,56036,Villa Saletta,PI,43.5973,10.7411
ITA,56037,Ghizzano Di Peccioli,PI,43.536,10.7687
ITA,56038,Ponsacco,PI,43.5627,10.6468
ITA,56040,Le Badie,PI,43.3715,10.6351
ITA,56041,Castelnuovo Di Val Di Cecina,PI,43.2146,10.9089
ITA,56042,Lorenzana,PI,43.5353,10.5348
ITA,56043,Fauglia,PI,43.5597,10.5023
ITA,56044,Serrazzano,PI,43.2231,10.8461
ITA,56045,Libbiano,PI,43.292,10.8366
ITA,56046,Riparbella,PI,43.3642,10.598
ITA,56048,Volterra,PI,43.4028,10.8729
ITA,56100,Pisa,PI,43.7085,10.4036
ITA,56121,Putignano,PI,43.6766,10.4046
ITA,56122,San Piero A Grado,PI,43.6959,10.3768
ITA,56123,Pisa,PI,43.7085,10.4036
ITA,56124,Pisa,PI,43.7085,10.4036
ITA,56125,Pisa,PI,43.7085,10.4036
ITA,56126,Pisa,PI,43.7085,10.4036
ITA,56127,Pisa,PI,43.7085,10.4036
ITA,56128,Pisa,PI,43.7085,10.4036
ITA,57014,Crocino San Giusto,LI,43.5505,10.4578
ITA,57016,Caletta Di Castiglioncello,LI,43.4203,10.4421
ITA,57017,Nugola,LI,43.4771,10.4385
ITA,57020,Bibbona,LI,43.2221,10.594
ITA,57021,Venturina,LI,43.0305,10.5989
ITA,57022,Donoratico,LI,43.1922,10.5741
ITA,57023,San Pietro In Palazzi,LI,43.3035,10.5073
ITA,57025,Colmata Fiorentina Di Piombino,LI,42.9622,10.5757
ITA,57027,San Vincenzo,LI,43.0944,10.5652
ITA,57028,Suvereto,LI,43.0467,10.7137
ITA,57030,Poggio,LI,42.779,10.1793
ITA,57031,Capoliveri,LI,42.7457,10.3775
ITA,57032,Capraia Isola,LI,43.0506,9.843
ITA,57033,Marciana Marina,LI,42.8026,10.1949
ITA,57034,Cavoli,LI,42.7139,10.1867
ITA,57036,Porto Azzurro,LI,42.7675,10.3972
ITA,57037,Carpani,LI,42.8016,10.331
ITA,57038,Rio Marina,LI,42.8383,10.4225
ITA,57039,Rio Nell'Elba,LI,42.8117,10.4008
ITA,57100,Livorno,LI,43.5443,10.3262
ITA,57121,Livorno,LI,43.5443,10.3262
ITA,57122,Livorno,LI,43.5443,10.3262
ITA,57123,Livorno,LI,43.5443,10.3262
ITA,57124,Salviano,LI,43.5332,10.3608
ITA,57125,Livorno,LI,43.5443,10.3262
ITA,57126,Livorno,LI,43.5443,10.3262
ITA,57127,Livorno,LI,43.5443,10.3262
ITA,57128,Ardenza,LI,43.5149,10.3293
ITA,58010,Elmo,GR,42.6926,11.6812
ITA,58011,Capalbio Stazione,GR,42.4223,11.4294
ITA,58012,Campese,GR,42.3622,10.9023
ITA,58014,Poggio Capanne,GR,42.6267,11.4999
ITA,58015,Orbetello Stazione,GR,42.5043,11.2147
ITA,58017,Pitigliano,GR,42.6785,11.6602
ITA,58018,Porto Ercole,GR,42.4017,11.2052
ITA,58019,Giannutri,GR,42.4364,11.1175
ITA,58020,Scarlino,GR,42.89,10.9446
ITA,58022,Prato Ranieri,GR,42.9278,10.7645
ITA,58023,Miniera,GR,42.9178,10.9276
ITA,58024,Capanne Vecchie,GR,43.0488,10.9144
ITA,58025,Lago Boracifero,GR,43.1381,10.8113
ITA,58026,Montieri,GR,43.1339,11.0092
ITA,58027,Ribolla,GR,42.9817,11.0493
ITA,58031,Salaiola,GR,42.8685,11.5138
ITA,58033,Montegiovi,GR,42.9155,11.511
ITA,58034,Selvena,GR,42.7699,11.67
ITA,58036,Sticciano Stazione,GR,42.9975,11.1291
ITA,58037,Marroneto,GR,42.8279,11.5925
ITA,58038,Seggiano,GR,42.929,11.5574
ITA,58042,Arcille Di Campagnatico,GR,42.8429,11.2454
ITA,58043,Riva Del Sole,GR,42.8242,10.8971
ITA,58044,Monticello Dell'Amiata,GR,42.8963,11.4096
ITA,58045,Civitella Paganico,GR,43.0019,11.3147
ITA,58051,Magliano In Toscana,GR,42.6294,11.2793
ITA,58053,Santa Caterina,GR,42.7902,11.4875
ITA,58054,Preselle Sergardi,GR,42.7259,11.3405
ITA,58055,Semproniano,GR,42.7373,11.558
ITA,58100,Santa Maria Di Rispescia,GR,42.7879,11.1191
ITA,59011,Bacchereto,PO,43.82,11.0031
ITA,59013,Oste,PO,43.9253,11.0362
ITA,59015,Comeana,PO,43.8214,11.0511
ITA,59016,Poggetto,PO,43.8209,11.0452
ITA,59021,Vaiano,PO,43.9565,11.1184
ITA,59024,Vernio,PO,44.0473,11.1472
ITA,59025,Usella,PO,44.0033,11.1168
ITA,59026,Montepiano,PO,44.0907,11.1601
ITA,59100,La Querce,PO,43.8799,11.0852
ITA,60010,Ponte Rio Di Monterado,AN,43.6107,13.0928
ITA,60011,Palazzo D'Arcevia,AN,43.5231,12.958
ITA,60012,Trecastelli,AN,43.6868,13.1047
ITA,60013,Corinaldo,AN,43.6411,13.06
ITA,60015,Falconara Marittima,AN,43.6189,13.3882
ITA,60018,Montemarciano,AN,43.6521,13.3177
ITA,60019,Cesano Di Senigallia,AN,43.6876,13.2237
ITA,60020,Offagna,AN,43.5439,13.4269
ITA,60021,Camerano,AN,43.5277,13.5526
ITA,60022,Acquaviva Villa Musone,AN,43.4723,13.5598
ITA,60024,Montoro,AN,43.4454,13.3825
ITA,60025,Loreto,AN,43.4434,13.6119
ITA,60026,Numana Lido,AN,43.5017,13.6233
ITA,60027,Osimo Stazione,AN,43.4819,13.4738
ITA,60030,Collina Santa Maria Nuova,AN,43.5134,13.1317
ITA,60031,Castelplanio Stazione,AN,43.4888,13.0855
ITA,60033,Grancetta,AN,43.5957,13.343
ITA,60034,Cupramontana,AN,43.4497,13.1131
ITA,60035,Jesi,AN,43.5214,13.2437
ITA,60036,Montecarotto,AN,43.5283,13.0666
ITA,60037,Borghetto,AN,43.5983,13.2914
ITA,60038,San Paolo Di Jesi,AN,43.4546,13.1728
ITA,60039,Staffolo,AN,43.4333,13.1849
ITA,60040,Trinquelli,AN,43.4284,12.9302
ITA,60041,Perticano,AN,43.4648,12.8435
ITA,60043,Cerreto D'Esi,AN,43.3167,12.9877
ITA,60044,Rocchetta Di Fabriano,AN,43.332,12.9217
ITA,60048,Serra San Quirico Stazione,AN,43.4318,13.0544
ITA,60100,Ancona,AN,43.5942,13.5034
ITA,60121,Ancona,AN,43.5942,13.5034
ITA,60122,Ancona,AN,43.5942,13.5034
ITA,60123,Ancona,AN,43.5942,13.5034
ITA,60124,Ancona,AN,43.5942,13.5034
ITA,60125,Ancona,AN,43.5942,13.5034
ITA,60126,Ancona,AN,43.5942,13.5034
ITA,60127,Pinocchio,AN,43.5921,13.4987
ITA,60128,Ancona,AN,43.5942,13.5034
ITA,60129,Pietralacroce,AN,43.5729,13.543
ITA,60131,Ancona,AN,43.5735,13.4824
ITA,61010,Savignano Montetassi,PU,43.8538,12.6165
ITA,61011,Case Badioli,PU,43.9595,12.7643
ITA,61012,Fanano,PU,43.9408,12.759
ITA,61013,Valle Sant'Anastasio,PU,43.8783,12.5208
ITA,61014,Montecopiolo,PU,43.806,12.8612
ITA,61020,Montecalvo In Foglia,PU,43.8078,12.6489
ITA,61021,Frontino,PU,43.7729,12.3561
ITA,61022,Vallefoglia,PU,43.8356,12.7572
ITA,61023,Pietrarubbia,PU,43.8029,12.442
ITA,61024,Monteciccardo,PU,43.8096,12.8291
ITA,61025,Osteria Nuova,PU,43.8473,12.7876
ITA,61026,Piandimeleto,PU,43.7362,12.3943
ITA,61028,Mercatale,PU,43.7772,12.4808
ITA,61029,Via Piana,PU,43.7538,12.6292
ITA,61030,Saltara,PU,43.7458,12.8934
ITA,61032,Bellocchi,PU,43.8176,12.9873
ITA,61033,Fermignano,PU,43.6931,12.6544
ITA,61034,Fossombrone,PU,43.6746,12.8032
ITA,61037,Mondolfo,PU,43.7629,13.105
ITA,61038,Orciano Di Pesaro,PU,43.6894,12.9721
ITA,61039,Cerasa,PU,43.7604,13.0438
ITA,61040,San Michele Al Fiume,PU,43.6411,12.7758
ITA,61041,Abbadia Di Naro,PU,43.6209,12.6564
ITA,61042,Apecchio,PU,43.5511,12.4583
ITA,61043,Acquaviva Marche,PU,43.5452,12.6705
ITA,61044,Pontericcioli,PU,43.4546,12.642
ITA,61045,Pergola,PU,43.5586,12.8392
ITA,61046,Piobbico,PU,43.5882,12.5096
ITA,61047,San Lorenzo In Campo,PU,43.5984,12.9169
ITA,61048,Sant'Angelo In Vado,PU,43.6653,12.4176
ITA,61049,Muraglione,PU,43.6588,12.554
ITA,61100,Villa Ceccolini,PU,43.8633,12.8543
ITA,61121,Pesaro,PU,43.9092,12.9164
ITA,61122,Pesaro,PU,43.9092,12.9164
ITA,62010,Sant'Egidio,MC,43.3038,13.4819
ITA,62011,Villa Torre,MC,43.3798,13.2264
ITA,62012,Fontespina,MC,43.3113,13.6829
ITA,62014,Colbuccaro,MC,43.2473,13.4676
ITA,62015,Villa San Filippo,MC,43.2478,13.5933
ITA,62017,Porto Recanati,MC,43.433,13.6616
ITA,62018,Potenza Picena,MC,43.362,13.66
ITA,62019,Musone,MC,43.424,13.5728
ITA,62020,Camporotondo Di Fiastrone,MC,43.1221,13.3143
ITA,62021,Frontale,MC,43.3728,13.1048
ITA,62022,Castelraimondo,MC,43.2142,13.0728
ITA,62024,Matelica,MC,43.2705,12.9928
ITA,62025,Fiuminata,MC,43.1677,12.9528
ITA,62026,Pian Di Pieca,MC,43.1121,13.3467
ITA,62027,Cesolo,MC,43.2704,13.168
ITA,62028,Sarnano,MC,43.0347,13.2982
ITA,62029,Tolentino,MC,43.2092,13.2852
ITA,62032,San Luca,MC,43.1271,13.0666
ITA,62034,Muccia,MC,43.0823,13.0432
ITA,62035,Fiordimonte,MC,43.031,13.1548
ITA,62036,Monte Cavallo,MC,43.0045,13.0605
ITA,62038,Cesi,MC,43.0239,12.9174
ITA,62039,Ussita,MC,42.9195,13.0829
ITA,62100,Macerata,MC,43.2961,13.4674
ITA,63020,Piane Di Falerone,AP,42.888,13.5551
ITA,63031,Castel Di Lama Stazione,AP,42.8884,13.601
ITA,63061,Massignano,AP,43.0506,13.798
ITA,63062,Montefiore Dell'Aso,AP,43.0528,13.7552
ITA,63063,Carassai,AP,43.033,13.6876
ITA,63064,Cupra Marittima,AP,43.019,13.8617
ITA,63065,Ripatransone,AP,42.9779,13.7706
ITA,63066,Ischia,AP,42.9916,13.7938
ITA,63067,Cossignano,AP,42.9836,13.6903
ITA,63068,Montalto Delle Marche,AP,42.9889,13.6162
ITA,63069,Montedinove,AP,42.9726,13.5897
ITA,63071,Castel Di Croce,AP,42.9429,13.5407
ITA,63072,Ripaberarda,AP,42.9299,13.6148
ITA,63073,Offida,AP,42.935,13.6977
ITA,63074,Porto D'Ascoli,AP,42.9343,13.8838
ITA,63075,Acquaviva Picena,AP,42.9404,13.8223
ITA,63076,Monteprandone,AP,42.9079,13.8436
ITA,63077,Monsampolo Del Tronto,AP,42.9057,13.767
ITA,63078,Spinetoli,AP,42.8795,13.7671
ITA,63079,Colli Del Tronto,AP,42.8728,13.7461
ITA,63081,Castorano,AP,42.8826,13.7293
ITA,63082,Piattoni,AP,42.8672,13.6952
ITA,63083,Appignano Del Tronto,AP,42.8981,13.6622
ITA,63084,Pigna Bassa,AP,42.8372,13.6398
ITA,63085,Caselle,AP,42.837,13.6797
ITA,63086,Force,AP,42.9609,13.4877
ITA,63087,Comunanza,AP,42.9022,13.6123
ITA,63088,Montemonaco,AP,42.8987,13.3302
ITA,63091,Venarotta,AP,42.8827,13.4916
ITA,63092,Palmiano,AP,42.8995,13.4594
ITA,63093,Agelli,AP,42.8293,13.4242
ITA,63094,Montegallo,AP,42.8206,13.3655
ITA,63095,Acquasanta Terme,AP,42.7695,13.4187
ITA,63096,Arquata Del Tronto,AP,42.7648,13.2855
ITA,63100,Poggio Di Bretta,AP,42.8435,13.5669
ITA,63811,Cascinare,FM,43.2473,13.7118
ITA,63812,Montegranaro,FM,43.231,13.6305
ITA,63813,Monte Urano,FM,43.1904,13.6618
ITA,63814,Torre San Patrizio,FM,43.1831,13.6111
ITA,63815,Monte San Pietrangeli,FM,43.1896,13.5772
ITA,63816,Francavilla D'Ete,FM,43.1884,13.5403
ITA,63821,Porto Sant'Elpidio,FM,43.253,13.7597
ITA,63822,Porto San Giorgio,FM,43.1778,13.7941
ITA,63823,Lapedona,FM,43.1092,13.7706
ITA,63824,Marina Di Altidona,FM,43.107,13.8154
ITA,63825,Rubbianello,FM,43.0729,13.7165
ITA,63826,Moresco,FM,43.0867,13.7304
ITA,63827,Pedaso,FM,43.0984,13.8408
ITA,63828,Campofilone,FM,43.081,13.8215
ITA,63831,Contrada Tenna,FM,43.1561,13.6077
ITA,63832,Magliano Di Tenna,FM,43.138,13.5872
ITA,63833,Montegiorgio,FM,43.1228,13.5448
ITA,63834,Massa Fermana,FM,43.1469,13.476
ITA,63835,Montappone,FM,43.1362,13.4693
ITA,63836,Monte Vidon Corrado,FM,43.1209,13.4893
ITA,63837,Piane,FM,43.1007,13.4835
ITA,63838,Belmonte Piceno,FM,43.0918,13.5394
ITA,63839,Curetta,FM,43.1013,13.5106
ITA,63841,Monteleone Di Fermo,FM,43.0479,13.5295
ITA,63842,Monsampietro Morico,FM,43.0506,13.5528
ITA,63843,Montottone,FM,43.0621,13.5901
ITA,63844,Grottazzolina,FM,43.1188,13.6069
ITA,63845,Capparuccia,FM,43.1038,13.63
ITA,63846,Monte Giberto,FM,43.0909,13.6313
ITA,63847,Monte Vidon Combatte,FM,43.049,13.6312
ITA,63848,Petritoli,FM,43.0727,13.6342
ITA,63851,Ortezzano,FM,43.0304,13.6053
ITA,63852,Monte Rinaldo,FM,43.0283,13.582
ITA,63853,Montelparo,FM,43.0176,13.537
ITA,63854,Santa Vittoria In Matenano,FM,43.0198,13.4962
ITA,63855,Montefalcone Appennino,FM,42.99,13.4569
ITA,63856,San Martino Al Faggio,FM,42.9987,13.4559
ITA,63857,Amandola,FM,42.9783,13.3545
ITA,63858,Santa Lucia In Consilvano,FM,42.9303,13.3617
ITA,63900,Fermo,FM,42.829,13.58
ITA,64010,Rocca Santa Maria,TE,42.7587,13.6365
ITA,64011,Alba Adriatica,TE,42.8318,13.9259
ITA,64012,Villa Paterno,TE,42.7397,13.6981
ITA,64013,Corropoli,TE,42.8272,13.8347
ITA,64014,Villa Rosa,TE,42.8605,13.9179
ITA,64015,Nereto,TE,42.8155,13.8199
ITA,64016,Villa Mattoni,TE,42.81,13.6978
ITA,64018,Tortoreto,TE,42.7963,13.9232
ITA,64020,Ripattoni,TE,42.6772,13.8454
ITA,64021,Giulianova Spiaggia,TE,42.7375,13.9519
ITA,64023,Mosciano Sant'Angelo,TE,42.7403,13.8961
ITA,64024,Notaresco,TE,42.6417,13.8973
ITA,64025,Scerne Di Pineto,TE,42.614,14.0461
ITA,64026,Cologna,TE,42.6731,13.9786
ITA,64027,Sant'Omero,TE,42.77,13.7734
ITA,64028,Silvi Marina,TE,42.5787,14.0051
ITA,64030,Montefino,TE,42.5613,13.8146
ITA,64031,Arsita,TE,42.5027,13.7852
ITA,64032,San Giacomo D'Atri,TE,42.5984,13.9674
ITA,64033,Bisenti,TE,42.5288,13.7995
ITA,64034,Appignano,TE,42.5387,13.8646
ITA,64035,Castilenti,TE,42.5422,13.9312
ITA,64036,Cellino Attanasio,TE,42.5888,13.8405
ITA,64037,Cermignano,TE,42.5926,13.8092
ITA,64039,Penna Sant'Andrea,TE,42.6011,13.7645
ITA,64040,Cortino,TE,42.6292,13.5065
ITA,64041,Colledoro,TE,42.5002,13.7211
ITA,64042,Colledara,TE,42.5472,13.6815
ITA,64043,Crognaleto,TE,42.575,13.4992
ITA,64044,Cerqueto,TE,42.5492,13.5515
ITA,64045,San Gabriele Dell'Addolorata,TE,42.504,13.6332
ITA,64046,Montorio Al Vomano,TE,42.5825,13.6412
ITA,64047,Pietracamela,TE,42.5293,13.5479
ITA,64049,Chiarino,TE,42.5505,13.6391
ITA,64100,Cartecchio,TE,42.6574,13.7201
ITA,65010,Collecorvino,PE,42.421,13.9926
ITA,65011,Catignano,PE,42.347,13.9519
ITA,65012,Vallemare Di Cepagatti,PE,42.3591,14.1034
ITA,65013,Villa Cipresso,PE,42.5148,14.1378
ITA,65014,Loreto Aprutino,PE,42.431,13.9806
ITA,65015,Villa Carmine,PE,42.5011,14.1449
ITA,65017,Penne,PE,42.4667,13.8771
ITA,65019,Cerratina,PE,42.396,14.0863
ITA,65020,Pesconuovo,PE,42.2583,13.9892
ITA,65022,Bussi Sul Tirino,PE,42.2054,13.8348
ITA,65023,Caramanico Terme,PE,42.1716,13.9875
ITA,65024,Manoppello Stazione,PE,42.2834,14.0602
ITA,65025,Serramonacesca,PE,42.248,14.093
ITA,65026,Popoli,PE,42.1687,13.83
ITA,65027,Decontra,PE,42.2543,14.0076
ITA,65028,Tocco Da Casauria,PE,42.212,13.9155
ITA,65029,Torre De' Passeri,PE,42.2432,13.9333
ITA,65100,Pescara,PE,42.4584,14.2028
ITA,65121,Pescara,PE,42.4584,14.2028
ITA,65122,Pescara,PE,42.4584,14.2028
ITA,65123,Pescara,PE,42.4584,14.2028
ITA,65124,Pescara,PE,42.4584,14.2028
ITA,65125,Pescara Colli,PE,42.4584,14.2028
ITA,65126,Pescara,PE,42.4584,14.2028
ITA,65127,Pescara,PE,42.4584,14.2028
ITA,65128,Pescara,PE,42.4584,14.2028
ITA,65129,Pineta Di Pescara,PE,42.4542,14.2181
ITA,65131,Fontanelle,PE,42.4244,14.0518
ITA,65132,San Silvestro,PE,42.4459,14.2181
ITA,66010,San Martino Sulla Marrucina,CH,42.2231,14.2182
ITA,66011,Colle Sant'Antonio,CH,42.3115,14.1598
ITA,66012,Casalincontrada,CH,42.2974,14.1351
ITA,66014,Villa Tucci,CH,42.3013,14.324
ITA,66015,Fara San Martino,CH,42.0925,14.209
ITA,66016,Villa San Vincenzo,CH,42.1926,14.2215
ITA,66017,Palena,CH,41.9835,14.137
ITA,66018,Taranta Peligna,CH,42.0205,14.171
ITA,66019,Fallascoso,CH,42.0142,14.2502
ITA,66020,San Giacomo Di Scerni,CH,42.1789,14.479
ITA,66021,Miracoli,CH,42.1535,14.5991
ITA,66022,Villascorciosa,CH,42.2403,14.4756
ITA,66023,Francavilla Al Mare,CH,42.4216,14.2822
ITA,66026,Ortona Foro,CH,42.324,14.382
ITA,66030,Villa Romagnoli,CH,42.1947,14.3904
ITA,66031,Casalanguida,CH,42.0375,14.4961
ITA,66032,Castel Frentano,CH,42.1988,14.3564
ITA,66033,Castiglione Messer Marino,CH,41.8683,14.45
ITA,66034,Nasuti,CH,42.2054,14.3812
ITA,66036,Orsogna,CH,42.2234,14.2808
ITA,66037,Sant'Eusanio Del Sangro,CH,42.1691,14.3278
ITA,66038,San Vito Chietino,CH,42.2973,14.4336
ITA,66040,Montelapiano,CH,41.9751,14.3389
ITA,66041,Monte Marcone,CH,42.1163,14.4216
ITA,66042,Bomba,CH,42.0334,14.3666
ITA,66043,Casoli,CH,42.1192,14.2939
ITA,66044,Archi,CH,42.0974,14.3766
ITA,66045,Schiavi Di Abruzzo,CH,41.8131,14.4865
ITA,66046,Tornareccio,CH,42.0284,14.4177
ITA,66047,Villa Santa Maria,CH,41.9513,14.3515
ITA,66050,Palmoli,CH,41.9518,14.5854
ITA,66051,Cupello,CH,42.0694,14.6705
ITA,66052,Gissi,CH,42.018,14.5448
ITA,66054,Incoronata Di Vasto,CH,42.106,14.7085
ITA,66100,Chieti Scalo,CH,42.3392,14.1405
ITA,67010,Barete,AQ,42.4501,13.2806
ITA,67012,Cagnano Amiterno,AQ,42.4608,13.2431
ITA,67013,Campotosto,AQ,42.5422,13.367
ITA,67014,Capitignano,AQ,42.5204,13.3012
ITA,67015,Montereale,AQ,42.5144,13.2299
ITA,67017,Marruci,AQ,42.4306,13.3097
ITA,67019,Vigliano,AQ,42.3618,13.2199
ITA,67020,Fagnano Alto,AQ,42.2472,13.6721
ITA,67021,Barisciano,AQ,42.3226,13.5654
ITA,67022,Capestrano,AQ,42.2681,13.7678
ITA,67023,Castel Del Monte,AQ,42.3654,13.7259
ITA,67024,Castelvecchio Subequo,AQ,42.1288,13.7287
ITA,67025,Ofena,AQ,42.3254,13.7586
ITA,67026,Poggio Picenze,AQ,42.3206,13.5404
ITA,67027,Raiano,AQ,42.1016,13.8139
ITA,67028,San Demetrio Ne' Vestini,AQ,42.2896,13.5552
ITA,67029,Secinaro,AQ,42.1506,13.6814
ITA,67030,Rocca Pia,AQ,41.95,13.9182
ITA,67031,Roccacinquemiglia,AQ,41.7981,14.1136
ITA,67032,Pescasseroli,AQ,41.8034,13.7871
ITA,67033,Pescocostanzo,AQ,41.8872,14.0661
ITA,67034,Pettorano Sul Gizio,AQ,41.9733,13.96
ITA,67035,Pratola Peligna,AQ,42.0949,13.8909
ITA,67036,Rivisondoli,AQ,41.8702,14.0667
ITA,67037,Roccaraso,AQ,41.8398,14.0773
ITA,67038,Frattura,AQ,41.9218,13.8737
ITA,67039,Abazia Di Sulmona,AQ,42.0386,13.92
ITA,67040,Ocre,AQ,42.1668,13.552
ITA,67041,Aielli Stazione,AQ,42.0727,13.588
ITA,67043,Celano,AQ,42.0808,13.517
ITA,67044,Cerchio,AQ,42.0636,13.6001
ITA,67045,Ville Di Lucoli,AQ,42.27,13.3733
ITA,67046,San Potito,AQ,42.1196,13.5137
ITA,67047,Rocca Di Cambio,AQ,42.2375,13.4891
ITA,67048,Rovere Di Rocca Di Mezzo,AQ,42.1853,13.5169
ITA,67049,San Nicola Di Tornimparte,AQ,42.2814,13.2804
ITA,67050,Canistro Superiore,AQ,41.9385,13.5013
ITA,67051,Santuario Di Pietracquaria,AQ,42.0457,13.4334
ITA,67052,Balsorano Nuovo,AQ,41.7984,13.5833
ITA,67053,Capistrello,AQ,41.9729,13.3814
ITA,67054,Civitella Roveto,AQ,41.901,13.4136
ITA,67055,Gioia Dei Marsi,AQ,41.957,13.6906
ITA,67056,Luco Dei Marsi,AQ,41.9593,13.4735
ITA,67057,Pescina,AQ,42.0073,13.6483
ITA,67058,San Benedetto Dei Marsi,AQ,42.0076,13.6238
ITA,67059,Trasacco,AQ,41.9574,13.5327
ITA,67060,Petrella Liri,AQ,42.0201,13.2696
ITA,67061,Villa Romana,AQ,42.1067,13.1076
ITA,67062,Rosciolo,AQ,42.1137,13.3288
ITA,67063,Civita,AQ,42.063,13.0419
ITA,67064,Pereto,AQ,42.0582,13.1023
ITA,67066,Rocca Di Botte,AQ,42.031,13.0718
ITA,67067,Santo Stefano Di Sante Marie,AQ,42.1135,13.226
ITA,67068,Cappelle Dei Marsi,AQ,42.065,13.3596
ITA,67069,Gallo Di Tagliacozzo,AQ,42.081,13.267
ITA,67100,L'Aquila,AQ,42.3569,13.3961
ITA,70010,Trito,BA,40.9646,16.9814
ITA,70011,Alberobello,BA,40.7956,17.2498
ITA,70013,Castellana Grotte,BA,40.8864,17.1655
ITA,70014,Conversano,BA,40.9468,17.141
ITA,70015,Lamadacqua,BA,40.7936,17.1268
ITA,70016,Parchitello,BA,41.0612,16.9921
ITA,70017,Putignano,BA,40.8471,17.1051
ITA,70018,Rutigliano,BA,41.01,17.0056
ITA,70019,Triggiano,BA,41.0655,16.925
ITA,70020,Toritto,BA,40.9853,16.6642
ITA,70021,Acquaviva Delle Fonti,BA,40.897,16.8433
ITA,70022,Curtaniello,BA,40.8491,16.5094
ITA,70023,Murgia,BA,40.7997,16.923
ITA,70024,La Murgetta,BA,40.8409,16.3957
ITA,70025,Grumo Appula,BA,41.0109,16.7084
ITA,70026,Modugno,BA,41.0843,16.7834
ITA,70027,Palo Del Colle,BA,41.0556,16.7032
ITA,70028,Sannicandro Di Bari,BA,41.0005,16.7971
ITA,70029,Santeramo In Colle,BA,40.7924,16.7587
ITA,70032,Palombaio,BA,41.0769,16.6206
ITA,70033,Corato,BA,41.1517,16.4114
ITA,70037,Ruvo Di Puglia,BA,41.1176,16.4842
ITA,70038,Terlizzi,BA,41.1291,16.5454
ITA,70042,Mola Di Bari,BA,41.044,17.0916
ITA,70043,Impalata,BA,40.8909,17.2833
ITA,70044,Polignano A Mare,BA,40.9922,17.2215
ITA,70054,Giovinazzo,BA,41.185,16.6705
ITA,70056,Molfetta,BA,41.2004,16.599
ITA,70100,Bari,BA,41.1115,16.8554
ITA,70121,Bari,BA,41.1115,16.8554
ITA,70122,Bari,BA,41.1115,16.8554
ITA,70123,Fesca,BA,41.0914,16.8136
ITA,70124,Bari,BA,41.1115,16.8554
ITA,70125,Carrassi,BA,41.0499,16.8177
ITA,70126,Mungivacca,BA,41.0998,16.9074
ITA,70127,Santo Spirito,BA,41.1667,16.75
ITA,70128,Palese,BA,41.15,16.7667
ITA,70129,Loseto,BA,41.0461,16.8579
ITA,70131,Carbonara Di Bari,BA,41.0667,16.8667
ITA,71010,Chieuti,FG,41.8273,15.5342
ITA,71011,Apricena,FG,41.7863,15.4439
ITA,71012,Rodi Garganico,FG,41.9274,15.8822
ITA,71013,San Giovanni Rotondo,FG,41.7064,15.7277
ITA,71014,San Marco In Lamis,FG,41.7079,15.6478
ITA,71015,San Nicandro Garganico,FG,41.8098,15.6221
ITA,71016,San Severo,FG,41.6856,15.3815
ITA,71017,Torremaggiore,FG,41.6889,15.2941
ITA,71018,Umbra,FG,41.9163,15.9516
ITA,71019,Vieste,FG,41.8821,16.1714
ITA,71020,Rocchetta Sant'Antonio Stazione,FG,41.2295,15.2603
ITA,71021,Accadia,FG,41.1577,15.331
ITA,71022,San Carlo,FG,41.1581,15.6621
ITA,71023,Bovino,FG,41.2492,15.3395
ITA,71024,Candela,FG,41.136,15.5154
ITA,71025,Castelluccio Dei Sauri,FG,41.3046,15.4756
ITA,71026,Deliceto,FG,41.2229,15.3845
ITA,71027,Orsara Di Puglia,FG,41.2816,15.2676
ITA,71028,Sant'Agata Di Puglia,FG,41.1513,15.3797
ITA,71029,Borgo Giardinetto,FG,41.3643,15.3173
ITA,71030,Zapponeta,FG,41.5323,15.0639
ITA,71031,Alberona,FG,41.4322,15.123
ITA,71032,Biccari,FG,41.4321,15.2342
ITA,71033,Casalnuovo Monterotaro,FG,41.6194,15.1041
ITA,71034,Castelnuovo Della Daunia,FG,41.5814,15.118
ITA,71035,Celenza Valfortore,FG,41.5605,14.979
ITA,71036,Lucera,FG,41.5055,15.3391
ITA,71037,Monte Sant'Angelo,FG,41.5117,15.1161
ITA,71038,Pietramontecorvino,FG,41.5423,15.1289
ITA,71039,Roseto Valfortore,FG,41.3754,15.0982
ITA,71040,Borgata Mezzanone,FG,41.8194,15.5693
ITA,71041,Carapelle,FG,41.3637,15.6938
ITA,71042,La Moschella,FG,41.2473,15.8302
ITA,71043,Siponto,FG,41.618,15.8948
ITA,71045,Orta Nova,FG,41.3288,15.7099
ITA,71047,Stornara,FG,41.2867,15.77
ITA,71048,Stornarella,FG,41.2559,15.7302
ITA,71100,Rignano Garganico Scalo,FG,41.4514,15.5923
ITA,72012,Serranova Di Carovigno,BR,40.6978,17.7287
ITA,72013,Ceglie Messapica,BR,40.6462,17.5166
ITA,72014,Cisternino,BR,40.7503,17.4393
ITA,72015,Selva,BR,40.8259,17.4024
ITA,72016,Montalbano Di Fasano,BR,40.793,17.4665
ITA,72017,Ostuni,BR,40.7291,17.5768
ITA,72018,San Michele Salentino,BR,40.6316,17.6325
ITA,72019,San Vito Dei Normanni,BR,40.6564,17.7081
ITA,72020,Cellino San Marco,BR,40.484,17.9247
ITA,72021,Capece Bax,BR,40.5575,17.5734
ITA,72022,Latiano,BR,40.5505,17.7186
ITA,72023,Mesagne,BR,40.5585,17.8077
ITA,72024,Oria,BR,40.5,17.6428
ITA,72025,San Donaci,BR,40.4485,17.9225
ITA,72026,San Pancrazio Salentino,BR,40.418,17.8342
ITA,72027,San Pietro Vernotico,BR,40.4889,17.9975
ITA,72028,Torre Santa Susanna,BR,40.4676,17.7386
ITA,72029,Villa Castelli,BR,40.5829,17.4747
ITA,72100,Brindisi,BR,40.6321,17.9361
ITA,73010,San Pietro In Lama,LE,40.291,18.1037
ITA,73011,Alezio,LE,40.0623,18.0571
ITA,73012,Campi Salentina,LE,40.3975,18.0214
ITA,73013,Collemeto,LE,40.1901,18.1293
ITA,73014,Gallipoli,LE,40.0559,17.9909
ITA,73015,Salice Salentino,LE,40.3849,17.9613
ITA,73016,San Cesario Di Lecce,LE,40.3022,18.161
ITA,73017,Sannicola,LE,40.1157,18.0777
ITA,73018,Squinzano,LE,40.4351,18.0409
ITA,73019,Trepuzzi,LE,40.4053,18.0763
ITA,73020,Bagnolo Del Salento,LE,40.1437,18.3356
ITA,73021,Calimera,LE,40.2495,18.2798
ITA,73022,Corigliano D'Otranto,LE,40.1592,18.256
ITA,73023,Lizzanello,LE,40.3195,18.2233
ITA,73024,Morigino,LE,40.1313,18.3039
ITA,73025,Martano,LE,40.2021,18.3019
ITA,73026,Roca,LE,40.2755,18.3924
ITA,73027,Minervino Di Lecce,LE,40.0812,18.4204
ITA,73028,Otranto,LE,40.1479,18.4868
ITA,73029,Acquarica Di Lecce,LE,40.3139,18.2939
ITA,73030,Diso,LE,40.0142,18.3758
ITA,73031,Alessano,LE,39.8848,18.336
ITA,73032,Castiglione,LE,39.9844,18.3661
ITA,73033,Corsano,LE,39.8891,18.3675
ITA,73034,Arigliano,LE,39.8506,18.3618
ITA,73035,Miggiano,LE,39.9618,18.3112
ITA,73036,Muro Leccese,LE,40.1029,18.3367
ITA,73037,Vaste,LE,40.0502,18.3826
ITA,73038,Spongano,LE,40.0178,18.3656
ITA,73039,Tricase,LE,39.9344,18.3547
ITA,73040,Marina Di Leuca,LE,39.9371,18.2371
ITA,73041,Magliano,LE,40.3407,18.0524
ITA,73042,Casarano,LE,40.0113,18.1624
ITA,73043,Copertino,LE,40.2682,18.0543
ITA,73044,Galatone,LE,40.1467,18.0694
ITA,73045,Leverano,LE,40.2885,17.9965
ITA,73046,Matino,LE,40.0308,18.1363
ITA,73047,Monteroni Di Lecce,LE,40.3193,18.0916
ITA,73048,Nardo',LE,40.1795,18.0317
ITA,73049,Torrepaduli,LE,39.9852,18.2518
ITA,73050,Santa Maria Al Bagno,LE,40.1472,18.0194
ITA,73051,Novoli,LE,40.3767,18.0476
ITA,73052,Parabita,LE,40.0514,18.1265
ITA,73053,Patu',LE,39.8408,18.3378
ITA,73054,Presicce,LE,39.9005,18.2628
ITA,73055,Racale,LE,39.9609,18.0915
ITA,73056,Taurisano,LE,39.9575,18.215
ITA,73057,Taviano,LE,39.9822,18.0815
ITA,73058,Tuglie,LE,40.0735,18.0987
ITA,73059,Gemini,LE,39.9193,18.1729
ITA,73100,Frigole,LE,40.4089,18.229
ITA,74010,Statte,TA,40.5286,17.2012
ITA,74011,Borgo Perrone,TA,40.5303,16.9349
ITA,74012,Crispiano,TA,40.6038,17.2329
ITA,74013,Ginosa,TA,40.5769,16.7565
ITA,74014,Laterza,TA,40.6288,16.7995
ITA,74015,Lanzo Di Martina Franca,TA,40.6738,17.331
ITA,74016,Massafra,TA,40.5862,17.1164
ITA,74017,Mottola,TA,40.6637,17.004
ITA,74018,Palagianello,TA,40.6085,16.978
ITA,74019,Palagiano,TA,40.5776,17.0381
ITA,74020,Lizzano,TA,40.4166,17.4422
ITA,74021,Carosino,TA,40.4654,17.3986
ITA,74022,Fragagnano,TA,40.4302,17.4755
ITA,74023,Grottaglie,TA,40.5369,17.4372
ITA,74024,San Pietro In Bevagna,TA,40.3496,17.6417
ITA,74025,Marina Di Ginosa,TA,40.4283,16.88
ITA,74026,Lido Silvana,TA,40.3638,17.3616
ITA,74027,San Giorgio Ionico,TA,40.458,17.3803
ITA,74028,Sava,TA,40.402,17.5527
ITA,74100,San Vito Taranto,TA,40.448,17.2628
ITA,74121,Taranto,TA,40.4644,17.2471
ITA,74122,Taranto,TA,40.4644,17.2471
ITA,74123,Taranto,TA,40.4644,17.2471
ITA,75010,San Mauro Forte,MT,40.4699,16.2923
ITA,75011,Accettura,MT,40.491,16.158
ITA,75012,Metaponto,MT,40.3969,16.7789
ITA,75013,Borgo Macchia,MT,40.4846,16.4778
ITA,75014,Grassano,MT,40.6346,16.2779
ITA,75015,Pisticci,MT,40.3914,16.5989
ITA,75016,Pomarico,MT,40.528,16.5271
ITA,75017,Salandra,MT,40.5267,16.3204
ITA,75018,Stigliano,MT,40.4024,16.2298
ITA,75019,Tricarico,MT,40.6488,16.1377
ITA,75020,Nova Siri Stazione,MT,40.1955,16.6319
ITA,75021,Colobraro,MT,40.1884,16.4248
ITA,75022,Irsina,MT,40.7741,16.2002
ITA,75023,Montalbano Jonico,MT,40.2859,16.5696
ITA,75024,Montescaglioso,MT,40.5502,16.6654
ITA,75025,Policoro,MT,40.2128,16.6779
ITA,75026,Rotondella,MT,40.1714,16.5249
ITA,75027,San Giorgio Lucano,MT,40.1113,16.3893
ITA,75028,Gannano,MT,40.293,16.4341
ITA,75029,Valsinni,MT,40.171,16.4439
ITA,75100,Venusio,MT,40.6642,16.5701
ITA,76011,Bisceglie,BT,41.2426,16.501
ITA,76012,Loconia,BT,41.2198,16.1089
ITA,76013,Minervino Murge,BT,41.0826,16.0786
ITA,76014,Spinazzola,BT,40.964,16.0911
ITA,76015,Trinitapoli,BT,41.3565,16.0892
ITA,76016,Margherita Di Savoia,BT,41.3717,16.1527
ITA,76017,San Ferdinando Di Puglia,BT,41.3026,16.0705
ITA,76121,Barletta,BT,41.3143,16.2817
ITA,76123,Montegrosso,BT,41.2028,16.2189
ITA,76125,Trani,BT,41.2773,16.4101
ITA,80010,Scalzapecora,NA,40.9047,14.1515
ITA,80011,Pezzalunga,NA,40.9622,14.4037
ITA,80012,Calvizzano,NA,40.9078,14.1858
ITA,80013,Casarea,NA,40.8852,14.3498
ITA,80014,Varcaturo,NA,40.9176,14.0912
ITA,80016,Marano Di Napoli,NA,40.8794,14.2391
ITA,80017,Melito Di Napoli,NA,40.9195,14.231
ITA,80018,Mugnano Di Napoli,NA,40.9094,14.2098
ITA,80019,Qualiano,NA,40.919,14.1535
ITA,80020,Parco Delle Acacie,NA,40.9358,14.2795
ITA,80021,Afragola,NA,40.923,14.3094
ITA,80022,Arzano,NA,40.9096,14.2652
ITA,80023,Pascarola,NA,40.967,14.3055
ITA,80024,Cardito,NA,40.8949,14.3201
ITA,80025,Casandrino,NA,40.9284,14.2474
ITA,80026,Casoria,NA,40.8982,14.3066
ITA,80027,Frattamaggiore,NA,40.9414,14.2759
ITA,80028,Grumo Nevano,NA,40.9359,14.2598
ITA,80029,Sant'Antimo,NA,40.9422,14.2348
ITA,80030,Gargani,NA,40.9267,14.5204
ITA,80031,Brusciano,NA,40.9224,14.4239
ITA,80032,Casamarciano,NA,40.9319,14.5532
ITA,80033,Cicciano,NA,40.964,14.5349
ITA,80034,Lausdomini,NA,40.9441,14.4292
ITA,80035,Piazzolla,NA,40.8883,14.4883
ITA,80036,Vico,NA,40.8677,14.5632
ITA,80038,Pomigliano D'Arco,NA,40.9098,14.3832
ITA,80039,Saviano,NA,40.8974,14.5104
ITA,80040,Caravita,NA,40.8332,14.4412
ITA,80041,Boscoreale,NA,40.833,14.2906
ITA,80042,Boscotrecase,NA,40.773,14.4619
ITA,80044,Ottaviano,NA,40.8519,14.4783
ITA,80045,Messigno,NA,40.7479,14.4907
ITA,80046,San Giorgio A Cremano,NA,40.8326,14.3416
ITA,80047,San Giuseppe Vesuviano,NA,40.8356,14.5049
ITA,80048,Ponte Di Ferro,NA,40.8778,14.3951
ITA,80049,Somma Vesuviana,NA,40.8733,14.4387
ITA,80050,Piazza,NA,40.694,14.5264
ITA,80051,Pianillo,NA,40.633,14.5471
ITA,80053,Castellammare Di Stabia,NA,40.7021,14.4869
ITA,80054,Gragnano,NA,40.6891,14.5204
ITA,80055,Portici,NA,40.8156,14.3372
ITA,80056,Resina,NA,40.8078,14.3501
ITA,80057,Sant'Antonio Abate,NA,40.7215,14.5402
ITA,80058,Torre Annunziata,NA,40.7534,14.4525
ITA,80059,Torre Del Greco,NA,40.7893,14.3681
ITA,80060,Monte Faito,NA,40.6672,14.4809
ITA,80061,Monticchio Di Massa Lubrense,NA,40.5974,14.3587
ITA,80062,Meta,NA,40.6408,14.4158
ITA,80063,Piano Di Sorrento,NA,40.6281,14.4173
ITA,80065,Sant'Agnello,NA,40.6221,14.4069
ITA,80066,Fornacella,NA,40.6556,14.4156
ITA,80067,Capo Di Sorrento,NA,40.6208,14.3739
ITA,80069,Moiano,NA,40.6596,14.4603
ITA,80070,Sant'Angelo,NA,40.8236,14.2141
ITA,80071,Anacapri,NA,40.5517,14.2123
ITA,80073,Marina Grande Di Capri,NA,40.5504,14.2379
ITA,80074,Casamicciola Terme,NA,40.7466,13.912
ITA,80075,Monterone,NA,40.7301,13.8658
ITA,80076,Lacco Ameno,NA,40.749,13.8872
ITA,80077,Ischia San Michele,NA,40.7363,13.9531
ITA,80078,Pozzuoli,NA,40.8443,14.1214
ITA,80079,Procida,NA,40.7564,14.0146
ITA,80100,Napoli,NA,40.8522,14.2681
ITA,80121,Napoli,NA,40.8522,14.2681
ITA,80122,Chiaia,NA,40.8522,14.2681
ITA,80123,Napoli,NA,40.8522,14.2681
ITA,80124,Bagnoli,NA,40.8327,14.2181
ITA,80125,Napoli,NA,40.8433,14.2137
ITA,80126,Soccavo,NA,40.8523,14.2113
ITA,80127,Napoli,NA,40.8428,14.2507
ITA,80128,Napoli,NA,40.8522,14.2681
ITA,80129,Napoli,NA,40.8522,14.2681
ITA,80131,Cappella Cangiani,NA,40.8511,14.2591
ITA,80132,Napoli,NA,40.8522,14.2681
ITA,80133,Napoli,NA,40.8522,14.2681
ITA,80134,Napoli,NA,40.8522,14.2681
ITA,80135,Napoli,NA,40.8522,14.2681
ITA,80136,Napoli,NA,40.8522,14.2681
ITA,80137,Napoli,NA,40.8522,14.2681
ITA,80138,Napoli,NA,40.8522,14.2681
ITA,80139,Napoli,NA,40.8522,14.2681
ITA,80141,Napoli,NA,40.8522,14.2681
ITA,80142,Napoli,NA,40.8522,14.2681
ITA,80143,Napoli,NA,40.8522,14.2681
ITA,80144,San Pietro A Patierno,NA,40.8761,14.2674
ITA,80145,Chiaiano Ed Uniti,NA,40.8674,14.2505
ITA,80146,Napoli,NA,40.8428,14.2924
ITA,80147,Barra,NA,40.8497,14.3057
ITA,81010,Torcino,CE,41.3425,14.3089
ITA,81011,Totari,CE,41.314,14.3592
ITA,81012,Alvignano,CE,41.2317,14.337
ITA,81013,Caiazzo,CE,41.1788,14.3507
ITA,81014,Capriati A Volturno,CE,41.4623,14.1649
ITA,81016,Sepicciano,CE,41.3509,14.3775
ITA,81017,Quattroventi,CE,41.366,14.2523
ITA,81020,San Nicola La Strada,CE,41.0734,14.3386
ITA,81021,Arienzo,CE,41.0273,14.4977
ITA,81022,Casagiove,CE,41.0712,14.3116
ITA,81023,Messercola,CE,41.0395,14.4335
ITA,81024,Montedecoro,CE,41.0227,14.4075
ITA,81025,Cantone,CE,41.124,14.2298
ITA,81027,Cave Di San Felice,CE,41.1883,14.2299
ITA,81028,Santa Maria A Vico,CE,41.0261,14.4651
ITA,81030,Casale Di Carinola,CE,41.0546,14.0941
ITA,81031,Aversa,CE,40.9726,14.2074
ITA,81032,Carinaro,CE,40.9829,14.2196
ITA,81033,Casal Di Principe,CE,41.01,14.1301
ITA,81034,Mondragone,CE,41.114,13.8916
ITA,81035,Garofali,CE,41.2994,14.0077
ITA,81036,San Cipriano D'Aversa,CE,40.9988,14.1317
ITA,81037,Cupa E Fasani,CE,41.2543,13.9184
ITA,81038,Trentola Ducenta,CE,41.1538,14.0246
ITA,81039,Villa Literno,CE,41.0094,14.0761
ITA,81040,Borgo Sant'Antonio Abate,CE,41.2625,14.1643
ITA,81041,Bellona,CE,41.1618,14.2233
ITA,81042,Rocchetta E Croce,CE,41.2111,14.1573
ITA,81043,Capua,CE,41.111,14.2313
ITA,81044,Tora E Piccilli,CE,41.3406,13.9902
ITA,81046,Borgo Rurale Appio,CE,41.1039,14.0898
ITA,81047,Macerata Campania,CE,41.0633,14.2775
ITA,81049,Mignano Monte Lungo,CE,41.4108,13.971
ITA,81050,Pantuliano,CE,41.1683,14.1615
ITA,81051,Roccaromana,CE,41.2742,14.2165
ITA,81052,Pignataro Maggiore,CE,41.1901,14.1698
ITA,81053,Riardo,CE,41.262,14.1505
ITA,81054,San Prisco,CE,41.0859,14.2768
ITA,81055,Santa Maria Capua Vetere,CE,41.0816,14.2534
ITA,81056,Sparanise,CE,41.1879,14.0963
ITA,81057,Casi,CE,41.2556,14.0392
ITA,81058,Vairano Scalo,CE,41.3257,14.1236
ITA,81059,Vairano Stazione,CE,41.3053,14.0888
ITA,81100,Tredici,CE,41.1575,14.2437
ITA,82010,Ripabianca Tressanti,BN,41.068,14.7578
ITA,82011,Arpaia,BN,41.0411,14.5564
ITA,82013,Bonea,BN,41.0731,14.6168
ITA,82015,Durazzano,BN,41.0629,14.4495
ITA,82016,Varoni,BN,41.0714,14.6392
ITA,82017,Pannarano,BN,41.0108,14.7029
ITA,82018,Cubante,BN,41.0639,14.8586
ITA,82019,Sant'Agata De' Goti,BN,41.1008,14.4983
ITA,82020,Pago Veiano,BN,41.2805,14.8663
ITA,82021,Apice Nuovo,BN,41.1446,14.9349
ITA,82022,Castelfranco In Miscano,BN,41.3007,15.0861
ITA,82023,Castelvetere In Val Fortore,BN,41.4426,14.9412
ITA,82024,Colle Sannita,BN,41.392,14.8408
ITA,82025,Montefalcone Di Val Fortore,BN,41.3243,15.009
ITA,82026,Morcone,BN,41.3528,14.695
ITA,82027,Pontelandolfo,BN,41.2795,14.6816
ITA,82028,San Bartolomeo In Galdo,BN,41.416,15.0171
ITA,82029,San Marco Dei Cavoti,BN,41.3088,14.8792
ITA,82030,Torello,BN,41.1811,14.5559
ITA,82031,Amorosi,BN,41.2027,14.466
ITA,82032,Cerreto Sannita,BN,41.283,14.5615
ITA,82033,Cusano Mutri,BN,41.3232,14.5183
ITA,82034,San Lorenzo Maggiore,BN,41.2556,14.6194
ITA,82036,Solopaca,BN,41.1954,14.5477
ITA,82037,Castelvenere,BN,41.2282,14.5409
ITA,82038,Vitulano,BN,41.1742,14.6482
ITA,82100,Perrillo,BN,41.1002,14.7992
ITA,83010,Grottolella,AV,40.9842,14.7823
ITA,83011,Altavilla Irpina,AV,41.0062,14.7809
ITA,83012,Ioffredo,AV,41.0215,14.6174
ITA,83013,Santuario Di Montevergine,AV,40.9112,14.7501
ITA,83014,Ospedaletto D'Alpinolo,AV,40.9391,14.7465
ITA,83015,Pietrastornina,AV,41.0038,14.7267
ITA,83016,Tufara Valle,AV,41.0316,14.7176
ITA,83017,Rotondi,AV,41.0329,14.5955
ITA,83018,San Martino Valle Caudina,AV,41.0276,14.6645
ITA,83020,Tavernola San Felice,AV,40.8901,14.699
ITA,83021,Avella,AV,40.96,14.6009
ITA,83022,Baiano,AV,40.9514,14.6165
ITA,83023,Fontenovella,AV,40.8794,14.623
ITA,83024,Monteforte Irpino,AV,40.9027,14.7531
ITA,83025,Montoro,AV,40.8221,14.7848
ITA,83026,Banzano Di Montoro Superiore,AV,40.8739,14.7265
ITA,83027,Mugnano Del Cardinale,AV,40.9425,14.6361
ITA,83028,Serino,AV,40.8671,14.8801
ITA,83029,Solofra,AV,40.8334,14.8371
ITA,83030,Savignano Stazione,AV,41.0547,14.9573
ITA,83031,La Manna,AV,41.1516,15.0893
ITA,83032,Bonito,AV,41.0917,14.9774
ITA,83034,Casalbore,AV,41.2337,15.0075
ITA,83035,Grottaminarda,AV,41.0536,15.0556
ITA,83036,Calore,AV,41.0515,15.0111
ITA,83037,Montecalvo Irpino,AV,41.1962,15.0345
ITA,83038,Montaperto,AV,41.0089,14.897
ITA,83039,Serra Di Pratola Serra,AV,41.0214,14.9144
ITA,83040,Guardia Lombardi,AV,40.937,15.1478
ITA,83041,Aquilonia,AV,40.9869,15.4751
ITA,83042,Atripalda,AV,40.9187,14.8272
ITA,83043,Laceno,AV,40.8133,15.0988
ITA,83044,Piano Regolatore,AV,41.0094,15.3662
ITA,83045,Calitri,AV,40.9257,15.4039
ITA,83046,Lacedonia,AV,41.0502,15.4217
ITA,83047,Lioni,AV,40.8808,15.1834
ITA,83048,Montella,AV,40.8423,15.0171
ITA,83049,Monteverde,AV,40.9986,15.5336
ITA,83050,Villamaina,AV,40.959,15.0462
ITA,83051,Nusco,AV,40.8882,15.0919
ITA,83052,Paternopoli,AV,40.9727,15.0324
ITA,83053,Sant'Andrea Di Conza,AV,40.8448,15.3697
ITA,83054,San Vito Dei Lombardi,AV,40.9375,15.1318
ITA,83055,Sturno,AV,41.0222,15.1125
ITA,83056,Teora,AV,40.8528,15.2534
ITA,83057,Torella Dei Lombardi,AV,40.9373,15.1078
ITA,83058,Molini,AV,41.0546,15.2323
ITA,83059,Vallata,AV,41.0402,15.2538
ITA,83100,Valle Ponticelli,AV,40.9156,14.7949
ITA,84010,Scala,SA,40.6748,14.6073
ITA,84011,Pogerola,SA,40.6349,14.6024
ITA,84012,Angri,SA,40.7381,14.5707
ITA,84013,Dupino,SA,40.681,14.6831
ITA,84014,Nocera Inferiore,SA,40.7454,14.6454
ITA,84015,Materdomini Di Nocera,SA,40.7463,14.6789
ITA,84016,Pagani,SA,40.742,14.6145
ITA,84017,Montepertuso,SA,40.6304,14.4886
ITA,84018,San Pietro Di Scafati,SA,40.7602,14.5372
ITA,84019,Marina Di Vietri,SA,40.6765,14.7192
ITA,84020,Serra Di Castelcivita,SA,40.6185,15.3152
ITA,84021,Buccino Stazione,SA,40.6172,15.3966
ITA,84022,Puglietta,SA,40.6456,15.1293
ITA,84023,Persano,SA,40.55,15.05
ITA,84024,Bagni Di Contursi,SA,40.6662,15.2475
ITA,84025,Corno D'Oro,SA,40.5584,15.0108
ITA,84026,Postiglione,SA,40.559,15.2324
ITA,84027,Sant'Angelo A Fasanella,SA,40.4572,15.3409
ITA,84028,Borgo San Lazzaro,SA,40.5826,15.1492
ITA,84029,Sicignano Degli Alburni Stazione,SA,40.5715,15.3011
ITA,84030,Atena Lucana Scalo,SA,40.2942,15.556
ITA,84031,Auletta,SA,40.5612,15.4231
ITA,84032,Buonabitacolo,SA,40.2686,15.6212
ITA,84033,Montesano Sulla Marcellana,SA,40.2769,15.6975
ITA,84034,Padula,SA,40.339,15.6563
ITA,84035,Polla,SA,40.5143,15.4971
ITA,84036,Sala Consilina,SA,40.4013,15.5914
ITA,84037,Sant'Arsenio,SA,40.4711,15.484
ITA,84038,Silla,SA,40.344,15.5854
ITA,84039,Pantano Di Teggiano,SA,40.3868,15.523
ITA,84040,Ponte,SA,40.19,15.2372
ITA,84042,Acerno,SA,40.7377,15.0569
ITA,84043,Agropoli,SA,40.3492,14.9907
ITA,84044,Albanella,SA,40.4905,15.0907
ITA,84045,Cerrelli,SA,40.5312,15.0903
ITA,84046,Terradura,SA,40.1507,15.2216
ITA,84047,Borgo Nuovo,SA,40.4403,15.0168
ITA,84048,Castellabate,SA,40.2758,14.948
ITA,84049,Castel San Lorenzo,SA,40.4198,15.2252
ITA,84050,Sorvaro,SA,40.2589,15.2123
ITA,84051,Centola,SA,40.0798,15.3112
ITA,84052,San Sumino,SA,40.1941,15.2678
ITA,84053,Cicerale,SA,40.3461,15.1203
ITA,84055,Felitto,SA,40.3735,15.2431
ITA,84056,Cardile,SA,40.2799,15.231
ITA,84057,Laurino,SA,40.3528,15.3374
ITA,84059,Camerota,SA,40.0281,15.3713
ITA,84060,Omignano Stazione,SA,40.2399,15.1646
ITA,84061,Ogliastro Cilento,SA,40.3566,15.0565
ITA,84062,Monticelli,SA,40.5812,15.0316
ITA,84065,Piaggine,SA,40.345,15.3778
ITA,84066,Marina Di Pisciotta,SA,40.1076,15.2471
ITA,84067,Santa Marina,SA,40.0902,15.5316
ITA,84068,Galdo Cilento,SA,40.1918,15.0543
ITA,84069,Fonte,SA,40.4241,15.1257
ITA,84070,Salento,SA,40.2211,15.2446
ITA,84073,Sapri,SA,40.0746,15.6321
ITA,84074,Sessa Cilento,SA,40.2617,15.0714
ITA,84075,Gorga,SA,40.3144,15.246
ITA,84076,Copersito Cilento,SA,40.3182,15.0581
ITA,84077,Torre Orsaia,SA,40.1328,15.4725
ITA,84078,Massa Della Lucania,SA,40.2307,15.2606
ITA,84079,Vibonati,SA,40.0884,15.5888
ITA,84080,Capezzano Superiore,SA,40.7282,14.7763
ITA,84081,Acquamela,SA,40.7397,14.7844
ITA,84082,Manzi,SA,40.4756,15.0006
ITA,84083,Fimiani,SA,40.7128,14.9062
ITA,84084,Fisciano,SA,40.7693,14.7935
ITA,84085,Curteri,SA,40.7441,14.7958
ITA,84086,Casali Di Roccapiemonte,SA,40.7626,14.6803
ITA,84087,Sarno,SA,40.8075,14.6215
ITA,84088,Siano,SA,40.8021,14.6933
ITA,84090,Giffoni Sei Casali,SA,40.7019,14.9013
ITA,84091,Belvedere Di Battipaglia,SA,40.6413,14.8834
ITA,84092,Bellizzi,SA,40.6301,15.1217
ITA,84095,Santa Caterina,SA,40.7202,14.8961
ITA,84096,Lenzi,SA,40.6864,14.9737
ITA,84098,Pontecagnano Faiano,SA,40.6358,14.8902
ITA,84099,Vignale,SA,40.6995,14.8711
ITA,84100,Salerno,SA,40.6755,14.7933
ITA,84121,Salerno,SA,40.6755,14.7933
ITA,84122,Salerno,SA,40.6755,14.7933
ITA,84123,Salerno,SA,40.6755,14.7933
ITA,84124,Salerno,SA,40.6755,14.7933
ITA,84125,Salerno,SA,40.6755,14.7933
ITA,84126,Salerno,SA,40.6755,14.7933
ITA,84127,Torrione Di Salerno,SA,40.7272,14.7646
ITA,84128,Pastena Di Salerno,SA,40.6755,14.7933
ITA,84129,Salerno,SA,40.6755,14.7933
ITA,84131,Fuorni,SA,40.6041,14.919
ITA,84132,Salerno,SA,40.6755,14.7933
ITA,84133,Salerno,SA,40.6755,14.7933
ITA,84134,Giovi,SA,40.6755,14.7933
ITA,84135,Salerno,SA,40.6909,14.9069
ITA,85010,Anzi,PZ,40.5425,15.9692
ITA,85011,Acerenza,PZ,40.7939,15.9381
ITA,85012,Corleto Perticara,PZ,40.3821,16.0392
ITA,85013,Genzano Di Lucania,PZ,40.8459,16.0312
ITA,85014,Laurenzana,PZ,40.4591,15.9707
ITA,85015,Oppido Lucano,PZ,40.6418,15.8079
ITA,85016,San Giorgio,PZ,40.7586,15.836
ITA,85017,Tolve,PZ,40.6942,16.0163
ITA,85018,Trivigno,PZ,40.5802,15.9886
ITA,85020,Sterpito,PZ,40.865,15.6777
ITA,85021,San Cataldo Di Bella,PZ,40.7745,15.7397
ITA,85022,Barile,PZ,40.9433,15.6717
ITA,85023,Forenza,PZ,40.8604,15.8546
ITA,85024,Lavello,PZ,41.0477,15.7891
ITA,85025,Melfi,PZ,41.0102,15.6111
ITA,85026,Palazzo San Gervasio,PZ,40.9316,15.9815
ITA,85027,Rapolla,PZ,40.975,15.672
ITA,85028,Monticchio,PZ,40.9362,15.6203
ITA,85029,Venosa,PZ,40.9628,15.8128
ITA,85030,Mezzana,PZ,40.0877,16.1944
ITA,85031,Miraldo,PZ,40.1424,15.9735
ITA,85032,Teana,PZ,40.1246,16.1836
ITA,85033,Episcopia,PZ,40.0748,16.0982
ITA,85034,Francavilla In Sinni,PZ,40.0976,16.187
ITA,85035,Noepoli,PZ,40.087,16.3283
ITA,85036,Roccanova,PZ,40.2125,16.2043
ITA,85037,Sant'Arcangelo,PZ,40.2534,16.2636
ITA,85038,Senise,PZ,40.1462,16.2887
ITA,85039,Spinoso,PZ,40.2692,15.9666
ITA,85040,Nemoli,PZ,40.034,15.8792
ITA,85042,Lagonegro,PZ,40.1278,15.7621
ITA,85043,Agromonte,PZ,40.0493,15.9897
ITA,85044,Lauria Inferiore,PZ,40.0547,15.8879
ITA,85046,Fiumicello Santa Venere,PZ,40.0023,15.7112
ITA,85047,Moliterno,PZ,40.2439,15.8654
ITA,85048,Rotonda,PZ,39.9521,16.039
ITA,85049,Trecchina,PZ,40.0117,15.7843
ITA,85050,Tito Scalo,PZ,40.5217,15.6621
ITA,85051,Sant'Antonio Casalini,PZ,40.7464,15.5669
ITA,85052,Marsico Nuovo,PZ,40.4124,15.7261
ITA,85053,Montemurro,PZ,40.2977,15.9918
ITA,85054,Muro Lucano,PZ,40.7538,15.4881
ITA,85055,Picerno,PZ,40.6397,15.6423
ITA,85056,Ruoti,PZ,40.7166,15.6837
ITA,85057,Tramutola,PZ,40.3186,15.7875
ITA,85058,Vietri Di Potenza,PZ,40.6021,15.4915
ITA,85059,Viggiano,PZ,40.3421,15.8996
ITA,85100,Giuliano,PZ,40.6659,15.7792
ITA,86010,Ferrazzano,CB,41.5418,14.6644
ITA,86011,Baranello,CB,41.5272,14.558
ITA,86012,Cercemaggiore,CB,41.4613,14.724
ITA,86013,Gambatesa,CB,41.5086,14.9124
ITA,86014,Guardiaregia,CB,41.4344,14.5434
ITA,86015,Jelsi,CB,41.517,14.7979
ITA,86016,Riccia,CB,41.4831,14.8318
ITA,86017,Sepino,CB,41.4078,14.6194
ITA,86018,Toro,CB,41.5731,14.7618
ITA,86019,Vinchiaturo,CB,41.4928,14.592
ITA,86020,Fossalto,CB,41.6292,14.5459
ITA,86021,Castellone Di Boiano,CB,41.4931,14.4677
ITA,86022,Limosano,CB,41.6755,14.6223
ITA,86023,Montagano,CB,41.6454,14.6741
ITA,86024,Petrella Tifernina,CB,41.6913,14.6975
ITA,86025,Ripalimosani,CB,41.6106,14.6631
ITA,86026,Salcito,CB,41.7464,14.5109
ITA,86027,San Massimo,CB,41.4929,14.4102
ITA,86028,Torella Del Sannio,CB,41.6388,14.5203
ITA,86029,Trivento,CB,41.77,14.5461
ITA,86030,Acquaviva Collecroce,CB,41.8257,14.7364
ITA,86031,Castelmauro,CB,41.8285,14.7107
ITA,86032,Montecilfone,CB,41.9016,14.8368
ITA,86033,Montefalcone Nel Sannio,CB,41.8666,14.6382
ITA,86034,Guglionesi,CB,41.9209,14.916
ITA,86035,Larino,CB,41.8045,14.9184
ITA,86036,Montenero Di Bisaccia,CB,41.9644,14.781
ITA,86037,Palata,CB,41.8879,14.7878
ITA,86038,Petacciato,CB,42.0083,14.8603
ITA,86039,Termoli,CB,41.9999,14.9939
ITA,86040,Ripabottoni Stazione,CB,41.6792,14.8751
ITA,86041,Bonefro,CB,41.7051,14.9344
ITA,86042,Lido Di Campomarino,CB,41.9376,15.0546
ITA,86043,Casacalenda,CB,41.7382,14.8473
ITA,86044,Colletorto,CB,41.6617,14.9677
ITA,86045,Portocannone,CB,41.9144,15.0085
ITA,86046,San Martino In Pensilis,CB,41.8781,15.0182
ITA,86047,Santa Croce Di Magliano,CB,41.7122,14.9873
ITA,86048,Sant'Elia A Pianisi,CB,41.6204,14.8752
ITA,86049,Ururi,CB,41.8152,15.0161
ITA,86070,Roccaravindola Stazione,IS,41.5725,14.1162
ITA,86071,Castel San Vincenzo,IS,41.6644,14.0493
ITA,86072,Cerro Al Volturno,IS,41.6611,14.107
ITA,86073,Colli A Volturno,IS,41.6004,14.103
ITA,86074,Cerasuolo,IS,41.5652,14.0393
ITA,86075,Sant'Eusanio,IS,41.526,14.1635
ITA,86077,Santa Maria Oliveto,IS,41.5171,14.082
ITA,86078,Pianura,IS,41.4263,14.0655
ITA,86079,Ceppagna,IS,41.4728,14.0315
ITA,86080,Roccasicura,IS,41.7705,14.2549
ITA,86081,Villa Canale,IS,41.8053,14.3922
ITA,86082,Capracotta,IS,41.8333,14.2658
ITA,86083,Castiglione,IS,41.7197,14.2998
ITA,86084,Vandra,IS,41.6813,14.1898
ITA,86085,Pietrabbondante,IS,41.7453,14.3848
ITA,86086,Poggio Sannita,IS,41.7794,14.4149
ITA,86087,Rionero Sannitico,IS,41.7122,14.1392
ITA,86088,San Pietro Avellana,IS,41.7889,14.1832
ITA,86089,Cerreto,IS,41.7519,14.2484
ITA,86090,Guasto,IS,41.5549,14.3032
ITA,86091,Bagnoli Del Trigno,IS,41.7022,14.4586
ITA,86092,Roccamandolfi,IS,41.5088,14.3725
ITA,86093,Carpinone,IS,41.59,14.3244
ITA,86094,Civitanova Del Sannio,IS,41.6683,14.4028
ITA,86095,Sant'Elena Sannita,IS,41.593,14.4662
ITA,86096,Macchiagodena,IS,41.557,14.394
ITA,86097,Pescolanciano,IS,41.6656,14.3494
ITA,86100,Santo Stefano Di Campobasso,CB,41.5861,14.6389
ITA,86170,Isernia,IS,41.6197,14.2258
ITA,87010,Torano Castello Scalo,CS,39.6356,16.1352
ITA,87011,Sibari Stazione,CS,39.7517,16.3881
ITA,87012,Castrovillari,CS,39.8163,16.2018
ITA,87013,Fagnano Castello,CS,39.5716,16.0625
ITA,87014,Laino Borgo,CS,39.9543,15.9735
ITA,87015,Laino Castello,CS,39.9363,15.9766
ITA,87016,Morano Calabro,CS,39.8414,16.1384
ITA,87017,Roggiano Gravina,CS,39.6179,16.1617
ITA,87018,San Marco Argentano,CS,39.5573,16.1245
ITA,87019,Spezzano Albanese Terme,CS,39.6895,16.2971
ITA,87020,Le Crete,CS,39.6977,15.8784
ITA,87021,Marina Di Belvedere Marittimo,CS,39.6326,15.8575
ITA,87022,Sant'Angelo Di Cetraro,CS,39.5725,15.9299
ITA,87023,Cirella,CS,39.6974,15.8161
ITA,87024,Fuscaldo,CS,39.4179,16.0173
ITA,87026,Mormanno,CS,39.6348,15.9018
ITA,87027,Paola Marina,CS,39.3614,16.0411
ITA,87028,Praia A Mare,CS,39.8941,15.7842
ITA,87029,Scalea,CS,39.8061,15.7964
ITA,87030,Marina Di Fiumefreddo Bruzio,CS,39.2104,16.1346
ITA,87031,Aiello Calabro,CS,39.1178,16.1654
ITA,87032,Amantea Marina,CS,39.0931,16.0862
ITA,87033,Belmonte Calabro,CS,39.1631,16.0836
ITA,87034,Grimaldi,CS,39.1411,16.2351
ITA,87035,Lago,CS,39.1563,16.1493
ITA,87036,Castiglione Cosentino Stazione,CS,39.3419,16.2054
ITA,87037,San Fili,CS,39.3437,16.1383
ITA,87038,Pollella,CS,39.3101,16.0532
ITA,87040,Deposito Di Luzzi,CS,39.3675,16.2247
ITA,87041,Duglia,CS,39.4961,16.4127
ITA,87042,Altomonte,CS,39.699,16.13
ITA,87043,Bisignano,CS,39.5073,16.2811
ITA,87044,Cerisano,CS,39.2771,16.1765
ITA,87045,Tessano,CS,39.258,16.2451
ITA,87046,Parantoro,CS,39.4022,16.1375
ITA,87047,San Pietro In Guarano,CS,39.3451,16.3106
ITA,87048,Santa Sofia D'Epiro,CS,39.546,16.3281
ITA,87050,Pian Del Lago,CS,39.2205,16.3491
ITA,87051,Camarda Di Aprigliano,CS,39.2414,16.3351
ITA,87052,Croce Di Magara,CS,39.3449,16.43
ITA,87053,Celico,CS,39.3101,16.3399
ITA,87054,Saliano,CS,39.1807,16.3765
ITA,87055,Monte Oliveto,CS,39.2525,16.6044
ITA,87056,Santo Stefano Di Rogliano,CS,39.1922,16.3208
ITA,87057,Scigliano,CS,39.1306,16.3071
ITA,87058,Spezzano Della Sila,CS,39.3003,16.3392
ITA,87060,Pietrapaola Stazione,CS,39.5207,16.7129
ITA,87061,Campana,CS,39.4136,16.8222
ITA,87062,Cariati,CS,39.4963,16.9549
ITA,87064,Corigliano Scalo,CS,39.6359,16.511
ITA,87066,Destro,CS,39.4688,16.6523
ITA,87067,Rossano Stazione,CS,39.5964,16.6276
ITA,87069,San Demetrio Corone,CS,39.5755,16.3713
ITA,87070,Piana Di Cerchiara,CS,39.9822,16.4787
ITA,87071,Amendolara Marina,CS,39.9451,16.5944
ITA,87072,Francavilla Marittima,CS,39.8161,16.395
ITA,87073,Oriolo,CS,40.0532,16.4466
ITA,87074,Rocca Imperiale,CS,40.1049,16.5958
ITA,87075,Trebisacce,CS,39.8713,16.5342
ITA,87076,Torre Cerchiar,CS,39.8161,16.4743
ITA,87100,Borgo Partenope,CS,39.3097,16.2943
ITA,88020,Cortale,CZ,38.8433,16.3947
ITA,88021,San Floro,CZ,38.8252,16.5415
ITA,88022,Curinga,CZ,38.832,16.2894
ITA,88024,Girifalco,CZ,38.8259,16.4269
ITA,88025,Maida,CZ,38.8531,16.352
ITA,88040,Pratora Sarrottino,CZ,39.0025,16.3622
ITA,88041,Decollatura,CZ,39.0511,16.3561
ITA,88042,Castiglione Marittimo,CZ,38.9859,16.1613
ITA,88044,Marcellinara,CZ,38.9257,16.4876
ITA,88045,Gimigliano Inferiore,CZ,38.9594,16.5486
ITA,88046,Bella Di Lamezia Terme,CZ,38.9593,16.2947
ITA,88047,Nocera Terinese,CZ,39.0347,16.1674
ITA,88049,Soveria Mannelli,CZ,39.0774,16.38
ITA,88050,Calabricata,CZ,38.9479,16.6462
ITA,88051,Cuturella,CZ,38.9487,16.7925
ITA,88054,Sersale,CZ,39.0101,16.7296
ITA,88055,Buturo,CZ,39.0468,16.5753
ITA,88056,Tiriolo,CZ,38.9262,16.5228
ITA,88060,Marina Di Sant'Andrea Jonio,CZ,38.6386,16.5124
ITA,88062,Cardinale,CZ,38.6538,16.3872
ITA,88064,Chiaravalle Centrale,CZ,38.6794,16.4086
ITA,88065,Guardavalle Marina,CZ,38.4924,16.5417
ITA,88067,Cenadi,CZ,38.7203,16.4198
ITA,88068,Soverato,CZ,38.6875,16.5419
ITA,88069,Staletti,CZ,38.7724,16.5517
ITA,88070,Botricello,CZ,38.93,16.858
ITA,88100,Santa Maria Di Catanzaro,CZ,38.9022,16.6008
ITA,88811,Ciro' Marina,KR,39.3688,17.1248
ITA,88812,Crucoli Torretta,KR,39.4448,17.0251
ITA,88813,Ciro',KR,39.383,17.0638
ITA,88814,Melissa,KR,39.3098,17.0681
ITA,88815,Marina Di Strongoli,KR,39.2283,17.1035
ITA,88816,Strongoli,KR,39.2658,17.0541
ITA,88817,San Nicola Dell'Alto,KR,39.2993,16.9731
ITA,88818,Pallagorio,KR,39.3076,16.9082
ITA,88819,Verzino,KR,39.3132,16.8561
ITA,88821,Rocca Di Neto,KR,39.1802,16.9771
ITA,88822,Zinga,KR,39.2553,16.9359
ITA,88823,Umbriatico,KR,39.3476,16.9049
ITA,88824,Belvedere Di Spinello,KR,39.2836,16.9109
ITA,88825,Savelli,KR,39.3128,16.7764
ITA,88831,San Mauro Marchesato,KR,39.1145,16.9437
ITA,88832,Altilia,KR,39.1646,16.896
ITA,88833,Cerenzia,KR,39.2356,16.7826
ITA,88834,Castelsilano,KR,39.2691,16.7674
ITA,88835,Roccabernarda,KR,39.1328,16.8608
ITA,88836,Cotronei,KR,39.1593,16.7769
ITA,88837,Petilia Policastro,KR,39.1203,16.7781
ITA,88838,Mesoraca,KR,39.0795,16.7881
ITA,88841,Sant'Anna,KR,38.9343,17.0573
ITA,88842,San Leonardo Di Cutro,KR,38.9773,16.964
ITA,88900,Villaggio Bucchi,KR,39.0758,17.0774
ITA,89010,Varapodio,RC,38.2976,15.9887
ITA,89011,Porelli Di Bagnara,RC,38.2257,15.8753
ITA,89012,Delianuova,RC,38.2359,15.9171
ITA,89013,Gioia Tauro,RC,38.4292,15.9071
ITA,89014,Tresilico,RC,38.295,15.982
ITA,89015,Trodio,RC,38.3809,15.8616
ITA,89016,Rizziconi,RC,38.4069,15.9599
ITA,89017,San Giorgio Morgeto,RC,38.3919,16.0879
ITA,89018,Cannitello,RC,38.2292,15.721
ITA,89020,Melicucco,RC,38.4163,16.044
ITA,89021,Cinquefrondi,RC,38.4162,16.0842
ITA,89022,Cittanova,RC,38.3543,16.079
ITA,89023,Bellantone,RC,38.4921,16.0843
ITA,89024,Polistena,RC,38.4054,16.0733
ITA,89025,Rosarno,RC,38.4872,15.9796
ITA,89026,San Ferdinando,RC,38.484,15.9188
ITA,89027,Sant'Eufemia D'Aspromonte,RC,38.2631,15.8567
ITA,89028,Sant'Anna Di Seminara,RC,38.3714,15.929
ITA,89029,San Martino,RC,38.363,15.9817
ITA,89030,Africo,RC,38.0809,16.0411
ITA,89031,Ardore,RC,38.1768,16.1669
ITA,89032,Pardesca,RC,38.0866,16.1364
ITA,89033,Bova,RC,37.9951,15.9319
ITA,89034,Bovalino Marina,RC,38.153,16.161
ITA,89035,Bova Marina,RC,37.935,15.9174
ITA,89036,Capo Spartivento,RC,37.954,16.0892
ITA,89037,Ardore Marina,RC,38.1667,16.2
ITA,89038,Palizzi,RC,37.9478,15.9882
ITA,89039,Plati',RC,38.2215,16.0453
ITA,89040,Martone,RC,38.3396,16.3256
ITA,89041,Campoli Di Caulonia,RC,38.3891,16.4114
ITA,89042,Gioiosa Ionica,RC,38.3272,16.3041
ITA,89043,Grotteria,RC,38.3651,16.2652
ITA,89044,Merici,RC,38.2269,16.2395
ITA,89045,Mammola,RC,38.3626,16.2387
ITA,89046,Marina Di Gioiosa Ionica,RC,38.3016,16.3315
ITA,89047,Roccella Ionica,RC,38.3212,16.3969
ITA,89048,Siderno Marina,RC,38.2858,16.2903
ITA,89049,Stilo,RC,38.4763,16.4675
ITA,89050,Acquacalda,RC,38.2564,15.822
ITA,89052,Campo Calabro,RC,38.2161,15.6592
ITA,89054,Galatro,RC,38.4607,16.1084
ITA,89056,Lubrichi,RC,38.2629,15.9598
ITA,89057,Gambarie,RC,38.1679,15.8116
ITA,89058,Favazzina,RC,38.2781,15.8244
ITA,89060,Saline Joniche,RC,37.999,15.8037
ITA,89062,Lazzaro,RC,37.9728,15.6651
ITA,89063,Lacco,RC,37.9402,15.7713
ITA,89064,Masella,RC,37.9747,15.7486
ITA,89065,Motta San Giovanni,RC,38.0103,15.7126
ITA,89069,Chorio,RC,37.981,15.8276
ITA,89100,Reggio Calabria,RC,38.1105,15.6613
ITA,89121,Archi,RC,38.1764,15.8495
ITA,89122,Vito,RC,38.1193,15.6694
ITA,89123,Reggio Calabria,RC,38.1105,15.6613
ITA,89124,Eremo,RC,38.1105,15.6613
ITA,89125,Reggio Calabria,RC,38.1105,15.6613
ITA,89126,Orti' Superiore,RC,38.1411,15.7279
ITA,89127,Reggio Calabria,RC,38.1105,15.6613
ITA,89128,Reggio Calabria,RC,38.1748,15.8461
ITA,89129,Reggio Calabria,RC,38.1105,15.6613
ITA,89131,Puzzi,RC,38.0881,15.6862
ITA,89132,Reggio Calabria,RC,38.1105,15.6613
ITA,89133,Vinco,RC,38.0996,15.6968
ITA,89134,Croce Valanidi,RC,38.0599,15.6705
ITA,89135,Gallico,RC,38.1647,15.675
ITA,89812,Pizzo,VV,38.7526,16.187
ITA,89813,Polia,VV,38.7511,16.3139
ITA,89814,Scarro,VV,38.801,16.2983
ITA,89815,Francavilla Angitola,VV,38.7802,16.2723
ITA,89816,Favelloni,VV,38.6804,16.0284
ITA,89817,Sciconi,VV,38.6905,16.0308
ITA,89818,Capistrano,VV,38.6913,16.2893
ITA,89819,Monterosso Calabro,VV,38.7175,16.2907
ITA,89821,San Nicola Da Crissa,VV,38.6555,16.2913
ITA,89822,Spadola,VV,38.5979,16.3351
ITA,89823,Mongiana,VV,38.5024,16.3088
ITA,89824,Nardodipace,VV,38.4742,16.343
ITA,89831,Gerocarne,VV,38.5975,16.2043
ITA,89832,Acquaro,VV,38.5568,16.1919
ITA,89833,Melicucca' Di Dinami,VV,38.5279,16.156
ITA,89834,Pizzoni,VV,38.6279,16.2484
ITA,89841,Presinaci,VV,38.609,16.0214
ITA,89842,San Calogero,VV,38.5745,16.0193
ITA,89843,Maierato,VV,38.6924,16.1682
ITA,89844,Motta Filocastro,VV,38.5649,15.9474
ITA,89851,Nao,VV,38.6266,16.0789
ITA,89852,Paravati,VV,38.5876,16.067
ITA,89853,San Gregorio D'Ippona,VV,38.6453,16.1036
ITA,89861,Parghelia,VV,38.6774,15.9157
ITA,89862,Gasponi,VV,38.6556,15.9013
ITA,89863,Joppolo,VV,38.595,15.8917
ITA,89864,Panaia,VV,38.6257,15.8991
ITA,89866,Barbalaconi,VV,38.6417,15.8617
ITA,89867,Zungri,VV,38.6611,15.9564
ITA,89868,Daffina',VV,38.6739,15.9507
ITA,89900,Vena,VV,38.6881,16.0942
ITA,90010,Ustica,PA,37.9751,13.9343
ITA,90011,Aspra,PA,38.0919,13.5071
ITA,90012,San Giovanni Li Greci,PA,37.9017,13.6525
ITA,90013,Castelbuono,PA,37.9253,14.0867
ITA,90014,Casteldaccia,PA,38.0512,13.5304
ITA,90015,Cefalu',PA,38.0146,14.0429
ITA,90016,Collesano,PA,37.9181,13.937
ITA,90017,Sant'Elia,PA,38.0957,13.5353
ITA,90018,Termini Imerese,PA,37.9823,13.6973
ITA,90019,Trabia,PA,38.0042,13.6339
ITA,90020,Nociazzi Inferiore,PA,37.8191,13.8524
ITA,90021,Alia,PA,37.7787,13.7139
ITA,90022,Caltavuturo,PA,37.8204,13.8916
ITA,90023,Ciminna,PA,37.8976,13.5597
ITA,90024,Gangi,PA,37.7957,14.2044
ITA,90025,Lercara Friddi,PA,37.7466,13.6039
ITA,90026,Pianello,PA,37.7871,14.1124
ITA,90027,Petralia Sottana,PA,37.8092,14.0929
ITA,90028,Polizzi Generosa,PA,37.8116,14.0027
ITA,90029,Valledolmo,PA,37.747,13.8281
ITA,90030,Godrano,PA,37.87,13.3798
ITA,90031,Belmonte Mezzagno,PA,38.0465,13.3921
ITA,90032,Bisacquino,PA,37.7035,13.2605
ITA,90033,Chiusa Sclafani,PA,37.6507,13.2619
ITA,90034,Corleone,PA,37.8492,13.3385
ITA,90035,Marineo,PA,37.9519,13.4178
ITA,90036,Portella Di Mare,PA,38.0524,13.455
ITA,90037,Piana Degli Albanesi,PA,37.9937,13.2846
ITA,90038,Prizzi,PA,37.7072,13.451
ITA,90039,Villabate,PA,38.0779,13.4428
ITA,90040,Cortiglia,PA,38.058,13.1677
ITA,90041,Balestrate,PA,38.0512,13.0072
ITA,90042,Borgetto,PA,38.0466,13.1407
ITA,90043,Camporeale,PA,37.8861,13.1011
ITA,90044,Villagrazia Di Carini,PA,38.1471,13.1759
ITA,90045,Cinisi,PA,38.1608,13.101
ITA,90046,Poggio San Francesco,PA,38.005,13.3417
ITA,90047,Partinico,PA,38.0466,13.1179
ITA,90048,San Giuseppe Jato,PA,37.9733,13.1889
ITA,90049,Citta' Del Mare,PA,38.1234,13.079
ITA,90100,Palermo,PA,38.1321,13.3356
ITA,90121,In Via Messina Marine,PA,38.116,13.3178
ITA,90122,Palermo,PA,38.1321,13.3356
ITA,90123,Palermo,PA,38.1321,13.3356
ITA,90124,Palermo,PA,38.1321,13.3356
ITA,90125,Palermo,PA,38.1321,13.3356
ITA,90126,Palermo,PA,38.1321,13.3356
ITA,90127,Palermo,PA,38.1321,13.3356
ITA,90128,Palermo,PA,38.1321,13.3356
ITA,90129,Palermo,PA,38.1321,13.3356
ITA,90131,Rocca Monreale,PA,38.1321,13.3356
ITA,90132,Palermo,PA,38.1321,13.3356
ITA,90133,Tribunali Castellammare,PA,38.1321,13.3356
ITA,90134,Zisa,PA,38.1321,13.3356
ITA,90135,Palermo,PA,38.1321,13.3356
ITA,90136,Palermo,PA,38.1321,13.3356
ITA,90137,Palermo,PA,38.1321,13.3356
ITA,90138,Zisa,PA,38.1321,13.3356
ITA,90139,Palermo,PA,38.1321,13.3356
ITA,90141,Palermo,PA,38.1321,13.3356
ITA,90142,Montepellegrino,PA,38.1321,13.3356
ITA,90143,Palermo,PA,38.1321,13.3356
ITA,90144,Palermo,PA,38.1321,13.3356
ITA,90145,Palermo,PA,38.1321,13.3356
ITA,90146,Pallavicino,PA,38.1321,13.3356
ITA,90147,Palermo,PA,38.1321,13.3356
ITA,90148,Palermo,PA,38.1497,13.3089
ITA,90149,Palermo,PA,38.1321,13.3356
ITA,90151,Partanna Mondello,PA,38.166,13.3345
ITA,91010,Marettimo,TP,38.0719,12.7596
ITA,91011,Alcamo,TP,37.9779,12.9647
ITA,91012,Battaglia,TP,37.9852,12.7537
ITA,91013,Calatafimi Segesta,TP,37.9083,12.8758
ITA,91014,Castello Inici,TP,38.0421,12.828
ITA,91015,Custonaci,TP,38.0774,12.6952
ITA,91016,San Giuliano Trentapiedi,TP,38.0174,12.6011
ITA,91017,Pantelleria,TP,38.0049,12.7136
ITA,91018,Gorgazzo,TP,37.8305,12.788
ITA,91019,Valderice,TP,38.0405,12.6201
ITA,91020,Costiera Di Mazara,TP,37.7038,12.7691
ITA,91021,Tre Fontane,TP,37.5928,12.711
ITA,91022,Marinella,TP,37.6144,12.8174
ITA,91023,Levanzo,TP,37.9584,12.3353
ITA,91024,Villaggio Madonna Delle Grazie,TP,37.807,12.8695
ITA,91025,Santo Padre Delle Perriere,TP,37.7763,12.5009
ITA,91026,Borgata Costiera,TP,37.6829,12.6157
ITA,91027,Paceco,TP,37.9761,12.57
ITA,91028,Partanna,TP,37.7268,12.8892
ITA,91029,Santa Ninfa,TP,37.7704,12.8774
ITA,91100,Borgo Annunziata,TP,37.9507,12.5711
ITA,92010,Lampedusa,AG,37.5161,13.3266
ITA,92011,Cattolica Eraclea,AG,37.4407,13.3926
ITA,92012,Cianciana,AG,37.519,13.4335
ITA,92013,Menfi,AG,37.6041,12.9689
ITA,92014,Porto Empedocle,AG,37.2894,13.5249
ITA,92015,Raffadali,AG,37.4021,13.5318
ITA,92016,Borgo Bonsignore,AG,37.4597,13.2679
ITA,92017,Sambuca Di Sicilia,AG,37.6529,13.1146
ITA,92018,Santa Margherita Di Belice,AG,37.6928,13.0158
ITA,92019,Sciacca,AG,37.5069,13.084
ITA,92020,Comitini,AG,37.4395,13.6197
ITA,92021,Caldare,AG,37.3904,13.6283
ITA,92022,Borgo Callea,AG,37.6336,13.6272
ITA,92023,Campobello Di Licata,AG,37.2576,13.9181
ITA,92024,Canicatti',AG,37.3584,13.8479
ITA,92025,Casteltermini,AG,37.5387,13.646
ITA,92026,Favara,AG,37.3175,13.6623
ITA,92027,Licata,AG,37.1027,13.9397
ITA,92028,Naro,AG,37.2925,13.7934
ITA,92029,Ravanusa,AG,37.2666,13.9683
ITA,92100,Borgo La Loggia,AG,37.3045,13.5672
ITA,93010,Bompensiere,CL,37.536,13.8259
ITA,93011,Butera,CL,37.191,14.1823
ITA,93012,Gela,CL,37.0738,14.2404
ITA,93013,Mazzarino,CL,37.3019,14.2096
ITA,93014,Polizzello,CL,37.5904,13.7927
ITA,93015,Niscemi,CL,37.1465,14.3938
ITA,93016,Riesi,CL,37.2808,14.0832
ITA,93017,San Cataldo,CL,37.4841,13.9854
ITA,93018,Santa Caterina Villarmosa,CL,37.5903,14.0355
ITA,93019,Trabia Miniere,CL,37.3347,13.9974
ITA,93100,Caltanissetta,CL,37.4504,14.1112
ITA,94010,Borgo Baccarato,EN,37.6385,14.4209
ITA,94011,Agira,EN,37.6558,14.5197
ITA,94012,Barrafranca,EN,37.3785,14.2027
ITA,94013,Leonforte,EN,37.642,14.3977
ITA,94014,Nicosia,EN,37.6735,14.3608
ITA,94015,Piazza Armerina,EN,37.3842,14.3692
ITA,94016,Pietraperzia,EN,37.4185,14.1374
ITA,94017,Regalbuto,EN,37.6519,14.6391
ITA,94018,Troina,EN,37.7844,14.5961
ITA,94019,Valguarnera Caropepe,EN,37.4953,14.3903
ITA,94100,Enna,EN,37.5287,14.2602
ITA,95010,Dagala Del Re,CT,37.7118,15.1286
ITA,95011,Pasteria,CT,37.8153,15.2294
ITA,95012,Castiglione Di Sicilia,CT,37.873,15.0976
ITA,95013,Fiumefreddo Di Sicilia,CT,37.7915,15.2092
ITA,95014,Trepunti,CT,37.7111,15.1766
ITA,95015,Linguaglossa,CT,37.8424,15.1377
ITA,95016,Carrabba,CT,37.7655,15.1708
ITA,95017,Presa,CT,37.7982,15.153
ITA,95018,Riposto,CT,37.7212,15.2112
ITA,95019,Sarro,CT,37.6645,15.1022
ITA,95020,Aci Bonaccorsi,CT,37.5964,15.1072
ITA,95021,Aci Trezza,CT,37.6353,15.1523
ITA,95022,Nizzeti,CT,37.5894,15.1391
ITA,95024,Pennisi,CT,37.6159,15.1089
ITA,95025,Lavina,CT,37.6281,15.1099
ITA,95027,Cerza,CT,37.5553,15.1081
ITA,95028,Valverde,CT,37.577,15.1242
ITA,95029,Viagrande,CT,37.6103,15.0979
ITA,95030,Nicolosi,CT,37.6131,15.0221
ITA,95031,Adrano,CT,37.6636,14.8328
ITA,95032,Borrello Di Catania,CT,37.5699,14.981
ITA,95033,Biancavilla,CT,37.6444,14.8668
ITA,95034,Bronte,CT,37.7886,14.8338
ITA,95035,Maletto,CT,37.8291,14.864
ITA,95036,Randazzo,CT,37.8774,14.9501
ITA,95037,Trappeto,CT,37.5712,15.0922
ITA,95038,Santa Maria Di Licodia,CT,37.6168,14.8934
ITA,95039,Trecastagni,CT,37.6154,15.078
ITA,95040,Ramacca,CT,37.3966,14.6343
ITA,95041,San Pietro Di Caltagirone,CT,37.1426,14.5218
ITA,95042,Grammichele,CT,37.2133,14.6331
ITA,95043,Militello In Val Di Catania,CT,37.2759,14.7934
ITA,95044,Borgo Lupo,CT,37.3035,14.6602
ITA,95045,Misterbianco,CT,37.5219,15.0309
ITA,95046,Palagonia,CT,37.3296,14.7447
ITA,95047,Sferro,CT,37.5343,14.8488
ITA,95048,Scordia,CT,37.2955,14.8406
ITA,95049,Vizzini,CT,37.1619,14.7571
ITA,95100,Catania,CT,37.4922,15.0704
ITA,95121,Fontanarossa Aereoporto,CT,37.6222,14.9033
ITA,95122,Catania,CT,37.4922,15.0704
ITA,95123,Cibali,CT,37.5115,15.0633
ITA,95124,Catania,CT,37.4922,15.0704
ITA,95125,Barriera Del Bosco,CT,37.5166,15.0834
ITA,95126,Ognina,CT,37.5024,14.95
ITA,95127,Catania,CT,37.4922,15.0704
ITA,95128,Catania,CT,37.4922,15.0704
ITA,95129,Catania,CT,37.4922,15.0704
ITA,95131,Catania,CT,37.4922,15.0704
ITA,96010,San Foca',SR,37.0904,15.0394
ITA,96011,Augusta,SR,37.2613,15.2048
ITA,96012,Avola,SR,36.9084,15.1394
ITA,96013,Borgo Rizza,SR,37.2363,14.9734
ITA,96014,Floridia,SR,37.0834,15.1533
ITA,96015,Francofonte,SR,37.2248,14.8749
ITA,96016,Lentini,SR,37.2856,14.9974
ITA,96017,Santa Lucia Di Noto,SR,36.9363,15.0367
ITA,96018,Pachino,SR,36.7152,15.0902
ITA,96019,Rosolini,SR,36.8214,14.9513
ITA,96100,Belvedere,SR,37.0554,15.235
ITA,97010,Bellocozzo,RG,36.9381,14.7056
ITA,97011,Acate,RG,37.0232,14.493
ITA,97012,Chiaramonte Gulfi,RG,37.0305,14.703
ITA,97013,Pedalino,RG,36.9861,14.5943
ITA,97014,Ispica,RG,36.7862,14.9053
ITA,97015,Cava D'Ispica,RG,36.8891,14.7919
ITA,97016,Pozzallo,RG,36.7303,14.8467
ITA,97017,Donnafugata,RG,36.8559,14.546
ITA,97018,Jungi,RG,36.7508,14.6929
ITA,97019,Vittoria,RG,36.9229,14.4807
ITA,97100,Ragusa Ibla,RG,36.9257,14.7262
ITA,98020,Pagliara,ME,37.9958,15.3624
ITA,98021,Ali' Terme,ME,38.0051,15.4227
ITA,98022,Fiumedinisi,ME,38.026,15.381
ITA,98023,Furci Siculo,ME,37.9616,15.3776
ITA,98025,Itala Marina,ME,38.0441,15.4449
ITA,98026,Nizza Di Sicilia,ME,37.9908,15.4096
ITA,98027,Sciglio,ME,37.9843,15.3903
ITA,98028,Barracca,ME,37.9627,15.3406
ITA,98029,Guidomandri,ME,38.0468,15.4594
ITA,98030,Forza D'Agro',ME,37.9126,15.1534
ITA,98031,Capizzi,ME,37.8479,14.4798
ITA,98032,Misitano Inferiore,ME,37.9773,15.2869
ITA,98033,Cesaro',ME,37.8448,14.7131
ITA,98034,Francavilla Di Sicilia,ME,37.902,15.1382
ITA,98035,Pallio,ME,37.8211,15.2532
ITA,98036,Graniti,ME,37.8899,15.2246
ITA,98037,Letojanni,ME,37.8805,15.3073
ITA,98038,Savoca,ME,37.948,15.337
ITA,98039,Chianchitta,ME,37.8531,15.2853
ITA,98040,Scala Di Torregrotta,ME,38.1877,15.3438
ITA,98041,Monforte San Giorgio,ME,38.1681,15.3708
ITA,98042,Giammoro,ME,38.1919,15.3065
ITA,98043,Sant'Andrea,ME,38.1936,15.4173
ITA,98044,Cattafi,ME,38.1787,15.2702
ITA,98045,San Pier Niceto,ME,38.1802,15.3378
ITA,98046,Santa Lucia Del Mela,ME,38.1441,15.2806
ITA,98047,Cavaliere,ME,38.2114,15.4314
ITA,98048,San Martino Spadafora,ME,38.212,15.388
ITA,98049,Serro,ME,38.1741,15.2911
ITA,98050,Terme Vigliatore,ME,38.5193,14.9976
ITA,98051,Caldera',ME,38.134,15.1872
ITA,98053,Castroreale,ME,38.098,15.2026
ITA,98054,Furnari,ME,38.1149,15.1186
ITA,98055,Canneto Lipari,ME,38.4919,14.9441
ITA,98056,Mazzarra' Sant'Andrea,ME,38.0897,15.1354
ITA,98057,Santa Marina Di Milazzo,ME,38.2017,15.2368
ITA,98058,Novara Di Sicilia,ME,38.0125,15.1176
ITA,98059,Rodi' Milici,ME,38.0835,15.1688
ITA,98060,San Lorenzitto,ME,38.1077,14.9571
ITA,98061,Brolo,ME,38.1562,14.828
ITA,98062,Ficarra,ME,38.1085,14.8299
ITA,98063,Magaro,ME,38.171,14.9238
ITA,98064,Colla Maffone,ME,38.0905,14.9656
ITA,98065,Braidi,ME,38.0458,15.0217
ITA,98066,Marina Di Patti,ME,38.1356,15.0097
ITA,98067,Fondachello Di Raccuja,ME,38.0452,14.9098
ITA,98068,San Piero Patti,ME,38.0464,14.9766
ITA,98069,Sinagra,ME,38.0819,14.8501
ITA,98070,Militello Rosmarino,ME,38.0388,14.6592
ITA,98071,Piana Di Capo D'Orlando,ME,38.1468,14.7559
ITA,98072,Caronia,ME,38.0269,14.424
ITA,98073,Mistretta,ME,37.9282,14.3578
ITA,98074,Cresta,ME,38.1233,14.768
ITA,98075,San Fratello,ME,38.0156,14.5982
ITA,98076,Sant'Agata Di Militello,ME,38.0561,14.6398
ITA,98077,Santo Stefano Di Camastra,ME,38.013,14.3514
ITA,98078,Tortorici,ME,38.0282,14.8262
ITA,98079,Tusa,ME,37.9964,14.2468
ITA,98100,Messina,ME,38.1939,15.5526
ITA,98121,Messina,ME,38.1939,15.5526
ITA,98122,Messina,ME,38.1939,15.5526
ITA,98123,Messina,ME,38.1939,15.5526
ITA,98124,Messina,ME,38.1803,15.5513
ITA,98125,Messina,ME,38.1903,15.5502
ITA,98126,Santa Lucia Sopra Contesse,ME,38.1939,15.5526
ITA,98127,Messina,ME,38.1903,15.5502
ITA,98128,Messina,ME,38.1903,15.5502
ITA,98129,Messina,ME,38.1675,15.5277
ITA,98131,Mili Marina,ME,38.1553,15.5346
ITA,98132,Mili Marina,ME,38.1424,15.5231
ITA,98133,Messina,ME,38.1667,15.5341
ITA,98134,Messina,ME,38.147,15.5263
ITA,98135,Santo Stefano Medio,ME,38.0527,15.4482
ITA,98136,Messina,ME,38.1939,15.5526
ITA,98137,Messina,ME,38.147,15.5179
ITA,98138,Messina,ME,38.1396,15.5055
ITA,98139,San Placido Calonero',ME,38.1362,15.5127
ITA,98141,Giampilieri Marina,ME,38.1872,15.538
ITA,98142,San Filippo Inferiore,ME,38.1416,15.5111
ITA,98143,Molino,ME,38.1149,15.4846
ITA,98144,San Filippo,ME,38.2368,15.5289
ITA,98145,Bordonaro,ME,38.2189,15.5248
ITA,98146,Santo,ME,38.1836,15.5298
ITA,98147,Villaggio Aldisio,ME,38.1872,15.538
ITA,98148,Santo,ME,38.1886,15.5429
ITA,98149,Cataratti,ME,38.1929,15.5318
ITA,98151,Messina,ME,38.197,15.5347
ITA,98152,Scala Ritiro,ME,38.15,15.3428
ITA,98153,Messina,ME,38.2146,15.5107
ITA,98154,Salice Calabro,ME,38.2219,15.5242
ITA,98155,Castanea Delle Furie,ME,38.239,15.5321
ITA,98156,Massa San Giorgio,ME,38.2342,15.5447
ITA,98157,Massa San Giovanni,ME,38.243,15.5487
ITA,98158,Messina,ME,38.2309,15.5676
ITA,98159,Liuzzo Orto,ME,38.2244,15.5054
ITA,98161,Rodia,ME,38.2336,15.5191
ITA,98162,Messina,ME,38.2069,15.5551
ITA,98163,Sparta',ME,38.2438,15.5438
ITA,98164,Lido Di Mortelle,ME,38.2303,15.6013
ITA,98165,Messina,ME,38.2069,15.5551
ITA,98166,Messina,ME,38.2241,15.5763
ITA,98167,Messina,ME,38.2069,15.5551
ITA,98168,Villaggio Annunziata,ME,38.1991,15.5536